{"type":"FeatureCollection","features":[{"type":"Feature","properties":{"kind":"lakes","name":"官厅水库","source":"Natural Earth 1:10m"},"geometry":{"type":"Polygon","coordinates":[[[115.731468,40.355081],[115.796523,40.42043],[115.800644,40.411893],[115.800055,40.403651],[115.796523,40.395409],[115.796523,40.386283],[115.783571,40.375981],[115.772091,40.362145],[115.757961,40.350371],[115.722343,40.342717],[115.636094,40.311809],[115.619316,40.301506],[115.612251,40.286199],[115.60813,40.273836],[115.58723,40.237924],[115.578105,40.227915],[115.578693,40.246755],[115.570746,40.293559],[115.581343,40.303567],[115.646397,40.330943],[115.713806,40.345072],[115.731468,40.355081]]]}},{"type":"Feature","properties":{"kind":"rivers","name":"Sanggan","source":"Natural Earth 1:10m"},"geometry":{"type":"MultiLineString","coordinates":[[[115.574148,40.296698],[115.574148,40.296454],[115.574229,40.296251],[115.587901,40.276435],[115.584239,40.256537],[115.589122,40.240424]]]}},{"type":"Feature","properties":{"kind":"rivers","name":"Sanggan","source":"Natural Earth 1:10m"},"geometry":{"type":"MultiLineString","coordinates":[[[112.590017,39.343614],[112.639171,39.360867],[112.701915,39.373114],[112.713634,39.377143],[112.724294,39.389757],[112.733979,39.40587],[112.74464,39.419745],[112.758311,39.425564],[112.76946,39.431952],[112.796397,39.46015],[112.806407,39.466498],[112.821544,39.467637],[112.850841,39.475043],[112.864513,39.48017],[112.872488,39.485175],[112.875906,39.489814],[112.881277,39.493191],[112.905203,39.495307],[112.917247,39.498074],[112.927745,39.503119],[112.93214,39.510932],[112.950694,39.531806],[113.023448,39.557929],[113.027761,39.576361],[113.034597,39.580756],[113.049083,39.586534],[113.055675,39.590033],[113.074474,39.607286],[113.076182,39.60989],[113.093028,39.611518],[113.108409,39.610053],[113.121349,39.612006],[113.131358,39.623562],[113.128998,39.631049],[113.130382,39.653266],[113.129649,39.660671],[113.151378,39.671576],[113.161794,39.678778],[113.188406,39.703884],[113.195567,39.714301],[113.220714,39.763495],[113.232595,39.779608],[113.272065,39.803575],[113.397065,39.854682],[113.458914,39.8664],[113.476003,39.874335],[113.494233,39.886583],[113.554779,39.912177],[113.667572,39.97956],[113.712413,39.991889],[113.73821,39.992703],[113.811697,39.985053],[113.831065,39.985785],[113.930105,40.005439],[114.024913,40.000922],[114.061941,40.003241],[114.149913,40.032904],[114.384044,40.143256],[114.387543,40.143256],[114.398529,40.142117],[114.405203,40.143256],[114.423269,40.154608],[114.575125,40.21308],[114.637299,40.252509],[114.691824,40.278347],[114.722179,40.286566],[114.750499,40.286689],[114.781749,40.277615],[114.79713,40.27501],[114.814464,40.276923],[114.908132,40.316718],[114.91684,40.318305],[114.934825,40.319363],[114.94337,40.321357],[114.951915,40.325995],[114.971934,40.344753],[114.993663,40.354926],[115.013194,40.354112],[115.03297,40.349433],[115.055186,40.347724],[115.07545,40.351426],[115.115245,40.363593],[115.135509,40.367214],[115.434093,40.35102],[115.496755,40.360867],[115.516124,40.357245],[115.530284,40.346625],[115.563487,40.312567],[115.574229,40.296251]],[[112.336925,39.165961],[112.36085,39.243028],[112.380463,39.274929],[112.418224,39.296942],[112.438569,39.296942],[112.443858,39.299831],[112.447846,39.304267],[112.452403,39.310614],[112.462576,39.313747],[112.521658,39.318142],[112.568777,39.330024],[112.590017,39.337917]]]}},{"type":"Feature","properties":{"kind":"rivers","name":"Yongding","source":"Natural Earth 1:10m"},"geometry":{"type":"MultiLineString","coordinates":[[[115.589122,40.240424],[115.597992,40.221869],[115.605479,40.192654],[115.612315,40.180203],[115.621349,40.174628],[115.653819,40.162136],[115.663503,40.159735],[115.666596,40.156806],[115.667491,40.14997],[115.666921,40.13581],[115.669932,40.133612],[115.685069,40.126899],[115.690684,40.122423],[115.696869,40.106391],[115.693614,40.07807],[115.700857,40.063503],[115.720307,40.074001],[115.733653,40.075507],[115.76588,40.070909],[115.776378,40.063422],[115.781668,40.04739],[115.79005,40.032742],[115.810151,40.029364],[115.808116,40.025824],[115.803396,40.016303],[115.812918,40.019843],[115.819835,40.021104],[115.82545,40.019965],[115.831472,40.016303],[115.840017,40.016913],[115.861501,40.02143],[115.872325,40.022528],[115.883311,40.019477],[115.90504,40.005805],[115.916596,40.002712],[115.930431,39.996853],[115.972667,39.973334],[115.981537,39.9713],[115.985037,39.975043],[116.005789,40.002712],[116.016531,39.998358],[116.024506,39.979112],[116.033295,39.974718],[116.04184,39.977891],[116.047862,39.992051],[116.053966,39.995225],[116.06544,39.990912],[116.070242,39.981553],[116.072032,39.972195],[116.111908,39.90644],[116.124929,39.893866],[116.19044,39.854193],[116.205984,39.839708],[116.219249,39.822618],[116.22934,39.803412],[116.230724,39.78795],[116.229747,39.748358],[116.236095,39.735175],[116.215831,39.700303],[116.204845,39.659491],[116.202566,39.617011],[116.2081,39.57685],[116.224701,39.53559],[116.249522,39.505683],[116.317393,39.460801],[116.335541,39.453192],[116.386241,39.442003],[116.410167,39.440294],[116.433442,39.442247],[116.447032,39.447292],[116.458751,39.453884],[116.475597,39.460801],[116.502045,39.464545],[116.598155,39.448106],[116.611501,39.434394],[116.62322,39.418524],[116.640717,39.406195],[116.648448,39.404975],[116.666026,39.406521],[116.674327,39.406195],[116.681814,39.403591],[116.694753,39.395616],[116.701589,39.392524],[116.749034,39.380316],[116.763682,39.378852],[116.879649,39.385077],[116.895437,39.383409],[116.934255,39.371446],[116.948985,39.359971],[116.954845,39.357123],[116.984386,39.35753],[116.992442,39.354071],[117.033621,39.33043]]]}},{"type":"Feature","properties":{"kind":"rivers","name":"Luan","source":"Natural Earth 1:10m"},"geometry":{"type":"MultiLineString","coordinates":[[[116.61435,41.907904],[116.573741,41.889472],[116.554454,41.876247],[116.541108,41.858669],[116.527436,41.821601],[116.516612,41.804511],[116.490001,41.785468],[116.47877,41.771674],[116.475597,41.749864],[116.482595,41.733466],[116.494233,41.718451],[116.50172,41.703681],[116.495616,41.687812],[116.520763,41.684841],[116.532725,41.667914],[116.542491,41.649034],[116.56129,41.640001],[116.572846,41.643988],[116.584483,41.651231],[116.596446,41.655463],[116.621186,41.644884],[116.632335,41.648627],[116.642833,41.655626],[116.65325,41.660509],[116.66505,41.661485],[116.701589,41.660509],[116.735769,41.672309],[116.746349,41.67418],[116.764415,41.671088],[116.888113,41.622423],[116.910167,41.619574],[116.920339,41.620673],[116.940033,41.625312],[116.951427,41.62641],[116.967459,41.625067],[116.976654,41.62169],[116.984386,41.617255],[117.064057,41.58865],[117.10434,41.582872],[117.154714,41.567572],[117.174571,41.558173],[117.191987,41.542996],[117.201915,41.537665],[117.211029,41.537624],[117.220225,41.53974],[117.227061,41.536485],[117.229747,41.52029],[117.231456,41.514106],[117.239757,41.497992],[117.242768,41.489203],[117.242442,41.476752],[117.239675,41.466376],[117.239187,41.456244],[117.246593,41.444525],[117.250499,41.436387],[117.251394,41.42532],[117.250255,41.403591],[117.255056,41.392157],[117.266694,41.381537],[117.290619,41.366278],[117.306733,41.352484],[117.316987,41.349311],[117.339692,41.359931],[117.351492,41.358832],[117.356293,41.35338],[117.345795,41.344591],[117.352468,41.340847],[117.355398,41.339626],[117.359467,41.338406],[117.359467,41.331],[117.318614,41.331],[117.326671,41.321234],[117.336436,41.316962],[117.34669,41.313788],[117.356049,41.307318],[117.351329,41.304796],[117.348074,41.291287],[117.344737,41.244818],[117.354096,41.228624],[117.393647,41.201239],[117.38616,41.195014],[117.393647,41.187567],[117.399425,41.190863],[117.407644,41.192572],[117.417491,41.192979],[117.428396,41.192206],[117.462494,41.184882],[117.475515,41.179633],[117.482432,41.174506],[117.489187,41.154364],[117.490489,41.127875],[117.487804,41.102403],[117.482432,41.08515],[117.506602,41.085028],[117.514659,41.072699],[117.510183,41.056016],[117.496023,41.042914],[117.5088,41.027045],[117.503917,41.012397],[117.495128,40.99787],[117.496023,40.982123],[117.528738,40.991278],[117.561453,40.978705],[117.592296,40.962714],[117.61964,40.961615],[117.629812,40.971503],[117.639252,40.985663],[117.65089,40.997992],[117.66741,41.002631],[117.679617,40.996161],[117.697846,40.96662],[117.708995,40.954779],[117.766124,40.943061],[117.777273,40.934353],[117.773367,40.924262],[117.763438,40.914822],[117.760671,40.904893],[117.777273,40.893378],[117.794526,40.891547],[117.811127,40.896837],[117.826182,40.903673],[117.839366,40.906358],[117.856619,40.900458],[117.864513,40.888861],[117.863048,40.874091],[117.853608,40.858588],[117.870046,40.859687],[117.888682,40.864854],[117.90683,40.87226],[117.920502,40.879706],[117.925955,40.887234],[117.924083,40.893581],[117.924897,40.897976],[117.937999,40.899604],[117.9463,40.895697],[117.964692,40.877712],[117.969005,40.87226],[117.971202,40.864366],[117.970876,40.855414],[117.97226,40.848009],[117.979015,40.844916],[117.990815,40.846218],[118.014578,40.851264],[118.024099,40.851752],[118.044932,40.844916],[118.052989,40.832384],[118.057709,40.81684],[118.068614,40.800849],[118.085053,40.791571],[118.106863,40.782986],[118.125499,40.772813],[118.133474,40.758979],[118.132335,40.749945],[118.12672,40.728868],[118.132904,40.718329],[118.15089,40.704128],[118.154552,40.697821],[118.160655,40.680935],[118.171886,40.671576],[118.178803,40.663398],[118.171316,40.65001],[118.140636,40.62226],[118.136241,40.610419],[118.160737,40.612169],[118.156261,40.605658],[118.151947,40.597764],[118.148855,40.588568],[118.147065,40.57807],[118.169932,40.587836],[118.181651,40.590644],[118.194916,40.591742],[118.19044,40.579779],[118.174571,40.550727],[118.186046,40.553046],[118.204031,40.565212],[118.216075,40.570624],[118.215017,40.558905],[118.218191,40.549994],[118.225108,40.544501],[118.236501,40.54328],[118.234467,40.538845],[118.231293,40.527289],[118.229096,40.522773],[118.265066,40.514919],[118.2706,40.512274],[118.266368,40.502753],[118.247569,40.501899],[118.243337,40.492377],[118.24879,40.487982],[118.275076,40.490098],[118.284272,40.488715],[118.29127,40.476833],[118.288503,40.465359],[118.277436,40.447699],[118.27532,40.43476],[118.277436,40.403022],[118.274425,40.390326],[118.260265,40.372748],[118.256928,40.362087],[118.260265,40.350165],[118.274425,40.327826],[118.277436,40.31741],[118.273692,40.308173],[118.250092,40.276435],[118.2588,40.274482],[118.284109,40.271593],[118.29127,40.269599],[118.295909,40.263617],[118.296886,40.258246],[118.296886,40.251573],[118.298595,40.241645],[118.29713,40.240302],[118.292247,40.229071],[118.29127,40.224555],[118.293224,40.21955],[118.302338,40.212348],[118.304779,40.208116],[118.307546,40.198554],[118.311046,40.191026],[118.311534,40.183132],[118.304779,40.172716],[118.317556,40.151923],[118.334239,40.147284],[118.377452,40.15351],[118.450776,40.145046],[118.523692,40.150499],[118.5678,40.14643],[118.600597,40.126776],[118.613292,40.084581],[118.611908,40.073554],[118.606456,40.053778],[118.606456,40.043647],[118.610037,40.037787],[118.623464,40.022081],[118.626394,40.012559],[118.630789,40.002753],[118.649913,39.988837],[118.659679,39.965033],[118.672455,39.957302],[118.688243,39.953925],[118.702078,39.95364],[118.733653,39.963935],[118.741222,39.957953],[118.743663,39.930365],[118.749034,39.92182],[118.772472,39.915635],[118.777843,39.909613],[118.778901,39.898505],[118.781993,39.891384],[118.802745,39.860053],[118.807384,39.848253],[118.804128,39.836249],[118.791433,39.817084],[118.799571,39.800808],[118.788666,39.787421],[118.772472,39.776068],[118.764171,39.765896],[118.762218,39.755723],[118.753022,39.73371],[118.750499,39.721503],[118.751069,39.710069],[118.757335,39.683661],[118.780284,39.649359],[118.826671,39.621934],[118.862315,39.593695],[118.853526,39.556993],[118.87794,39.546007],[118.910167,39.542304],[118.973399,39.543402],[118.97462,39.537136],[118.970225,39.501776],[118.980724,39.493964],[119.01946,39.472235],[119.031668,39.466986],[119.048106,39.467353],[119.08074,39.47838],[119.096609,39.481309],[119.114675,39.479071],[119.149425,39.469306],[119.16505,39.466986],[119.190522,39.457831],[119.244884,39.418972],[119.257498,39.412421]]]}}]}