{"type":"FeatureCollection","features":[{"type":"Feature","properties":{"kind":"lakes","name":"东平湖","source":"Natural Earth 1:10m"},"geometry":{"type":"Polygon","coordinates":[[[116.156236,35.997903],[116.145933,36.020863],[116.165655,36.036465],[116.177724,36.064135],[116.187733,36.116532],[116.196269,36.110939],[116.200979,36.102991],[116.207749,36.082974],[116.204511,36.034698],[116.208044,36.020863],[116.23277,36.000847],[116.240718,35.989366],[116.229238,35.979947],[116.24896,35.95051],[116.244839,35.920779],[116.225411,35.904589],[116.170071,35.926667],[116.13563,35.931671],[116.109432,35.944623],[116.105605,35.979947],[116.122678,35.972588],[116.143872,35.980241],[116.156236,35.997903]]]}},{"type":"Feature","properties":{"kind":"lakes","name":"官厅水库","source":"Natural Earth 1:10m"},"geometry":{"type":"Polygon","coordinates":[[[115.731468,40.355081],[115.796523,40.42043],[115.800644,40.411893],[115.800055,40.403651],[115.796523,40.395409],[115.796523,40.386283],[115.783571,40.375981],[115.772091,40.362145],[115.757961,40.350371],[115.722343,40.342717],[115.636094,40.311809],[115.619316,40.301506],[115.612251,40.286199],[115.60813,40.273836],[115.58723,40.237924],[115.578105,40.227915],[115.578693,40.246755],[115.570746,40.293559],[115.581343,40.303567],[115.646397,40.330943],[115.713806,40.345072],[115.731468,40.355081]]]}},{"type":"Feature","properties":{"kind":"lakes","name":"北大港水库","source":"Natural Earth 1:10m"},"geometry":{"type":"Polygon","coordinates":[[[117.401985,38.762276],[117.413759,38.760216],[117.427594,38.754917],[117.393743,38.714001],[117.389916,38.70723],[117.32545,38.68633],[117.329277,38.739905],[117.33222,38.754917],[117.34635,38.749324],[117.356064,38.752562],[117.364601,38.759038],[117.376375,38.762571],[117.401985,38.762276]]]}},{"type":"Feature","properties":{"kind":"rivers","name":"Yi","source":"Natural Earth 1:10m"},"geometry":{"type":"MultiLineString","coordinates":[[[118.503429,36.103542],[118.531749,36.121202],[118.547862,36.128038],[118.561697,36.130805],[118.57073,36.126247],[118.590343,36.104031],[118.59962,36.096055],[118.590831,36.06863],[118.606619,36.059109],[118.629242,36.055203],[118.640636,36.044542],[118.649669,36.035834],[118.709483,36.006659],[118.739838,35.9831],[118.752208,35.968044],[118.757335,35.949001],[118.760916,35.923041],[118.771251,35.904812],[118.786632,35.890733],[118.825206,35.862901],[118.835378,35.849392],[118.839122,35.831814],[118.839854,35.804958],[118.845876,35.79324],[118.859386,35.783962],[118.871349,35.770453],[118.874034,35.745958],[118.871023,35.736396],[118.862641,35.722235],[118.860362,35.71247],[118.860932,35.702745],[118.865896,35.686835],[118.868175,35.663682],[118.872813,35.64407],[118.874034,35.611518],[118.85849,35.557685],[118.853526,35.548041],[118.845307,35.542182],[118.833914,35.536689],[118.823741,35.52912],[118.819347,35.516954],[118.814545,35.507921],[118.784679,35.479071],[118.781749,35.474229],[118.779714,35.468044],[118.77825,35.461371],[118.777843,35.455186],[118.774506,35.451931],[118.767589,35.450995],[118.760346,35.448676],[118.757335,35.44123],[118.75294,35.433661],[118.743663,35.427924],[118.734304,35.420437],[118.729991,35.407416],[118.72877,35.392442],[118.725027,35.384345],[118.709483,35.3699],[118.678315,35.332099],[118.665701,35.30919],[118.667979,35.294135],[118.658132,35.280707],[118.649343,35.260565],[118.643077,35.239285],[118.640636,35.22248],[118.646414,35.19835],[118.647472,35.188015],[118.644786,35.177598],[118.616222,35.122911],[118.57545,35.071601],[118.566742,35.066433],[118.556407,35.063585],[118.547862,35.059638],[118.542491,35.045437],[118.537852,35.042589],[118.532156,35.040798],[118.527354,35.037787],[118.523448,35.030341],[118.525076,35.024522],[118.528738,35.019232],[118.530772,35.013536],[118.537608,34.849066],[118.535167,34.840277],[118.531749,34.832872],[118.529389,34.825141],[118.530772,34.815009],[118.536632,34.807481],[118.554291,34.797471],[118.567556,34.770819],[118.590587,34.767361],[118.640636,34.773383],[118.661388,34.76199],[118.667979,34.759711],[118.670909,34.760688],[118.680186,34.765448],[118.684988,34.766547],[118.784679,34.766547],[118.800548,34.769721],[118.818777,34.768907],[118.837169,34.765245],[118.858897,34.757392],[118.863455,34.754747],[118.868256,34.751288],[118.874034,34.746039],[118.878184,34.739529],[118.887706,34.718126],[118.911632,34.707139],[118.94044,34.701239],[119.017019,34.697862],[119.054861,34.68891],[119.141124,34.683173],[119.154552,34.684597],[119.169037,34.688503],[119.17864,34.693223],[119.200287,34.713813]]]}},{"type":"Feature","properties":{"kind":"rivers","name":"Xar Moron","source":"Natural Earth 1:10m"},"geometry":{"type":"MultiLineString","coordinates":[[[117.208751,42.592149],[117.193614,42.593085],[117.178233,42.597927],[117.166108,42.60696],[117.160167,42.620144],[117.166596,42.63288],[117.193126,42.653591],[117.191742,42.664496],[117.187266,42.679551],[117.200125,42.691759],[117.229747,42.708848],[117.234874,42.721381],[117.236501,42.736518],[117.235932,42.767198],[117.23406,42.781928],[117.22934,42.796902],[117.213634,42.827012],[117.188243,42.873358],[117.180431,42.905097],[117.189464,42.921169],[117.208425,42.935492],[117.229747,42.962104],[117.216807,42.9831],[117.220144,43.005642],[117.235606,43.023627],[117.271495,43.033149],[117.290294,43.042548],[117.301199,43.044623],[117.359467,43.044623],[117.381847,43.051296],[117.420909,43.074408],[117.457286,43.08336],[117.500662,43.103949],[117.571707,43.149482],[117.588878,43.154486],[117.61378,43.157253],[117.681651,43.18183],[117.727794,43.191718],[117.843191,43.202989],[117.867198,43.202338],[117.91269,43.194525],[117.937592,43.195014],[117.94866,43.206081],[117.958263,43.220893],[117.980479,43.234809],[118.00587,43.245551],[118.024099,43.250759],[118.147065,43.259874],[118.167247,43.267035],[118.202403,43.284247],[118.250092,43.295722],[118.298106,43.295111],[118.447032,43.273505],[118.548595,43.274237],[118.59962,43.263739],[118.624766,43.247138],[118.6338,43.243272],[118.647634,43.242987],[118.684988,43.250759],[119.131602,43.217312],[119.181733,43.223456],[119.246023,43.252875],[119.267833,43.256944],[119.483816,43.262071],[119.620616,43.265937],[120.164236,43.380154],[120.341401,43.372504],[120.758474,43.423448]]]}},{"type":"Feature","properties":{"kind":"rivers","name":"Sanggan","source":"Natural Earth 1:10m"},"geometry":{"type":"MultiLineString","coordinates":[[[115.574148,40.296698],[115.574148,40.296454],[115.574229,40.296251],[115.587901,40.276435],[115.584239,40.256537],[115.589122,40.240424]]]}},{"type":"Feature","properties":{"kind":"rivers","name":"Sanggan","source":"Natural Earth 1:10m"},"geometry":{"type":"MultiLineString","coordinates":[[[112.590017,39.343614],[112.639171,39.360867],[112.701915,39.373114],[112.713634,39.377143],[112.724294,39.389757],[112.733979,39.40587],[112.74464,39.419745],[112.758311,39.425564],[112.76946,39.431952],[112.796397,39.46015],[112.806407,39.466498],[112.821544,39.467637],[112.850841,39.475043],[112.864513,39.48017],[112.872488,39.485175],[112.875906,39.489814],[112.881277,39.493191],[112.905203,39.495307],[112.917247,39.498074],[112.927745,39.503119],[112.93214,39.510932],[112.950694,39.531806],[113.023448,39.557929],[113.027761,39.576361],[113.034597,39.580756],[113.049083,39.586534],[113.055675,39.590033],[113.074474,39.607286],[113.076182,39.60989],[113.093028,39.611518],[113.108409,39.610053],[113.121349,39.612006],[113.131358,39.623562],[113.128998,39.631049],[113.130382,39.653266],[113.129649,39.660671],[113.151378,39.671576],[113.161794,39.678778],[113.188406,39.703884],[113.195567,39.714301],[113.220714,39.763495],[113.232595,39.779608],[113.272065,39.803575],[113.397065,39.854682],[113.458914,39.8664],[113.476003,39.874335],[113.494233,39.886583],[113.554779,39.912177],[113.667572,39.97956],[113.712413,39.991889],[113.73821,39.992703],[113.811697,39.985053],[113.831065,39.985785],[113.930105,40.005439],[114.024913,40.000922],[114.061941,40.003241],[114.149913,40.032904],[114.384044,40.143256],[114.387543,40.143256],[114.398529,40.142117],[114.405203,40.143256],[114.423269,40.154608],[114.575125,40.21308],[114.637299,40.252509],[114.691824,40.278347],[114.722179,40.286566],[114.750499,40.286689],[114.781749,40.277615],[114.79713,40.27501],[114.814464,40.276923],[114.908132,40.316718],[114.91684,40.318305],[114.934825,40.319363],[114.94337,40.321357],[114.951915,40.325995],[114.971934,40.344753],[114.993663,40.354926],[115.013194,40.354112],[115.03297,40.349433],[115.055186,40.347724],[115.07545,40.351426],[115.115245,40.363593],[115.135509,40.367214],[115.434093,40.35102],[115.496755,40.360867],[115.516124,40.357245],[115.530284,40.346625],[115.563487,40.312567],[115.574229,40.296251]],[[112.336925,39.165961],[112.36085,39.243028],[112.380463,39.274929],[112.418224,39.296942],[112.438569,39.296942],[112.443858,39.299831],[112.447846,39.304267],[112.452403,39.310614],[112.462576,39.313747],[112.521658,39.318142],[112.568777,39.330024],[112.590017,39.337917]]]}},{"type":"Feature","properties":{"kind":"rivers","name":"Yongding","source":"Natural Earth 1:10m"},"geometry":{"type":"MultiLineString","coordinates":[[[115.589122,40.240424],[115.597992,40.221869],[115.605479,40.192654],[115.612315,40.180203],[115.621349,40.174628],[115.653819,40.162136],[115.663503,40.159735],[115.666596,40.156806],[115.667491,40.14997],[115.666921,40.13581],[115.669932,40.133612],[115.685069,40.126899],[115.690684,40.122423],[115.696869,40.106391],[115.693614,40.07807],[115.700857,40.063503],[115.720307,40.074001],[115.733653,40.075507],[115.76588,40.070909],[115.776378,40.063422],[115.781668,40.04739],[115.79005,40.032742],[115.810151,40.029364],[115.808116,40.025824],[115.803396,40.016303],[115.812918,40.019843],[115.819835,40.021104],[115.82545,40.019965],[115.831472,40.016303],[115.840017,40.016913],[115.861501,40.02143],[115.872325,40.022528],[115.883311,40.019477],[115.90504,40.005805],[115.916596,40.002712],[115.930431,39.996853],[115.972667,39.973334],[115.981537,39.9713],[115.985037,39.975043],[116.005789,40.002712],[116.016531,39.998358],[116.024506,39.979112],[116.033295,39.974718],[116.04184,39.977891],[116.047862,39.992051],[116.053966,39.995225],[116.06544,39.990912],[116.070242,39.981553],[116.072032,39.972195],[116.111908,39.90644],[116.124929,39.893866],[116.19044,39.854193],[116.205984,39.839708],[116.219249,39.822618],[116.22934,39.803412],[116.230724,39.78795],[116.229747,39.748358],[116.236095,39.735175],[116.215831,39.700303],[116.204845,39.659491],[116.202566,39.617011],[116.2081,39.57685],[116.224701,39.53559],[116.249522,39.505683],[116.317393,39.460801],[116.335541,39.453192],[116.386241,39.442003],[116.410167,39.440294],[116.433442,39.442247],[116.447032,39.447292],[116.458751,39.453884],[116.475597,39.460801],[116.502045,39.464545],[116.598155,39.448106],[116.611501,39.434394],[116.62322,39.418524],[116.640717,39.406195],[116.648448,39.404975],[116.666026,39.406521],[116.674327,39.406195],[116.681814,39.403591],[116.694753,39.395616],[116.701589,39.392524],[116.749034,39.380316],[116.763682,39.378852],[116.879649,39.385077],[116.895437,39.383409],[116.934255,39.371446],[116.948985,39.359971],[116.954845,39.357123],[116.984386,39.35753],[116.992442,39.354071],[117.033621,39.33043]]]}},{"type":"Feature","properties":{"kind":"rivers","name":"Hai","source":"Natural Earth 1:10m"},"geometry":{"type":"MultiLineString","coordinates":[[[117.033621,39.33043],[117.045828,39.326687],[117.063487,39.308661],[117.078298,39.303168],[117.078298,39.296942],[117.07252,39.29088],[117.072358,39.283962],[117.077078,39.276638],[117.085867,39.268988],[117.07252,39.254828],[117.078054,39.241767],[117.105724,39.221259],[117.121104,39.205593],[117.160167,39.152371],[117.215587,39.10456],[117.232188,39.093207],[117.290619,39.077216],[117.307872,39.069892],[117.31544,39.064887],[117.323253,39.051866],[117.333995,39.05211],[117.345632,39.055487],[117.352631,39.056708],[117.360281,39.049994],[117.371023,39.032823],[117.376231,39.029486],[117.388601,39.02851],[117.420909,39.021999],[117.43214,39.023383],[117.439545,39.026882],[117.447032,39.027045],[117.467377,39.012966],[117.50351,39.001532],[117.513764,39.004096],[117.523448,39.003607],[117.533946,38.998358],[117.54184,38.996405],[117.55364,38.996365],[117.566742,38.994696],[117.578624,38.98786],[117.598399,39.014024],[117.624034,39.007676],[117.651296,38.993272],[117.674815,38.995307],[117.679698,38.99018],[117.688975,38.988796],[117.708995,38.981024]]]}},{"type":"Feature","properties":{"kind":"rivers","name":"Shandian","source":"Natural Earth 1:10m"},"geometry":{"type":"MultiLineString","coordinates":[[[115.995942,41.509711],[115.987315,41.523627],[115.983979,41.531928],[115.981537,41.543809],[115.982351,41.579657],[115.978526,41.588487],[115.947683,41.614936],[115.928315,41.6258],[115.906505,41.632636],[115.812755,41.649685],[115.779796,41.669542],[115.755626,41.70893],[115.751475,41.728827],[115.752371,41.75373],[115.760753,41.77501],[115.779552,41.784044],[115.785248,41.784695],[115.790619,41.786648],[115.795665,41.789659],[115.800222,41.793647],[115.809011,41.805732],[115.815847,41.819892],[115.823985,41.845526],[115.831472,41.928046],[115.837983,41.94892],[115.854747,41.983588],[115.867198,42.044989],[115.884044,42.086127],[115.891124,42.127712],[115.872325,42.16706],[115.945811,42.251044],[115.981537,42.270616],[116.049327,42.289984],[116.07724,42.306993],[116.098643,42.314276],[116.115815,42.328315],[116.135753,42.341254],[116.146007,42.346381],[116.1928,42.359442],[116.22047,42.361884],[116.259288,42.351264],[116.319591,42.359809],[116.344737,42.359442],[116.425222,42.336208],[116.430919,42.335883],[116.447765,42.326036],[116.486908,42.310574],[116.503673,42.29796],[116.530854,42.263861],[116.559988,42.240302],[116.5678,42.235907],[116.616222,42.235907],[116.640717,42.201728],[116.65325,42.16706],[116.663097,42.146511],[116.66627,42.136298],[116.668549,42.117133],[116.673269,42.098253],[116.674327,42.088813],[116.679698,42.083116],[116.706391,42.073554],[116.715343,42.065253],[116.714692,42.043402],[116.700613,42.021186],[116.664073,41.985785],[116.651947,41.969346],[116.6421,41.935248],[116.633311,41.92121],[116.61435,41.907904]]]}},{"type":"Feature","properties":{"kind":"rivers","name":"Daling","source":"Natural Earth 1:10m"},"geometry":{"type":"MultiLineString","coordinates":[[[118.978933,41.134101],[119.033214,41.149604],[119.166026,41.157538],[119.177175,41.155137],[119.188894,41.150946],[119.20045,41.149197],[119.211029,41.153754],[119.218761,41.163682],[119.227306,41.183295],[119.234874,41.191677],[119.240326,41.193712],[119.255463,41.195624],[119.262218,41.197821],[119.266043,41.200954],[119.274669,41.210313],[119.27589,41.212104],[119.317556,41.217231],[119.344249,41.230658],[119.369151,41.234158],[119.39446,41.232245],[119.413097,41.225165],[119.417898,41.217963],[119.422944,41.19831],[119.426768,41.191677],[119.435069,41.186876],[119.445079,41.18476],[119.482921,41.183051],[119.49407,41.180487],[119.504405,41.178331],[119.515717,41.177354],[119.529552,41.174262],[119.538992,41.166693],[119.54713,41.15766],[119.55714,41.15001],[119.590424,41.141059],[119.610037,41.138373],[119.621186,41.139838],[119.63087,41.146023],[119.66269,41.160956],[119.672455,41.163682],[119.684988,41.157782],[119.703705,41.134711],[119.717784,41.129584],[119.732432,41.127387],[119.762787,41.117499],[119.779307,41.115302],[119.791515,41.121405],[119.823985,41.157538],[119.850515,41.173448],[119.861257,41.182685],[119.865652,41.19477],[119.871104,41.204657],[119.884532,41.211778],[119.900401,41.218044],[119.913259,41.225165],[119.914806,41.231472],[119.912608,41.249335],[119.91684,41.253119],[119.924897,41.254462],[119.933197,41.258002],[119.947358,41.26671],[119.939952,41.281317],[119.9428,41.293891],[119.951427,41.304958],[119.994314,41.342882],[119.999034,41.34809],[120.077729,41.394843],[120.091563,41.40705],[120.107921,41.412543],[120.20753,41.430609],[120.269216,41.426947],[120.29892,41.431749],[120.296886,41.451728],[120.337169,41.468573],[120.376964,41.492296],[120.41269,41.519232],[120.440929,41.545681],[120.444916,41.547431],[120.456065,41.548285],[120.461436,41.551866],[120.462413,41.556179],[120.460704,41.567735],[120.461436,41.572333],[120.469005,41.593858],[120.47462,41.602851],[120.485362,41.606513],[120.505056,41.609809],[120.54835,41.624294],[120.5713,41.62755],[120.646414,41.606553],[120.664073,41.610216],[120.670339,41.615912],[120.69101,41.630683],[120.715017,41.654975],[120.722667,41.66116],[120.854503,41.736274],[120.878429,41.745673],[120.898936,41.749579],[120.946788,41.749864],[120.975597,41.744086],[120.985037,41.728583],[120.988455,41.70657],[120.998627,41.681016],[121.014171,41.661322],[121.056244,41.622992],[121.062266,41.613227],[121.064708,41.60574],[121.069916,41.600857],[121.083914,41.599066],[121.098725,41.595323],[121.099539,41.586208],[121.095144,41.574774],[121.094249,41.564317],[121.110037,41.544013],[121.125418,41.548651],[121.1421,41.560329],[121.162527,41.561225],[121.175222,41.558946],[121.204031,41.559149],[121.214366,41.554389],[121.223155,41.548163],[121.247651,41.540107],[121.283295,41.533515],[121.35434,41.530829],[121.366222,41.528673],[121.385753,41.519314],[121.3921,41.517157],[121.39503,41.512274],[121.418224,41.491889],[121.422455,41.489203],[121.431407,41.467963],[121.432546,41.446601],[121.42628,41.426825],[121.412608,41.410427],[121.403087,41.393093],[121.396658,41.344672],[121.388438,41.324774],[121.372569,41.312852],[121.354747,41.303778],[121.339854,41.290635],[121.333751,41.266425],[121.335948,41.240587],[121.342703,41.223171],[121.353526,41.20954],[121.367931,41.195014],[121.402599,41.135362],[121.445242,41.114569],[121.482514,41.1081],[121.495209,41.103542],[121.505056,41.098212],[121.600597,41.010281],[121.606049,41.001736],[121.611501,40.979031],[121.619721,40.97309],[121.629242,40.969265],[121.635916,40.961615],[121.634939,40.932563],[121.616303,40.900255],[121.588634,40.869574],[121.565033,40.8487]]]}},{"type":"Feature","properties":{"kind":"rivers","name":"Qin","source":"Natural Earth 1:10m"},"geometry":{"type":"MultiLineString","coordinates":[[[112.366954,36.575873],[112.358816,36.565863],[112.326264,36.435736],[112.319428,36.424994],[112.30071,36.41706],[112.29184,36.398017],[112.287852,36.351671],[112.282237,36.334418],[112.272553,36.31627],[112.268077,36.310492],[112.264659,36.308295],[112.272227,36.305203],[112.275401,36.298122],[112.273204,36.291042],[112.253917,36.283759],[112.256358,36.274726],[112.265391,36.265204],[112.274832,36.259955],[112.251475,36.251329],[112.25351,36.235907],[112.264415,36.21544],[112.268077,36.191677],[112.258718,36.171983],[112.232188,36.134223],[112.227061,36.109727],[112.250011,36.112494],[112.26588,36.096015],[112.288503,36.055121],[112.325857,36.024034],[112.329275,36.017686],[112.3296,36.002997],[112.3331,35.996772],[112.34075,35.987982],[112.338471,35.982978],[112.332774,35.978054],[112.329275,35.969428],[112.328543,35.958116],[112.32252,35.938422],[112.319428,35.893744],[112.323416,35.882432],[112.321788,35.869249],[112.318126,35.855577],[112.316417,35.842841],[112.317882,35.826606],[112.320893,35.814887],[112.326915,35.80504],[112.336925,35.794379],[112.329275,35.786933],[112.363455,35.777371],[112.366954,35.770372],[112.382498,35.75019],[112.387543,35.745958],[112.402599,35.740058],[112.414643,35.725938],[112.435151,35.69538],[112.452403,35.685329],[112.483816,35.686347],[112.500662,35.678331],[112.509939,35.664252],[112.524506,35.6199],[112.528087,35.602607],[112.528087,35.56505],[112.530284,35.555121],[112.53419,35.54446],[112.536062,35.5338],[112.531505,35.524115],[112.522227,35.516181],[112.519216,35.514675],[112.519949,35.512641],[112.5206,35.503282],[112.518972,35.493435],[112.516531,35.488308],[112.517019,35.48371],[112.53183,35.467312],[112.533295,35.462429],[112.53297,35.458116],[112.534923,35.451768],[112.555919,35.424506],[112.568289,35.384711],[112.579519,35.367743],[112.596283,35.3699],[112.600352,35.36046],[112.598643,35.355251],[112.595795,35.350653],[112.596283,35.343126],[112.608897,35.318712],[112.610606,35.31155],[112.613048,35.309353],[112.617442,35.30329],[112.619395,35.296983],[112.61435,35.294135],[112.605479,35.290839],[112.60377,35.28323],[112.606293,35.274197],[112.610606,35.266872],[112.618093,35.274278],[112.629487,35.263739],[112.639089,35.252265],[112.644786,35.237982],[112.645437,35.219062],[112.662039,35.224677],[112.660085,35.211737],[112.653087,35.193915],[112.65504,35.184882],[112.669363,35.180691],[112.679861,35.170193],[112.700694,35.143337],[112.708425,35.135443],[112.720225,35.125678],[112.735281,35.120469],[112.764659,35.132676],[112.78476,35.137397],[112.805186,35.138251],[112.819428,35.133083],[112.834402,35.125434],[112.891694,35.123399],[112.908946,35.11876],[112.940033,35.10517],[112.956391,35.102362],[112.98878,35.092841],[113.028819,35.05329],[113.06308,35.047716],[113.0796,35.052558],[113.155284,35.047716],[113.169526,35.048407],[113.18157,35.050971],[113.192393,35.056179],[113.203298,35.064765],[113.216319,35.071601],[113.22877,35.071112],[113.241628,35.068305],[113.254893,35.068183],[113.305186,35.08869],[113.334565,35.097032],[113.35434,35.092393],[113.364757,35.087104],[113.376964,35.086493],[113.387218,35.083564],[113.39503,35.063259],[113.401541,35.053656],[113.40504,35.043728],[113.398936,35.034044],[113.404552,35.02143],[113.424246,34.992214],[113.451589,34.967068]]]}},{"type":"Feature","properties":{"kind":"rivers","name":"Zhang","source":"Natural Earth 1:10m"},"geometry":{"type":"MultiLineString","coordinates":[[[112.948416,37.069037],[112.937999,36.987413],[112.91505,36.908515],[112.89088,36.861762],[112.881358,36.834418],[112.88795,36.822292],[112.921153,36.823798],[112.936534,36.822781],[112.963634,36.814521],[112.972341,36.812934],[113.011485,36.811957],[113.023448,36.804958],[113.03004,36.791815],[113.034679,36.768988],[113.039561,36.758979],[113.04127,36.754706],[113.042003,36.750556],[113.045502,36.739285],[113.053396,36.731065],[113.069347,36.719835],[113.084483,36.694403],[113.090424,36.687079],[113.096934,36.682888],[113.103119,36.68122],[113.109793,36.680365],[113.116954,36.678249],[113.12851,36.669745],[113.137299,36.656684],[113.142996,36.64171],[113.14503,36.627387],[113.148936,36.621121],[113.17921,36.609971],[113.214447,36.582302],[113.233165,36.562283],[113.241222,36.544501],[113.247162,36.52379],[113.261485,36.509467],[113.295909,36.487128],[113.305105,36.477891],[113.315359,36.465196],[113.323171,36.459174],[113.356456,36.4442],[113.368175,36.435574],[113.379324,36.42182],[113.395437,36.389472],[113.405203,36.374457],[113.421804,36.363349],[113.443858,36.357856],[113.48878,36.355577],[113.507498,36.357937],[113.544932,36.36933],[113.564057,36.37226],[113.578217,36.37169],[113.584565,36.370307],[113.591075,36.367703],[113.596283,36.363471],[113.607514,36.352362],[113.61378,36.349392],[113.621023,36.349677],[113.634044,36.354193],[113.641775,36.353705],[113.648367,36.35045],[113.65919,36.342393],[113.66684,36.340847],[113.674083,36.342312],[113.679861,36.346015],[113.69101,36.35517],[113.697765,36.358913],[113.702729,36.360175],[113.78948,36.340359],[113.808035,36.339301],[113.825125,36.345038],[113.858653,36.362657],[113.867117,36.365261],[113.873057,36.364569],[113.878429,36.361396],[113.892019,36.350409],[113.899099,36.346137],[113.90683,36.344062],[113.915701,36.344997],[113.927989,36.348009],[113.933604,36.348456],[113.953868,36.346544],[113.959727,36.347683],[113.965831,36.350775],[113.975515,36.358262],[113.980886,36.35989],[113.989024,36.358913],[114.004242,36.353217],[114.016694,36.344672],[114.027436,36.333808],[114.037364,36.321479],[114.047781,36.311835],[114.059255,36.308661],[114.072032,36.310411],[114.085948,36.315456],[114.097667,36.32449],[114.108653,36.336127],[114.120535,36.344265],[114.135753,36.342475],[114.146576,36.331814],[114.156993,36.304796],[114.168793,36.296251],[114.200125,36.291083],[114.208914,36.285468],[114.214366,36.278428],[114.223888,36.26321],[114.229991,36.256781],[114.237397,36.253038],[114.261729,36.252021],[114.304291,36.240587],[114.313731,36.240587],[114.332449,36.244005],[114.350597,36.245063],[114.36321,36.251532],[114.371593,36.25434],[114.384369,36.255886],[114.442312,36.253689],[114.449474,36.250556],[114.468028,36.235378],[114.478282,36.233751],[114.489024,36.234402],[114.501882,36.232611],[114.524099,36.222764],[114.541515,36.211778],[114.559581,36.202826],[114.584076,36.199083],[114.596202,36.200141],[114.617442,36.204861],[114.628184,36.205919],[114.639171,36.203803],[114.661225,36.194119],[114.673106,36.191677],[114.693614,36.193305],[114.747162,36.206732],[114.785085,36.229519],[115.091726,36.292751],[115.111908,36.30154],[115.146251,36.328884],[115.180675,36.345974],[115.190115,36.353054],[115.200043,36.358588],[115.221609,36.36164],[115.231619,36.366645],[115.23878,36.373847],[115.245942,36.386746],[115.263276,36.411078],[115.2706,36.432725],[115.274506,36.45657],[115.27589,36.4796],[115.282725,36.487128],[115.288992,36.498806],[115.308849,36.517401],[115.317393,36.528022],[115.320242,36.536729],[115.322765,36.556342],[115.327403,36.565294],[115.343354,36.57453],[115.347748,36.58161],[115.341319,36.592882],[115.341401,36.599677],[115.348399,36.608588],[115.365245,36.624294],[115.399832,36.671576],[115.409679,36.6789],[115.423839,36.686306],[115.44337,36.703396],[115.460867,36.722846],[115.47755,36.753485],[115.499278,36.761583],[115.543956,36.767646],[115.626069,36.793524],[115.664073,36.815212],[115.680593,36.8428]]]}},{"type":"Feature","properties":{"kind":"rivers","name":"Luan","source":"Natural Earth 1:10m"},"geometry":{"type":"MultiLineString","coordinates":[[[116.61435,41.907904],[116.573741,41.889472],[116.554454,41.876247],[116.541108,41.858669],[116.527436,41.821601],[116.516612,41.804511],[116.490001,41.785468],[116.47877,41.771674],[116.475597,41.749864],[116.482595,41.733466],[116.494233,41.718451],[116.50172,41.703681],[116.495616,41.687812],[116.520763,41.684841],[116.532725,41.667914],[116.542491,41.649034],[116.56129,41.640001],[116.572846,41.643988],[116.584483,41.651231],[116.596446,41.655463],[116.621186,41.644884],[116.632335,41.648627],[116.642833,41.655626],[116.65325,41.660509],[116.66505,41.661485],[116.701589,41.660509],[116.735769,41.672309],[116.746349,41.67418],[116.764415,41.671088],[116.888113,41.622423],[116.910167,41.619574],[116.920339,41.620673],[116.940033,41.625312],[116.951427,41.62641],[116.967459,41.625067],[116.976654,41.62169],[116.984386,41.617255],[117.064057,41.58865],[117.10434,41.582872],[117.154714,41.567572],[117.174571,41.558173],[117.191987,41.542996],[117.201915,41.537665],[117.211029,41.537624],[117.220225,41.53974],[117.227061,41.536485],[117.229747,41.52029],[117.231456,41.514106],[117.239757,41.497992],[117.242768,41.489203],[117.242442,41.476752],[117.239675,41.466376],[117.239187,41.456244],[117.246593,41.444525],[117.250499,41.436387],[117.251394,41.42532],[117.250255,41.403591],[117.255056,41.392157],[117.266694,41.381537],[117.290619,41.366278],[117.306733,41.352484],[117.316987,41.349311],[117.339692,41.359931],[117.351492,41.358832],[117.356293,41.35338],[117.345795,41.344591],[117.352468,41.340847],[117.355398,41.339626],[117.359467,41.338406],[117.359467,41.331],[117.318614,41.331],[117.326671,41.321234],[117.336436,41.316962],[117.34669,41.313788],[117.356049,41.307318],[117.351329,41.304796],[117.348074,41.291287],[117.344737,41.244818],[117.354096,41.228624],[117.393647,41.201239],[117.38616,41.195014],[117.393647,41.187567],[117.399425,41.190863],[117.407644,41.192572],[117.417491,41.192979],[117.428396,41.192206],[117.462494,41.184882],[117.475515,41.179633],[117.482432,41.174506],[117.489187,41.154364],[117.490489,41.127875],[117.487804,41.102403],[117.482432,41.08515],[117.506602,41.085028],[117.514659,41.072699],[117.510183,41.056016],[117.496023,41.042914],[117.5088,41.027045],[117.503917,41.012397],[117.495128,40.99787],[117.496023,40.982123],[117.528738,40.991278],[117.561453,40.978705],[117.592296,40.962714],[117.61964,40.961615],[117.629812,40.971503],[117.639252,40.985663],[117.65089,40.997992],[117.66741,41.002631],[117.679617,40.996161],[117.697846,40.96662],[117.708995,40.954779],[117.766124,40.943061],[117.777273,40.934353],[117.773367,40.924262],[117.763438,40.914822],[117.760671,40.904893],[117.777273,40.893378],[117.794526,40.891547],[117.811127,40.896837],[117.826182,40.903673],[117.839366,40.906358],[117.856619,40.900458],[117.864513,40.888861],[117.863048,40.874091],[117.853608,40.858588],[117.870046,40.859687],[117.888682,40.864854],[117.90683,40.87226],[117.920502,40.879706],[117.925955,40.887234],[117.924083,40.893581],[117.924897,40.897976],[117.937999,40.899604],[117.9463,40.895697],[117.964692,40.877712],[117.969005,40.87226],[117.971202,40.864366],[117.970876,40.855414],[117.97226,40.848009],[117.979015,40.844916],[117.990815,40.846218],[118.014578,40.851264],[118.024099,40.851752],[118.044932,40.844916],[118.052989,40.832384],[118.057709,40.81684],[118.068614,40.800849],[118.085053,40.791571],[118.106863,40.782986],[118.125499,40.772813],[118.133474,40.758979],[118.132335,40.749945],[118.12672,40.728868],[118.132904,40.718329],[118.15089,40.704128],[118.154552,40.697821],[118.160655,40.680935],[118.171886,40.671576],[118.178803,40.663398],[118.171316,40.65001],[118.140636,40.62226],[118.136241,40.610419],[118.160737,40.612169],[118.156261,40.605658],[118.151947,40.597764],[118.148855,40.588568],[118.147065,40.57807],[118.169932,40.587836],[118.181651,40.590644],[118.194916,40.591742],[118.19044,40.579779],[118.174571,40.550727],[118.186046,40.553046],[118.204031,40.565212],[118.216075,40.570624],[118.215017,40.558905],[118.218191,40.549994],[118.225108,40.544501],[118.236501,40.54328],[118.234467,40.538845],[118.231293,40.527289],[118.229096,40.522773],[118.265066,40.514919],[118.2706,40.512274],[118.266368,40.502753],[118.247569,40.501899],[118.243337,40.492377],[118.24879,40.487982],[118.275076,40.490098],[118.284272,40.488715],[118.29127,40.476833],[118.288503,40.465359],[118.277436,40.447699],[118.27532,40.43476],[118.277436,40.403022],[118.274425,40.390326],[118.260265,40.372748],[118.256928,40.362087],[118.260265,40.350165],[118.274425,40.327826],[118.277436,40.31741],[118.273692,40.308173],[118.250092,40.276435],[118.2588,40.274482],[118.284109,40.271593],[118.29127,40.269599],[118.295909,40.263617],[118.296886,40.258246],[118.296886,40.251573],[118.298595,40.241645],[118.29713,40.240302],[118.292247,40.229071],[118.29127,40.224555],[118.293224,40.21955],[118.302338,40.212348],[118.304779,40.208116],[118.307546,40.198554],[118.311046,40.191026],[118.311534,40.183132],[118.304779,40.172716],[118.317556,40.151923],[118.334239,40.147284],[118.377452,40.15351],[118.450776,40.145046],[118.523692,40.150499],[118.5678,40.14643],[118.600597,40.126776],[118.613292,40.084581],[118.611908,40.073554],[118.606456,40.053778],[118.606456,40.043647],[118.610037,40.037787],[118.623464,40.022081],[118.626394,40.012559],[118.630789,40.002753],[118.649913,39.988837],[118.659679,39.965033],[118.672455,39.957302],[118.688243,39.953925],[118.702078,39.95364],[118.733653,39.963935],[118.741222,39.957953],[118.743663,39.930365],[118.749034,39.92182],[118.772472,39.915635],[118.777843,39.909613],[118.778901,39.898505],[118.781993,39.891384],[118.802745,39.860053],[118.807384,39.848253],[118.804128,39.836249],[118.791433,39.817084],[118.799571,39.800808],[118.788666,39.787421],[118.772472,39.776068],[118.764171,39.765896],[118.762218,39.755723],[118.753022,39.73371],[118.750499,39.721503],[118.751069,39.710069],[118.757335,39.683661],[118.780284,39.649359],[118.826671,39.621934],[118.862315,39.593695],[118.853526,39.556993],[118.87794,39.546007],[118.910167,39.542304],[118.973399,39.543402],[118.97462,39.537136],[118.970225,39.501776],[118.980724,39.493964],[119.01946,39.472235],[119.031668,39.466986],[119.048106,39.467353],[119.08074,39.47838],[119.096609,39.481309],[119.114675,39.479071],[119.149425,39.469306],[119.16505,39.466986],[119.190522,39.457831],[119.244884,39.418972],[119.257498,39.412421]]]}},{"type":"Feature","properties":{"kind":"rivers","name":"Huang","source":"Natural Earth 1:10m"},"geometry":{"type":"MultiLineString","coordinates":[[[114.837576,35.019802],[114.84726,35.03795],[114.846772,35.081488],[114.864757,35.120469],[114.859874,35.140448],[114.851573,35.159491],[114.851329,35.178046],[114.864024,35.188585],[114.913178,35.208075],[114.930186,35.211615],[114.941417,35.218777],[114.981619,35.266872],[115.002045,35.284735],[115.008881,35.294135],[115.021495,35.324774],[115.025971,35.332343],[115.053722,35.366767],[115.067963,35.379991],[115.091563,35.390326],[115.121755,35.393866],[115.131847,35.397773],[115.13974,35.404608],[115.14446,35.410997],[115.150483,35.415798],[115.162608,35.41767],[115.205577,35.414618],[115.226329,35.416124],[115.248546,35.424506],[115.266043,35.436143],[115.306814,35.475694],[115.316742,35.479356],[115.329194,35.480984],[115.340017,35.485053],[115.344737,35.496161],[115.342377,35.505479],[115.332286,35.523261],[115.330496,35.534369],[115.341319,35.555365],[115.383311,35.55744],[115.392589,35.572211],[115.392589,35.597032],[115.394786,35.615749],[115.402843,35.630479],[115.420421,35.643581],[115.467296,35.663438],[115.491791,35.678087],[115.502452,35.69538],[115.501964,35.716498],[115.503917,35.722724],[115.53655,35.719306],[115.576182,35.722235],[115.617686,35.731147],[115.654714,35.746283],[115.680593,35.767768],[115.729747,35.83043],[115.76116,35.849148],[115.850678,35.858954],[115.873546,35.865505],[115.885916,35.87755],[115.883718,35.887519],[115.874034,35.895046],[115.863373,35.900458],[115.858002,35.904242],[115.857921,35.916327],[115.86321,35.924913],[115.919932,35.967719],[115.943777,35.979682],[115.954275,35.976589],[115.965424,35.985785],[115.990733,35.980821],[116.033295,35.965684],[116.038992,35.976182],[116.064138,36.040839],[116.078298,36.051337],[116.086925,36.059149],[116.091401,36.068142],[116.089936,36.078477],[116.080333,36.098456],[116.077729,36.109727],[116.087494,36.11225],[116.110281,36.113715],[116.119314,36.116523],[116.12851,36.125027],[116.132823,36.134548],[116.135509,36.1435],[116.13974,36.150702],[116.198822,36.172553],[116.269623,36.240058],[116.311941,36.293321],[116.327891,36.30154],[116.347179,36.303656],[116.388113,36.313056],[116.410167,36.315212],[116.41684,36.318549],[116.454275,36.345526],[116.477061,36.355902],[116.530854,36.397732],[116.566417,36.410102],[116.575043,36.414822],[116.586029,36.427598],[116.597585,36.447577],[116.598643,36.467353],[116.578624,36.4796],[116.591319,36.48664],[116.601654,36.494981],[116.605561,36.504421],[116.598562,36.514431],[116.606375,36.524441],[116.633311,36.547919],[116.651134,36.577582],[116.65683,36.582709],[116.673106,36.58869],[116.736339,36.624294],[116.749522,36.643012],[116.768077,36.684882],[116.780772,36.702745],[116.79599,36.712714],[116.858653,36.740343],[116.881114,36.742743],[116.937755,36.733507],[116.943777,36.730496],[116.952647,36.724555],[116.962576,36.720526],[116.972179,36.723253],[116.976654,36.725938],[116.981619,36.726874],[116.992442,36.726671],[116.999604,36.729438],[117.003917,36.735785],[117.006928,36.742703],[117.009939,36.747138],[117.070323,36.783311],[117.088878,36.788764],[117.105724,36.796251],[117.116791,36.813747],[117.133474,36.849555],[117.163585,36.87995],[117.176199,36.898953],[117.181407,36.922187],[117.189464,36.93419],[117.226329,36.961046],[117.235932,36.980536],[117.234386,36.991767],[117.229747,37.000271],[117.226573,37.009141],[117.229747,37.021511],[117.237804,37.031033],[117.257091,37.038275],[117.284923,37.059394],[117.302257,37.062934],[117.345795,37.062527],[117.388113,37.073188],[117.552257,37.149237],[117.570811,37.16413],[117.578624,37.181952],[117.584239,37.200303],[117.597585,37.222357],[117.613373,37.242296],[117.627045,37.254259],[117.648204,37.260118],[117.668468,37.257025],[117.689138,37.2508],[117.712332,37.247423],[117.760509,37.247423],[117.771658,37.249864],[117.805186,37.26789],[117.827403,37.272081],[117.847097,37.269395],[117.867117,37.264431],[117.890554,37.261746],[117.908214,37.26789],[117.962169,37.309516],[117.983165,37.316759],[118.029796,37.327338],[118.06544,37.352078],[118.087006,37.356147],[118.133474,37.357286],[118.182221,37.366482],[118.207042,37.375271],[118.226003,37.387722],[118.229421,37.396308],[118.222992,37.428656],[118.225515,37.438788],[118.231537,37.450222],[118.243337,37.466579],[118.256602,37.478095],[118.281749,37.495144],[118.29127,37.508124],[118.295421,37.524359],[118.299327,37.560574],[118.304779,37.576443],[118.328868,37.596381],[118.365245,37.606879],[118.519135,37.615668],[118.55421,37.626492],[118.585948,37.644639],[118.672862,37.718695],[118.68157,37.733466],[118.710053,37.749823],[118.722585,37.754503],[118.758718,37.760281],[118.78655,37.774726],[118.860362,37.796169],[118.897065,37.824327],[118.917003,37.830634],[118.938894,37.819403],[118.9546,37.808783],[118.978038,37.79975],[119.003429,37.796251],[119.033214,37.802558]],[[110.269949,34.637274],[110.297862,34.621161],[110.335134,34.615749],[110.367686,34.617499],[110.37672,34.615749],[110.387218,34.608222],[110.393321,34.599677],[110.399669,34.592475],[110.410818,34.589057],[110.42213,34.590644],[110.426524,34.595893],[110.429861,34.602729],[110.437592,34.608913],[110.44866,34.61286],[110.459076,34.614854],[110.482921,34.615749],[110.491628,34.613145],[110.500662,34.607001],[110.517019,34.592475],[110.530284,34.583604],[110.539643,34.584296],[110.548839,34.589911],[110.561697,34.595893],[110.584483,34.600857],[110.64739,34.602078],[110.708425,34.620917],[110.718761,34.626288],[110.725841,34.642442],[110.743175,34.654242],[110.765636,34.661241],[110.883474,34.666042],[110.922862,34.685736],[110.910574,34.732449],[110.933116,34.735175],[110.973155,34.716824],[110.989757,34.721869],[111.007253,34.737494],[111.025483,34.747423],[111.109304,34.768622],[111.124278,34.778632],[111.138438,34.819159],[111.157644,34.82213],[111.198416,34.808132],[111.215261,34.800076],[111.222667,34.798529],[111.232595,34.800727],[111.237641,34.806464],[111.240652,34.815701],[111.245616,34.824246],[111.256602,34.827989],[111.268972,34.82449],[111.276541,34.818427],[111.284679,34.816352],[111.307384,34.83157],[111.318858,34.837104],[111.331065,34.840847],[111.342459,34.842312],[111.352794,34.839382],[111.373057,34.825751],[111.383474,34.821804],[111.393972,34.823188],[111.421397,34.835476],[111.444591,34.83747],[111.557384,34.863308],[111.569021,34.868964],[111.572276,34.87405],[111.578298,34.890326],[111.582123,34.896918],[111.586681,34.900458],[111.597179,34.904975],[111.603282,34.909939],[111.610606,34.92121],[111.622,34.94713],[111.630463,34.958319],[111.641368,34.964382],[111.667979,34.97248],[111.678315,34.978827],[111.670339,34.997382],[111.682709,35.007839],[111.704031,35.012519],[111.723074,35.013536],[111.740652,35.018907],[111.763276,35.042344],[111.778331,35.047716],[111.796153,35.051703],[111.807628,35.061306],[111.816905,35.072821],[111.829112,35.082465],[111.845795,35.086982],[111.881847,35.089301],[111.897472,35.096137],[111.915294,35.089911],[111.957449,35.094062],[111.976166,35.085557],[111.99171,35.073757],[112.034679,35.047716],[112.058116,35.033393],[112.12558,35.023953],[112.151378,35.013536],[112.161632,35.000312],[112.178966,34.970811],[112.189138,34.965155],[112.202159,34.962958],[112.218028,34.957709],[112.232351,34.950995],[112.240733,34.944688],[112.256114,34.958035],[112.265066,34.963446],[112.274832,34.965155],[112.281505,34.961534],[112.284679,34.954535],[112.288992,34.947781],[112.299083,34.944688],[112.324474,34.941433],[112.361095,34.924669],[112.384044,34.917344],[112.466726,34.910346],[112.480235,34.906806],[112.490896,34.897976],[112.73406,34.808132],[112.779226,34.797919],[112.823253,34.800605],[112.912364,34.821804],[113.047374,34.831651],[113.089773,34.842312],[113.130382,34.860175],[113.151134,34.866523],[113.175792,34.868964],[113.19752,34.876288],[113.210134,34.893866],[113.22698,34.931667],[113.24879,34.948554],[113.270763,34.951443],[113.292491,34.951931],[113.329275,34.968777],[113.353608,34.972357],[113.497569,34.965155],[113.508718,34.968695],[113.521251,34.975287],[113.534109,34.979519],[113.545665,34.975694],[113.590017,34.944688],[113.665619,34.907538],[113.70574,34.89529],[113.74822,34.890692],[113.759044,34.89171],[113.779877,34.896186],[113.789236,34.896918],[113.800792,34.894395],[113.826915,34.883246],[113.836925,34.882148],[113.856537,34.877509],[113.867768,34.87641],[113.877208,34.878201],[113.89503,34.887152],[113.905935,34.890692],[113.918793,34.891628],[113.930919,34.89114],[113.942393,34.891954],[113.953868,34.896918],[113.963145,34.907294],[113.970795,34.930528],[113.977631,34.94127],[113.997813,34.949083],[114.02239,34.945339],[114.062429,34.931667],[114.085134,34.930772],[114.155284,34.937852],[114.179454,34.935981],[114.303233,34.898464],[114.323741,34.896918],[114.343842,34.901313],[114.378917,34.918484],[114.399425,34.92418],[114.421641,34.924669],[114.493663,34.906073],[114.501394,34.903103],[114.509288,34.901923],[114.52239,34.903673],[114.53183,34.906684],[114.546397,34.914252],[114.556407,34.917344],[114.577403,34.91767],[114.609467,34.902655],[114.631602,34.896918],[114.646007,34.897528],[114.654389,34.901679],[114.65976,34.906602],[114.665619,34.909939],[114.676362,34.910712],[114.698822,34.909247],[114.707286,34.909939],[114.729991,34.920925],[114.745128,34.936347],[114.768891,34.972602],[114.781668,34.985867],[114.83074,35.019802]]]}}]}