{"type":"FeatureCollection","features":[{"type":"Feature","properties":{"kind":"lakes","name":"苏邦水库","source":"Natural Earth 1:10m"},"geometry":{"type":"Polygon","coordinates":[[[125.299774,40.657098],[125.342457,40.6727],[125.363357,40.673583],[125.358647,40.668284],[125.353937,40.665046],[125.349522,40.660631],[125.342163,40.654155],[125.331566,40.636493],[125.325384,40.632666],[125.314492,40.635904],[125.306545,40.642086],[125.298597,40.645324],[125.287705,40.639436],[125.300069,40.636198],[125.305662,40.631783],[125.305662,40.625896],[125.301246,40.619125],[125.296536,40.618831],[125.268866,40.607056],[125.2671,40.60529],[125.2253,40.59852],[125.214114,40.594104],[125.19086,40.580858],[125.164367,40.574088],[125.119035,40.55466],[125.109909,40.547006],[125.098724,40.541708],[125.027487,40.522868],[125.027487,40.515215],[125.041323,40.516098],[125.047504,40.511682],[125.050448,40.504029],[125.055452,40.496081],[125.07017,40.485778],[125.071348,40.480774],[125.061634,40.474298],[125.064577,40.451632],[125.033669,40.446628],[124.959195,40.453987],[124.970381,40.465762],[124.987748,40.469588],[125.027487,40.468117],[125.01689,40.474593],[124.985982,40.486367],[124.9798,40.492254],[124.976268,40.499025],[124.957429,40.524046],[124.911508,40.550833],[124.915335,40.554365],[124.925049,40.559075],[124.934468,40.566434],[124.938295,40.578209],[124.949775,40.57291],[124.955957,40.564374],[124.965965,40.543179],[124.973619,40.537881],[124.981567,40.535232],[124.988926,40.529933],[124.993341,40.515215],[125.002172,40.526989],[125.010414,40.535232],[125.01689,40.544062],[125.021306,40.557014],[125.029548,40.551716],[125.038085,40.550244],[125.046621,40.55201],[125.055452,40.557014],[125.051037,40.564962],[125.050153,40.5682],[125.055452,40.578209],[125.07282,40.567023],[125.09578,40.567317],[125.115208,40.577326],[125.123745,40.595282],[125.13493,40.599403],[125.204989,40.612355],[125.236486,40.614121],[125.246494,40.619125],[125.253559,40.628251],[125.257091,40.639436],[125.262979,40.64915],[125.277403,40.653272],[125.299774,40.657098]]]}},{"type":"Feature","properties":{"kind":"rivers","name":"Liao","source":"Natural Earth 1:10m"},"geometry":{"type":"MultiLineString","coordinates":[[[123.553966,43.483466],[123.603119,43.439643],[123.609304,43.425116],[123.614838,43.403632],[123.625987,43.387315],[123.6338,43.370185],[123.628998,43.346381],[123.616303,43.333441],[123.598074,43.323554],[123.581635,43.31212],[123.574474,43.294786],[123.572032,43.273953],[123.547944,43.184882],[123.54713,43.174994],[123.550141,43.177191],[123.551199,43.17829],[123.55185,43.17947],[123.553966,43.18183],[123.560802,43.174994],[123.551199,43.157986],[123.539643,43.085639],[123.531261,43.072618],[123.520274,43.060167],[123.515147,43.047553],[123.527192,43.025214],[123.524425,43.001166],[123.526541,42.990058],[123.526541,42.996283],[123.530935,42.984076],[123.549734,42.967841],[123.553966,42.958686],[123.558523,42.953681],[123.58017,42.946885],[123.588145,42.942247],[123.589936,42.935126],[123.583751,42.923204],[123.589122,42.898871],[123.592784,42.835801],[123.601736,42.818712],[123.590424,42.802273],[123.584727,42.777167],[123.570974,42.760362],[123.566173,42.746039],[123.571381,42.730048],[123.573822,42.714708],[123.560802,42.702012],[123.570323,42.69123],[123.573334,42.685981],[123.574474,42.678168],[123.579031,42.674262],[123.600841,42.675564],[123.609304,42.67475],[123.615489,42.668158],[123.625255,42.647081],[123.632416,42.637519],[123.649506,42.620144],[123.654552,42.617703],[123.667979,42.613308],[123.694021,42.597235],[123.695323,42.590766],[123.683686,42.579169],[123.70517,42.570136],[123.762218,42.534491],[123.773692,42.520819],[123.768972,42.498155],[123.766775,42.496609],[123.773529,42.489285],[123.780935,42.487006],[123.788097,42.486151],[123.793549,42.482937],[123.800955,42.469672],[123.804698,42.455146],[123.802989,42.440863],[123.793549,42.42829],[123.807628,42.411811],[123.831147,42.411485],[123.853282,42.41706],[123.863048,42.417792],[123.867686,42.411973],[123.889659,42.405788],[123.897227,42.400417],[123.899425,42.389187],[123.894623,42.379462],[123.862071,42.344916],[123.831635,42.326117],[123.818126,42.314765],[123.798757,42.304999],[123.757091,42.305976],[123.738862,42.291124],[123.727306,42.301459],[123.706716,42.306505],[123.683604,42.3074],[123.663829,42.304796],[123.647634,42.298163],[123.635183,42.28738],[123.626882,42.273261],[123.622813,42.256415],[123.612641,42.262722],[123.603608,42.263536],[123.595714,42.26085],[123.588145,42.256415],[123.557384,42.209906],[123.533295,42.196479],[123.485769,42.18126],[123.442882,42.173407],[123.422455,42.16706],[123.407237,42.157416],[123.399913,42.150255],[123.392345,42.144721],[123.3838,42.141059],[123.372813,42.139716],[123.366466,42.141669],[123.363373,42.146348],[123.361746,42.152208],[123.35906,42.157416],[123.351736,42.161241],[123.345307,42.159125],[123.339854,42.155341],[123.33546,42.153998],[123.272472,42.172471],[123.249278,42.174506],[123.239838,42.172309],[123.217784,42.16295],[123.195567,42.158637],[123.19044,42.152655],[123.186453,42.143988],[123.177257,42.13349],[123.160574,42.124538],[123.141368,42.120551],[123.098399,42.1199],[123.089692,42.117621],[123.073741,42.107856],[123.051687,42.101752],[123.046641,42.092637],[123.042654,42.08161],[123.033214,42.072089],[123.020518,42.068793],[122.991222,42.068427],[122.977957,42.065253],[122.968191,42.060492],[122.960378,42.054999],[122.95989,42.049425],[122.97169,42.044135],[122.95045,42.009223],[122.936941,41.992703],[122.924571,41.982693],[122.926524,41.979071],[122.930756,41.969021],[122.919688,41.969835],[122.908946,41.969306],[122.898936,41.966905],[122.889903,41.962226],[122.906749,41.950751],[122.924571,41.941677],[122.914236,41.923692],[122.894786,41.902289],[122.872976,41.885077],[122.854991,41.879665],[122.862641,41.872829],[122.85377,41.860663],[122.842784,41.849677],[122.8296,41.840033],[122.814708,41.831855],[122.805593,41.831081],[122.793956,41.831977],[122.78419,41.830349],[122.78004,41.821601],[122.77825,41.814643],[122.773367,41.807969],[122.766612,41.802029],[122.7588,41.797065],[122.778738,41.791083],[122.786794,41.79088],[122.769054,41.77204],[122.766205,41.766954],[122.772634,41.750515],[122.774425,41.740587],[122.769623,41.736274],[122.743744,41.734198],[122.738455,41.72724],[122.741222,41.714423],[122.739024,41.694648],[122.729015,41.684516],[122.697276,41.669704],[122.690684,41.663926],[122.694347,41.636176],[122.694835,41.618679],[122.690684,41.605292],[122.694835,41.601264],[122.699718,41.591986],[122.704194,41.585395],[122.662364,41.552598],[122.643647,41.53144],[122.635916,41.506293],[122.6338,41.492987],[122.624522,41.470771],[122.622325,41.458197],[122.624115,41.44538],[122.628998,41.437812],[122.635509,41.431179],[122.642833,41.420966],[122.630463,41.415147],[122.636241,41.405219],[122.648692,41.392768],[122.656342,41.37934],[122.654226,41.379218],[122.645437,41.364569],[122.642833,41.358913],[122.639089,41.333197],[122.635916,41.324774],[122.641775,41.305732],[122.620697,41.28502],[122.567149,41.256456],[122.540294,41.24962],[122.533376,41.245063],[122.523448,41.232978],[122.519216,41.229193],[122.477143,41.199571],[122.467784,41.195014],[122.453298,41.192816],[122.430186,41.182969],[122.412852,41.180732],[122.397634,41.176703],[122.39088,41.166287],[122.388764,41.152045],[122.388927,41.136664],[122.401541,41.098212],[122.405935,41.091986],[122.414806,41.086005],[122.414236,41.071845],[122.408702,41.055528],[122.402599,41.042914],[122.407807,41.035956],[122.409679,41.026394],[122.409434,41.002631],[122.341807,40.995795],[122.343761,40.983507],[122.343028,40.96251],[122.339936,40.940945],[122.334972,40.926866],[122.323253,40.94245],[122.318614,40.936835],[122.313731,40.906358],[122.304698,40.892157],[122.292084,40.877875],[122.278331,40.865912],[122.266124,40.858588],[122.260509,40.859809],[122.252615,40.863593],[122.24407,40.86579],[122.235362,40.862006],[122.228933,40.85574],[122.223643,40.852484],[122.216319,40.851508],[122.203868,40.851752],[122.194428,40.863308],[122.186941,40.869452],[122.180431,40.868842],[122.173595,40.861111],[122.170095,40.854926],[122.170909,40.849718],[122.177257,40.844916],[122.125499,40.825141],[122.110362,40.808539],[122.115245,40.783515],[122.144542,40.759467],[122.163992,40.750556],[122.18157,40.725287],[122.190929,40.715277],[122.242117,40.702663],[122.258474,40.693468],[122.23878,40.680487],[122.20989,40.682685],[122.165457,40.710028],[122.156261,40.701606]]]}},{"type":"Feature","properties":{"kind":"rivers","name":"Xar Moron","source":"Natural Earth 1:10m"},"geometry":{"type":"MultiLineString","coordinates":[[[117.208751,42.592149],[117.193614,42.593085],[117.178233,42.597927],[117.166108,42.60696],[117.160167,42.620144],[117.166596,42.63288],[117.193126,42.653591],[117.191742,42.664496],[117.187266,42.679551],[117.200125,42.691759],[117.229747,42.708848],[117.234874,42.721381],[117.236501,42.736518],[117.235932,42.767198],[117.23406,42.781928],[117.22934,42.796902],[117.213634,42.827012],[117.188243,42.873358],[117.180431,42.905097],[117.189464,42.921169],[117.208425,42.935492],[117.229747,42.962104],[117.216807,42.9831],[117.220144,43.005642],[117.235606,43.023627],[117.271495,43.033149],[117.290294,43.042548],[117.301199,43.044623],[117.359467,43.044623],[117.381847,43.051296],[117.420909,43.074408],[117.457286,43.08336],[117.500662,43.103949],[117.571707,43.149482],[117.588878,43.154486],[117.61378,43.157253],[117.681651,43.18183],[117.727794,43.191718],[117.843191,43.202989],[117.867198,43.202338],[117.91269,43.194525],[117.937592,43.195014],[117.94866,43.206081],[117.958263,43.220893],[117.980479,43.234809],[118.00587,43.245551],[118.024099,43.250759],[118.147065,43.259874],[118.167247,43.267035],[118.202403,43.284247],[118.250092,43.295722],[118.298106,43.295111],[118.447032,43.273505],[118.548595,43.274237],[118.59962,43.263739],[118.624766,43.247138],[118.6338,43.243272],[118.647634,43.242987],[118.684988,43.250759],[119.131602,43.217312],[119.181733,43.223456],[119.246023,43.252875],[119.267833,43.256944],[119.483816,43.262071],[119.620616,43.265937],[120.164236,43.380154],[120.341401,43.372504],[120.758474,43.423448]]]}},{"type":"Feature","properties":{"kind":"rivers","name":"Xiliao","source":"Natural Earth 1:10m"},"geometry":{"type":"MultiLineString","coordinates":[[[120.758474,43.423448],[120.775076,43.431667],[120.803396,43.457465],[120.819753,43.468288],[120.97462,43.516628],[121.019054,43.524482],[121.118175,43.524482],[121.127859,43.526557],[121.147634,43.535997],[121.159272,43.538153],[121.360362,43.534003],[121.408783,43.524482],[121.43214,43.51557],[121.47169,43.493964],[121.495128,43.489691],[121.50058,43.48668],[121.505463,43.480048],[121.511974,43.473497],[121.522472,43.470486],[121.574636,43.470486],[121.772634,43.442491],[121.873464,43.444932],[121.919363,43.45307],[121.963796,43.470486],[121.995046,43.490546],[122.014578,43.500067],[122.036388,43.503974],[122.053315,43.509589],[122.107839,43.544949],[122.17628,43.568671],[122.19394,43.582831],[122.25172,43.641181],[122.361501,43.7237],[122.378429,43.720282],[122.468272,43.741482],[122.540294,43.77086],[122.586192,43.7803],[122.632498,43.784491],[122.652192,43.790391],[122.687592,43.815253],[122.711029,43.819281],[122.722341,43.816433],[122.745128,43.807074],[122.7588,43.805609],[122.771007,43.808173],[122.789968,43.817247],[122.79713,43.819281],[122.944428,43.803982],[122.962413,43.7956],[122.981619,43.78144],[122.988455,43.778835],[122.996593,43.777655],[123.00351,43.774929],[123.006602,43.767768],[123.006277,43.757025],[123.007091,43.75198],[123.009369,43.747341],[123.01767,43.737087],[123.024913,43.731269],[123.033702,43.727607],[123.142507,43.703192],[123.209483,43.674831],[123.231944,43.668484],[123.226085,43.653835],[123.23463,43.648505],[123.248627,43.646308],[123.259776,43.641181],[123.266612,43.648017],[123.280284,43.642117],[123.291596,43.642768],[123.302419,43.646023],[123.314382,43.648017],[123.372813,43.641181],[123.380626,43.637966],[123.3956,43.623847],[123.418386,43.618191],[123.451671,43.599555],[123.489675,43.591376],[123.500011,43.586534],[123.509532,43.57746],[123.510753,43.571845],[123.50823,43.565701],[123.506114,43.554877],[123.510916,43.536811],[123.523204,43.51793],[123.553966,43.483466]]]}},{"type":"Feature","properties":{"kind":"rivers","name":"Di’er Songhua","source":"Natural Earth 1:10m"},"geometry":{"type":"MultiLineString","coordinates":[[[126.679698,43.702582],[126.661388,43.731472],[126.646658,43.751247],[126.62794,43.765408],[126.604015,43.77086],[126.579519,43.772488],[126.55128,43.778591],[126.532237,43.791083],[126.535167,43.811835],[126.5442,43.818142],[126.567556,43.821479],[126.576101,43.825507],[126.578705,43.833808],[126.581065,43.861192],[126.579519,43.867051],[126.564871,43.873481],[126.500987,43.915554],[126.494884,43.916042],[126.477631,43.91413],[126.473074,43.915554],[126.47226,43.921332],[126.474864,43.926296],[126.478038,43.929307],[126.47991,43.929145],[126.482921,43.934882],[126.488048,43.949001],[126.490001,43.963487],[126.483653,43.97016],[126.475352,43.980902],[126.459402,44.045233],[126.453543,44.051378],[126.43214,44.06627],[126.408214,44.09988],[126.394216,44.109442],[126.401785,44.13113],[126.418468,44.154364],[126.43214,44.168728],[126.467703,44.197577],[126.481863,44.212714],[126.493663,44.23078],[126.469493,44.242458],[126.455577,44.262274],[126.457286,44.283474],[126.47991,44.29914],[126.467296,44.314521],[126.458425,44.332099],[126.455984,44.349392],[126.46282,44.363959],[126.469819,44.37519],[126.472667,44.387315],[126.47405,44.398139],[126.476492,44.405219],[126.478038,44.414252],[126.468354,44.4206],[126.445811,44.428778],[126.442475,44.429023],[126.437511,44.428575],[126.43157,44.429958],[126.425304,44.435614],[126.427419,44.436957],[126.429779,44.443386],[126.431651,44.451117],[126.43214,44.456122],[126.430186,44.461249],[126.427419,44.465399],[126.425548,44.469997],[126.425304,44.47663],[126.43214,44.493964],[126.432384,44.508083],[126.431163,44.51203],[126.42628,44.513943],[126.41505,44.521918],[126.408946,44.530544],[126.403738,44.549872],[126.39796,44.55976],[126.38323,44.568956],[126.365164,44.575222],[126.349864,44.584784],[126.337332,44.618516],[126.288829,44.668402],[126.268321,44.696357],[126.22755,44.704535],[126.22047,44.706855],[126.214773,44.713446],[126.201427,44.716376],[126.175548,44.716824],[126.161143,44.720811],[126.160655,44.730414],[126.16505,44.741889],[126.165945,44.751573],[126.135753,44.773057],[126.084239,44.785183],[126.028738,44.788845],[125.98642,44.785102],[125.940684,44.773464],[125.920421,44.778388],[125.911794,44.802436],[125.901947,44.817491],[125.878673,44.831732],[125.851085,44.842475],[125.828868,44.847195],[125.813569,44.845038],[125.805593,44.846706],[125.794688,44.8546],[125.786225,44.864447],[125.772472,44.88703],[125.741628,44.92418],[125.728445,44.934597],[125.706554,44.943386],[125.682872,44.949286],[125.670339,44.950629],[125.658132,44.94953],[125.648936,44.943956],[125.634288,44.926093],[125.616791,44.917996],[125.59669,44.899237],[125.586192,44.894965],[125.534597,44.888129],[125.493663,44.888129],[125.480561,44.890163],[125.452078,44.899115],[125.438731,44.90115],[125.429454,44.899848],[125.419363,44.896308],[125.409679,44.891181],[125.401134,44.884711],[125.393077,44.882758],[125.368175,44.887478],[125.356456,44.888129],[125.345225,44.884792],[125.33782,44.879462],[125.330984,44.873236],[125.321707,44.867621],[125.310151,44.864529],[125.2671,44.86876],[125.247976,44.873887],[125.236339,44.875067],[125.224539,44.872748],[125.212006,44.868109],[125.198822,44.86518],[125.185151,44.867621],[125.149018,44.930487],[125.14088,44.939968],[125.099701,44.943386],[125.09433,44.948676],[125.075857,44.98371],[125.046153,45.017849],[125.009939,45.043647],[124.931814,45.087348],[124.917084,45.098741],[124.87322,45.145372],[124.863699,45.152655],[124.85377,45.156277],[124.828217,45.161811],[124.816824,45.166368],[124.787852,45.182318],[124.741303,45.201687],[124.729747,45.217637],[124.725841,45.247748],[124.727143,45.252143],[124.730154,45.25788],[124.733653,45.262763],[124.736095,45.264919],[124.740815,45.267849],[124.739024,45.274482],[124.732595,45.285346],[124.726329,45.308214],[124.725841,45.318061],[124.732595,45.326361],[124.722179,45.339464],[124.687999,45.371039],[124.678315,45.386257],[124.668956,45.419989],[124.651296,45.447943]],[[127.376069,42.56745],[127.34905,42.580349],[127.337006,42.595893],[127.331391,42.610541],[127.316987,42.627509],[127.298106,42.637397],[127.278819,42.630683],[127.262706,42.614814],[127.249604,42.605333],[127.233979,42.600775],[127.210134,42.599636],[127.194021,42.605333],[127.192882,42.618964],[127.199474,42.634792],[127.206716,42.647406],[127.228038,42.674669],[127.232188,42.688056],[127.227143,42.708848],[127.218272,42.725531],[127.199718,42.749945],[127.193126,42.763495],[127.185313,42.820624],[127.179454,42.832384],[127.195323,42.84455],[127.207937,42.856716],[127.218191,42.870388],[127.227143,42.88703],[127.165538,42.928534],[127.141531,42.93476],[127.134939,42.938015],[127.113455,42.952094],[127.087169,42.958604],[127.0796,42.966498],[127.074799,42.975531],[127.069591,42.982611],[126.990733,43.034125],[126.987804,43.042344],[126.986908,43.066921],[126.983897,43.071967],[126.975841,43.07685],[126.970225,43.088446],[126.968761,43.10224],[126.973399,43.113593],[126.932384,43.113593],[126.949799,43.128201],[126.991222,43.14529],[127.00058,43.161322],[126.996349,43.179714],[126.986257,43.19538],[126.97991,43.212836],[126.987071,43.236518],[127.000906,43.247382],[127.021007,43.249701],[127.097992,43.242458],[127.116466,43.248643],[127.152192,43.278022],[127.135671,43.277289],[127.120372,43.280707],[127.107351,43.287787],[127.096934,43.297919],[127.088634,43.310329],[127.086925,43.318874],[127.090017,43.327175],[127.096934,43.338894],[127.130951,43.373603],[127.125255,43.380683],[127.111501,43.384833],[127.018077,43.39411],[127.004975,43.400499],[126.987641,43.428656],[126.977061,43.435085],[126.962983,43.439399],[126.931814,43.458686],[126.92213,43.462999],[126.914806,43.468614],[126.90504,43.51081]]]}},{"type":"Feature","properties":{"kind":"rivers","name":"Yalu","source":"Natural Earth 1:10m"},"geometry":{"type":"MultiLineString","coordinates":[[[124.959239,40.453925],[124.971609,40.453925],[124.988699,40.458075],[125.013682,40.457628],[125.03476,40.462104],[125.041026,40.474962],[125.028819,40.491034],[125.009939,40.509792],[125.014415,40.52558],[125.03476,40.539618],[125.053315,40.547675],[125.0796,40.552029],[125.101573,40.558783],[125.119151,40.565619],[125.137218,40.576972],[125.155203,40.589219],[125.187104,40.5987],[125.217296,40.605414],[125.240489,40.613471],[125.25823,40.621527],[125.266775,40.631903],[125.275645,40.645087],[125.293224,40.650824],[125.314057,40.65001],[125.326589,40.642646],[125.336436,40.641384]]]}},{"type":"Feature","properties":{"kind":"rivers","name":"Yalu","source":"Natural Earth 1:10m"},"geometry":{"type":"MultiLineString","coordinates":[[[128.090587,41.917507],[128.094005,41.901719],[128.099701,41.888861],[128.100841,41.8758],[128.090587,41.859158],[128.09075,41.841986],[128.096609,41.822821],[128.144054,41.754991],[128.154552,41.733954],[128.158783,41.712022],[128.185639,41.693183],[128.223888,41.669704],[128.25058,41.660427],[128.268647,41.643622],[128.281261,41.623236],[128.283132,41.605292],[128.302745,41.583686],[128.287364,41.544949],[128.185313,41.404731],[128.145925,41.376532],[128.103608,41.37934],[128.117931,41.393622],[128.103608,41.399848],[128.087901,41.389187],[128.063975,41.388617],[128.046479,41.398993],[128.050222,41.420966],[128.033295,41.413926],[128.023529,41.411729],[128.014903,41.41352],[128.011322,41.424628],[128.01295,41.442572],[128.012218,41.460313],[128.001231,41.471055],[127.992442,41.461371],[127.984304,41.45421],[127.973888,41.450629],[127.943858,41.471055],[127.903331,41.466498],[127.881277,41.461127],[127.871511,41.453966],[127.864757,41.437608],[127.848562,41.431586],[127.828543,41.434149],[127.810069,41.443793],[127.784434,41.43712],[127.689952,41.439154],[127.662364,41.447211],[127.657725,41.446804],[127.646658,41.433173],[127.638194,41.430121],[127.630382,41.433051],[127.597097,41.450629],[127.558604,41.458523],[127.544444,41.469062],[127.542491,41.491523],[127.525401,41.484565],[127.508067,41.488349],[127.490733,41.495632],[127.473643,41.49905],[127.456716,41.494981],[127.4428,41.488308],[127.427257,41.483344],[127.404796,41.484727],[127.400971,41.487087],[127.395518,41.491563],[127.388194,41.496283],[127.378673,41.49905],[127.370942,41.498318],[127.353526,41.492947],[127.343842,41.491523],[127.304779,41.4949],[127.286062,41.499213],[127.268891,41.505194],[127.274913,41.507595],[127.283295,41.512397],[127.28948,41.518826],[127.288666,41.525702],[127.281261,41.531317],[127.274425,41.530707],[127.2671,41.527533],[127.257823,41.525702],[127.244151,41.528266],[127.22169,41.541042],[127.206716,41.54621],[127.200125,41.542304],[127.187022,41.521674],[127.179454,41.517157],[127.174083,41.519477],[127.170095,41.524115],[127.164806,41.528754],[127.155528,41.530829],[127.1421,41.524115],[127.134369,41.522284],[127.12794,41.531806],[127.120616,41.53502],[127.111827,41.536933],[127.10434,41.537665],[127.117686,41.556016],[127.136241,41.569444],[127.157481,41.578884],[127.179454,41.585395],[127.165701,41.595242],[127.113699,41.610663],[127.096934,41.612738],[127.101573,41.622585],[127.10434,41.62641],[127.073822,41.635932],[127.058686,41.643581],[127.049083,41.653673],[127.045014,41.66824],[127.048595,41.678005],[127.059255,41.682481],[127.076427,41.681016],[127.067963,41.693874],[127.046479,41.71955],[127.042247,41.732856],[127.032725,41.731879],[126.980886,41.763536],[126.958344,41.767035],[126.945811,41.766425],[126.94044,41.771999],[126.939138,41.794013],[126.929617,41.801337],[126.908214,41.796413],[126.886811,41.785183],[126.877208,41.77379],[126.86435,41.747504],[126.808523,41.730048],[126.795828,41.705268],[126.788178,41.696153],[126.771088,41.704779],[126.741222,41.729438],[126.72698,41.737169],[126.712169,41.741523],[126.696544,41.741523],[126.679128,41.736274],[126.686941,41.724311],[126.699311,41.716661],[126.713878,41.710232],[126.72755,41.701483],[126.711925,41.694444],[126.679779,41.672146],[126.668956,41.667344],[126.633718,41.668891],[126.617605,41.666205],[126.601654,41.642279],[126.566824,41.614325],[126.566173,41.602159],[126.576915,41.588487],[126.580496,41.575466],[126.576915,41.562038],[126.558442,41.534369],[126.542003,41.489203],[126.507253,41.447455],[126.500987,41.434638],[126.507823,41.409451],[126.521902,41.377794],[126.521983,41.35224],[126.487397,41.344591],[126.487397,41.352078],[126.493582,41.355048],[126.496186,41.358262],[126.497976,41.362006],[126.500987,41.366278],[126.472179,41.366726],[126.440684,41.34866],[126.391124,41.303656],[126.380382,41.291083],[126.356944,41.24962],[126.345795,41.23786],[126.320811,41.219102],[126.309174,41.208075],[126.284109,41.164374],[126.274425,41.152777],[126.260509,41.143378],[126.147065,41.092475],[126.123546,41.075751],[126.137787,41.057237],[126.126069,41.043402],[126.111095,41.032742],[126.101003,41.022284],[126.10377,41.009467],[126.093191,41.006456],[126.083507,41.002753],[126.07545,40.997341],[126.069021,40.989569],[126.071544,40.980821],[126.065684,40.968858],[126.045095,40.944892],[126.02825,40.935492],[126.009044,40.932929],[125.991791,40.928575],[125.980154,40.913845],[125.996186,40.915147],[126.009532,40.91413],[126.014903,40.909369],[126.007498,40.899604],[125.994721,40.894355],[125.963878,40.891547],[125.949229,40.882839],[125.935964,40.877631],[125.923595,40.884304],[125.912039,40.894355],[125.901134,40.899604],[125.884858,40.897732],[125.872488,40.89293],[125.831391,40.871039],[125.821707,40.86994],[125.778819,40.884833],[125.770518,40.88642],[125.760509,40.885932],[125.754487,40.881903],[125.750499,40.874945],[125.745372,40.868354],[125.736501,40.865424],[125.706065,40.860663],[125.682872,40.848212],[125.64446,40.810818],[125.672944,40.784369],[125.682384,40.76911],[125.668386,40.762397],[125.609793,40.761501],[125.607921,40.76435],[125.600108,40.772976],[125.586192,40.782091],[125.571544,40.785102],[125.559825,40.778632],[125.555105,40.758979],[125.553152,40.737372],[125.546316,40.726142],[125.532725,40.722032],[125.491466,40.721218],[125.478526,40.719021],[125.468761,40.713162],[125.459483,40.701606],[125.456554,40.693915],[125.456065,40.679958],[125.452647,40.673651],[125.44337,40.669013],[125.425955,40.671454],[125.418468,40.666815],[125.414643,40.652167],[125.416921,40.639512],[125.413015,40.632025],[125.390636,40.632636],[125.384288,40.635321],[125.372162,40.644151],[125.363292,40.646918],[125.355724,40.646308],[125.336436,40.641384]],[[124.959239,40.453925],[124.935069,40.455837],[124.92571,40.458116],[124.917654,40.461371],[124.914968,40.466132],[124.905284,40.476752],[124.895112,40.483913],[124.890229,40.478095],[124.883474,40.465766],[124.849539,40.43183],[124.800548,40.394314],[124.779552,40.383734],[124.756602,40.379462],[124.740815,40.370551],[124.730968,40.349962],[124.722992,40.326972],[124.712169,40.310492],[124.692556,40.303046],[124.642182,40.294501],[124.626882,40.286322],[124.61085,40.272406],[124.570567,40.252631],[124.554454,40.241645],[124.551524,40.236396],[124.549897,40.224962],[124.54835,40.221137],[124.542898,40.217841],[124.531993,40.216254],[124.527843,40.214382],[124.385265,40.110663],[124.370209,40.098253]]]}},{"type":"Feature","properties":{"kind":"rivers","name":"Daling","source":"Natural Earth 1:10m"},"geometry":{"type":"MultiLineString","coordinates":[[[118.978933,41.134101],[119.033214,41.149604],[119.166026,41.157538],[119.177175,41.155137],[119.188894,41.150946],[119.20045,41.149197],[119.211029,41.153754],[119.218761,41.163682],[119.227306,41.183295],[119.234874,41.191677],[119.240326,41.193712],[119.255463,41.195624],[119.262218,41.197821],[119.266043,41.200954],[119.274669,41.210313],[119.27589,41.212104],[119.317556,41.217231],[119.344249,41.230658],[119.369151,41.234158],[119.39446,41.232245],[119.413097,41.225165],[119.417898,41.217963],[119.422944,41.19831],[119.426768,41.191677],[119.435069,41.186876],[119.445079,41.18476],[119.482921,41.183051],[119.49407,41.180487],[119.504405,41.178331],[119.515717,41.177354],[119.529552,41.174262],[119.538992,41.166693],[119.54713,41.15766],[119.55714,41.15001],[119.590424,41.141059],[119.610037,41.138373],[119.621186,41.139838],[119.63087,41.146023],[119.66269,41.160956],[119.672455,41.163682],[119.684988,41.157782],[119.703705,41.134711],[119.717784,41.129584],[119.732432,41.127387],[119.762787,41.117499],[119.779307,41.115302],[119.791515,41.121405],[119.823985,41.157538],[119.850515,41.173448],[119.861257,41.182685],[119.865652,41.19477],[119.871104,41.204657],[119.884532,41.211778],[119.900401,41.218044],[119.913259,41.225165],[119.914806,41.231472],[119.912608,41.249335],[119.91684,41.253119],[119.924897,41.254462],[119.933197,41.258002],[119.947358,41.26671],[119.939952,41.281317],[119.9428,41.293891],[119.951427,41.304958],[119.994314,41.342882],[119.999034,41.34809],[120.077729,41.394843],[120.091563,41.40705],[120.107921,41.412543],[120.20753,41.430609],[120.269216,41.426947],[120.29892,41.431749],[120.296886,41.451728],[120.337169,41.468573],[120.376964,41.492296],[120.41269,41.519232],[120.440929,41.545681],[120.444916,41.547431],[120.456065,41.548285],[120.461436,41.551866],[120.462413,41.556179],[120.460704,41.567735],[120.461436,41.572333],[120.469005,41.593858],[120.47462,41.602851],[120.485362,41.606513],[120.505056,41.609809],[120.54835,41.624294],[120.5713,41.62755],[120.646414,41.606553],[120.664073,41.610216],[120.670339,41.615912],[120.69101,41.630683],[120.715017,41.654975],[120.722667,41.66116],[120.854503,41.736274],[120.878429,41.745673],[120.898936,41.749579],[120.946788,41.749864],[120.975597,41.744086],[120.985037,41.728583],[120.988455,41.70657],[120.998627,41.681016],[121.014171,41.661322],[121.056244,41.622992],[121.062266,41.613227],[121.064708,41.60574],[121.069916,41.600857],[121.083914,41.599066],[121.098725,41.595323],[121.099539,41.586208],[121.095144,41.574774],[121.094249,41.564317],[121.110037,41.544013],[121.125418,41.548651],[121.1421,41.560329],[121.162527,41.561225],[121.175222,41.558946],[121.204031,41.559149],[121.214366,41.554389],[121.223155,41.548163],[121.247651,41.540107],[121.283295,41.533515],[121.35434,41.530829],[121.366222,41.528673],[121.385753,41.519314],[121.3921,41.517157],[121.39503,41.512274],[121.418224,41.491889],[121.422455,41.489203],[121.431407,41.467963],[121.432546,41.446601],[121.42628,41.426825],[121.412608,41.410427],[121.403087,41.393093],[121.396658,41.344672],[121.388438,41.324774],[121.372569,41.312852],[121.354747,41.303778],[121.339854,41.290635],[121.333751,41.266425],[121.335948,41.240587],[121.342703,41.223171],[121.353526,41.20954],[121.367931,41.195014],[121.402599,41.135362],[121.445242,41.114569],[121.482514,41.1081],[121.495209,41.103542],[121.505056,41.098212],[121.600597,41.010281],[121.606049,41.001736],[121.611501,40.979031],[121.619721,40.97309],[121.629242,40.969265],[121.635916,40.961615],[121.634939,40.932563],[121.616303,40.900255],[121.588634,40.869574],[121.565033,40.8487]]]}},{"type":"Feature","properties":{"kind":"rivers","name":"Luan","source":"Natural Earth 1:10m"},"geometry":{"type":"MultiLineString","coordinates":[[[116.61435,41.907904],[116.573741,41.889472],[116.554454,41.876247],[116.541108,41.858669],[116.527436,41.821601],[116.516612,41.804511],[116.490001,41.785468],[116.47877,41.771674],[116.475597,41.749864],[116.482595,41.733466],[116.494233,41.718451],[116.50172,41.703681],[116.495616,41.687812],[116.520763,41.684841],[116.532725,41.667914],[116.542491,41.649034],[116.56129,41.640001],[116.572846,41.643988],[116.584483,41.651231],[116.596446,41.655463],[116.621186,41.644884],[116.632335,41.648627],[116.642833,41.655626],[116.65325,41.660509],[116.66505,41.661485],[116.701589,41.660509],[116.735769,41.672309],[116.746349,41.67418],[116.764415,41.671088],[116.888113,41.622423],[116.910167,41.619574],[116.920339,41.620673],[116.940033,41.625312],[116.951427,41.62641],[116.967459,41.625067],[116.976654,41.62169],[116.984386,41.617255],[117.064057,41.58865],[117.10434,41.582872],[117.154714,41.567572],[117.174571,41.558173],[117.191987,41.542996],[117.201915,41.537665],[117.211029,41.537624],[117.220225,41.53974],[117.227061,41.536485],[117.229747,41.52029],[117.231456,41.514106],[117.239757,41.497992],[117.242768,41.489203],[117.242442,41.476752],[117.239675,41.466376],[117.239187,41.456244],[117.246593,41.444525],[117.250499,41.436387],[117.251394,41.42532],[117.250255,41.403591],[117.255056,41.392157],[117.266694,41.381537],[117.290619,41.366278],[117.306733,41.352484],[117.316987,41.349311],[117.339692,41.359931],[117.351492,41.358832],[117.356293,41.35338],[117.345795,41.344591],[117.352468,41.340847],[117.355398,41.339626],[117.359467,41.338406],[117.359467,41.331],[117.318614,41.331],[117.326671,41.321234],[117.336436,41.316962],[117.34669,41.313788],[117.356049,41.307318],[117.351329,41.304796],[117.348074,41.291287],[117.344737,41.244818],[117.354096,41.228624],[117.393647,41.201239],[117.38616,41.195014],[117.393647,41.187567],[117.399425,41.190863],[117.407644,41.192572],[117.417491,41.192979],[117.428396,41.192206],[117.462494,41.184882],[117.475515,41.179633],[117.482432,41.174506],[117.489187,41.154364],[117.490489,41.127875],[117.487804,41.102403],[117.482432,41.08515],[117.506602,41.085028],[117.514659,41.072699],[117.510183,41.056016],[117.496023,41.042914],[117.5088,41.027045],[117.503917,41.012397],[117.495128,40.99787],[117.496023,40.982123],[117.528738,40.991278],[117.561453,40.978705],[117.592296,40.962714],[117.61964,40.961615],[117.629812,40.971503],[117.639252,40.985663],[117.65089,40.997992],[117.66741,41.002631],[117.679617,40.996161],[117.697846,40.96662],[117.708995,40.954779],[117.766124,40.943061],[117.777273,40.934353],[117.773367,40.924262],[117.763438,40.914822],[117.760671,40.904893],[117.777273,40.893378],[117.794526,40.891547],[117.811127,40.896837],[117.826182,40.903673],[117.839366,40.906358],[117.856619,40.900458],[117.864513,40.888861],[117.863048,40.874091],[117.853608,40.858588],[117.870046,40.859687],[117.888682,40.864854],[117.90683,40.87226],[117.920502,40.879706],[117.925955,40.887234],[117.924083,40.893581],[117.924897,40.897976],[117.937999,40.899604],[117.9463,40.895697],[117.964692,40.877712],[117.969005,40.87226],[117.971202,40.864366],[117.970876,40.855414],[117.97226,40.848009],[117.979015,40.844916],[117.990815,40.846218],[118.014578,40.851264],[118.024099,40.851752],[118.044932,40.844916],[118.052989,40.832384],[118.057709,40.81684],[118.068614,40.800849],[118.085053,40.791571],[118.106863,40.782986],[118.125499,40.772813],[118.133474,40.758979],[118.132335,40.749945],[118.12672,40.728868],[118.132904,40.718329],[118.15089,40.704128],[118.154552,40.697821],[118.160655,40.680935],[118.171886,40.671576],[118.178803,40.663398],[118.171316,40.65001],[118.140636,40.62226],[118.136241,40.610419],[118.160737,40.612169],[118.156261,40.605658],[118.151947,40.597764],[118.148855,40.588568],[118.147065,40.57807],[118.169932,40.587836],[118.181651,40.590644],[118.194916,40.591742],[118.19044,40.579779],[118.174571,40.550727],[118.186046,40.553046],[118.204031,40.565212],[118.216075,40.570624],[118.215017,40.558905],[118.218191,40.549994],[118.225108,40.544501],[118.236501,40.54328],[118.234467,40.538845],[118.231293,40.527289],[118.229096,40.522773],[118.265066,40.514919],[118.2706,40.512274],[118.266368,40.502753],[118.247569,40.501899],[118.243337,40.492377],[118.24879,40.487982],[118.275076,40.490098],[118.284272,40.488715],[118.29127,40.476833],[118.288503,40.465359],[118.277436,40.447699],[118.27532,40.43476],[118.277436,40.403022],[118.274425,40.390326],[118.260265,40.372748],[118.256928,40.362087],[118.260265,40.350165],[118.274425,40.327826],[118.277436,40.31741],[118.273692,40.308173],[118.250092,40.276435],[118.2588,40.274482],[118.284109,40.271593],[118.29127,40.269599],[118.295909,40.263617],[118.296886,40.258246],[118.296886,40.251573],[118.298595,40.241645],[118.29713,40.240302],[118.292247,40.229071],[118.29127,40.224555],[118.293224,40.21955],[118.302338,40.212348],[118.304779,40.208116],[118.307546,40.198554],[118.311046,40.191026],[118.311534,40.183132],[118.304779,40.172716],[118.317556,40.151923],[118.334239,40.147284],[118.377452,40.15351],[118.450776,40.145046],[118.523692,40.150499],[118.5678,40.14643],[118.600597,40.126776],[118.613292,40.084581],[118.611908,40.073554],[118.606456,40.053778],[118.606456,40.043647],[118.610037,40.037787],[118.623464,40.022081],[118.626394,40.012559],[118.630789,40.002753],[118.649913,39.988837],[118.659679,39.965033],[118.672455,39.957302],[118.688243,39.953925],[118.702078,39.95364],[118.733653,39.963935],[118.741222,39.957953],[118.743663,39.930365],[118.749034,39.92182],[118.772472,39.915635],[118.777843,39.909613],[118.778901,39.898505],[118.781993,39.891384],[118.802745,39.860053],[118.807384,39.848253],[118.804128,39.836249],[118.791433,39.817084],[118.799571,39.800808],[118.788666,39.787421],[118.772472,39.776068],[118.764171,39.765896],[118.762218,39.755723],[118.753022,39.73371],[118.750499,39.721503],[118.751069,39.710069],[118.757335,39.683661],[118.780284,39.649359],[118.826671,39.621934],[118.862315,39.593695],[118.853526,39.556993],[118.87794,39.546007],[118.910167,39.542304],[118.973399,39.543402],[118.97462,39.537136],[118.970225,39.501776],[118.980724,39.493964],[119.01946,39.472235],[119.031668,39.466986],[119.048106,39.467353],[119.08074,39.47838],[119.096609,39.481309],[119.114675,39.479071],[119.149425,39.469306],[119.16505,39.466986],[119.190522,39.457831],[119.244884,39.418972],[119.257498,39.412421]]]}}]}