{"type":"FeatureCollection","features":[{"type":"Feature","properties":{"kind":"lakes","name":"查干湖","source":"Natural Earth 1:10m"},"geometry":{"type":"Polygon","coordinates":[[[124.376354,45.244469],[124.420214,45.240642],[124.433461,45.232106],[124.424924,45.216504],[124.414327,45.197665],[124.39431,45.185007],[124.369584,45.177943],[124.345446,45.175588],[124.283629,45.178826],[124.251249,45.187068],[124.232116,45.202964],[124.238297,45.205613],[124.241535,45.209145],[124.243596,45.212972],[124.246834,45.216504],[124.222402,45.230339],[124.205034,45.247707],[124.194437,45.26949],[124.190905,45.295983],[124.174715,45.313644],[124.102007,45.308935],[124.081401,45.32012],[124.134387,45.34102],[124.188844,45.339843],[124.241535,45.323947],[124.299525,45.293628],[124.311005,45.290095],[124.321897,45.285091],[124.340147,45.266546],[124.351039,45.257421],[124.363402,45.249767],[124.376354,45.244469]]]}},{"type":"Feature","properties":{"kind":"lakes","name":null,"source":"Natural Earth 1:10m"},"geometry":{"type":"Polygon","coordinates":[[[124.339264,46.14905],[124.334849,46.156115],[124.33426,46.165829],[124.338675,46.167889],[124.344857,46.167595],[124.349273,46.16995],[124.360458,46.196442],[124.368995,46.202918],[124.383419,46.197031],[124.395193,46.192321],[124.393427,46.181135],[124.382536,46.167006],[124.376354,46.152877],[124.382536,46.151405],[124.424924,46.17672],[124.427279,46.15376],[124.410795,46.13757],[124.385479,46.134037],[124.362813,46.149344],[124.354571,46.146106],[124.346329,46.145812],[124.339264,46.14905]]]}},{"type":"Feature","properties":{"kind":"lakes","name":null,"source":"Natural Earth 1:10m"},"geometry":{"type":"Polygon","coordinates":[[[124.261846,45.3525],[124.252721,45.344553],[124.235942,45.340432],[124.236237,45.3525],[124.250366,45.374283],[124.270089,45.386058],[124.286867,45.367219],[124.289222,45.359271],[124.294521,45.354267],[124.272443,45.357799],[124.261846,45.3525]]]}},{"type":"Feature","properties":{"kind":"lakes","name":"松花湖","source":"Natural Earth 1:10m"},"geometry":{"type":"Polygon","coordinates":[[[126.939088,43.61693],[126.969408,43.626055],[126.987069,43.627527],[126.952923,43.598385],[126.933495,43.587493],[126.911418,43.58661],[126.920838,43.568065],[126.924959,43.545105],[126.920543,43.523911],[126.904942,43.510664],[126.899643,43.540689],[126.898171,43.572775],[126.892579,43.565122],[126.889046,43.562472],[126.877272,43.558645],[126.893756,43.603389],[126.898171,43.606332],[126.892579,43.617813],[126.883748,43.620756],[126.857255,43.613692],[126.858727,43.634003],[126.84077,43.641067],[126.821048,43.632825],[126.816338,43.606332],[126.800148,43.610159],[126.782781,43.610159],[126.770123,43.615163],[126.767768,43.633708],[126.735977,43.60957],[126.718021,43.600445],[126.707129,43.606332],[126.71125,43.618696],[126.74363,43.643422],[126.755405,43.654903],[126.742159,43.661379],[126.745985,43.667855],[126.754522,43.676097],[126.755405,43.689049],[126.748929,43.696702],[126.738332,43.703767],[126.725674,43.706711],[126.713311,43.703178],[126.708012,43.694642],[126.715077,43.673742],[126.713311,43.661084],[126.701536,43.645483],[126.69506,43.652548],[126.689173,43.678452],[126.682403,43.684045],[126.67887,43.685516],[126.677987,43.687871],[126.679165,43.696408],[126.67887,43.708477],[126.679165,43.71407],[126.682403,43.71613],[126.726852,43.723489],[126.737449,43.719957],[126.757171,43.717602],[126.80162,43.751748],[126.823109,43.75116],[126.827818,43.757636],[126.833706,43.761168],[126.851073,43.7647],[126.84813,43.755575],[126.844008,43.748216],[126.83871,43.742917],[126.842242,43.745272],[126.798971,43.712892],[126.784253,43.694347],[126.78543,43.678452],[126.796027,43.670209],[126.807507,43.666088],[126.843125,43.660495],[126.863437,43.661084],[126.870207,43.658729],[126.883748,43.650781],[126.890812,43.648132],[126.889929,43.664617],[126.896405,43.673447],[126.909063,43.676391],[126.925547,43.674625],[126.922309,43.660495],[126.929668,43.65137],[126.943209,43.646955],[126.959694,43.648132],[126.959694,43.641067],[126.948802,43.639007],[126.94056,43.633708],[126.925547,43.620756],[126.939088,43.61693]]]}},{"type":"Feature","properties":{"kind":"lakes","name":"月亮泡","source":"Natural Earth 1:10m"},"geometry":{"type":"Polygon","coordinates":[[[123.942167,45.744593],[124.005161,45.733113],[124.041368,45.709859],[124.030771,45.705737],[124.010459,45.705443],[123.999568,45.703677],[123.990443,45.699556],[123.965422,45.683071],[123.963067,45.694257],[123.95924,45.703088],[123.953058,45.710742],[123.945111,45.717218],[123.930687,45.70927],[123.906549,45.689547],[123.88977,45.683071],[123.869165,45.682777],[123.850325,45.688076],[123.814707,45.703677],[123.831192,45.721044],[123.8412,45.723694],[123.855624,45.717218],[123.882411,45.740767],[123.942167,45.744593]]]}},{"type":"Feature","properties":{"kind":"rivers","name":"Tumen","source":"Natural Earth 1:10m"},"geometry":{"type":"MultiLineString","coordinates":[[[128.19337,41.962226],[128.264578,41.953315],[128.289236,41.95539],[128.325613,41.970242],[128.364757,41.991523],[128.407319,42.008612],[128.453624,42.010606],[128.488048,41.997829],[128.502208,41.996365],[128.543468,42.008328],[128.552989,42.006903],[128.564057,42.001044],[128.573334,42.004584],[128.587413,42.020209],[128.597341,42.027411],[128.607514,42.030463],[128.682221,42.025987],[128.708995,42.030463],[128.720632,42.047878],[128.816824,42.044135],[128.903331,42.026557],[128.939708,42.03559],[128.9546,42.075466],[128.963634,42.088813],[128.984793,42.093126],[129.008718,42.095282],[129.026296,42.102159],[129.053152,42.123074],[129.063243,42.136339],[129.064464,42.153998],[129.088308,42.143419],[129.105154,42.142361],[129.11964,42.149604],[129.147553,42.173936],[129.177419,42.193671],[129.195974,42.209499],[129.203868,42.214545],[129.210948,42.220242],[129.214122,42.22602],[129.209076,42.234931],[129.186615,42.236274],[129.180593,42.243354],[129.183116,42.254747],[129.191905,42.260077],[129.202647,42.263007],[129.210948,42.267279],[129.214692,42.275946],[129.213878,42.283962],[129.215994,42.291327],[129.227631,42.29796],[129.220307,42.3039],[129.212332,42.308051],[129.203298,42.31037],[129.193614,42.310981],[129.193614,42.318427],[129.226003,42.318427],[129.235932,42.324164],[129.241954,42.338935],[129.240001,42.344306],[129.233897,42.346747],[129.228282,42.35045],[129.227631,42.359442],[129.230968,42.367947],[129.235769,42.374579],[129.242768,42.378974],[129.296397,42.387519],[129.303396,42.389838],[129.306733,42.407904],[129.315115,42.422553],[129.326264,42.427069],[129.337494,42.414659],[129.351736,42.420844],[129.343435,42.42947],[129.338308,42.438585],[129.339854,42.445665],[129.351736,42.448188],[129.362885,42.445258],[129.371755,42.432807],[129.385916,42.42829],[129.395112,42.430487],[129.405854,42.436225],[129.418549,42.44127],[129.433849,42.441352],[129.482188,42.410956],[129.488455,42.402777],[129.516694,42.391181],[129.523204,42.383612],[129.526541,42.373358],[129.534923,42.369818],[129.545014,42.371527],[129.553803,42.377143],[129.559093,42.387234],[129.559825,42.39704],[129.562999,42.404364],[129.587413,42.411648],[129.594249,42.422471],[129.595307,42.435899],[129.591401,42.448188],[129.633311,42.445665],[129.670909,42.438178],[129.703054,42.442694],[129.728526,42.476142],[129.733409,42.51203],[129.731293,42.551215],[129.736339,42.585395],[129.762706,42.606472],[129.762706,42.612657],[129.746023,42.615749],[129.741303,42.629259],[129.750662,42.643175],[129.776378,42.647406],[129.771983,42.661933],[129.778901,42.6706],[129.787201,42.677069],[129.786388,42.685004],[129.774099,42.69363],[129.764171,42.697089],[129.757335,42.703925],[129.755382,42.72252],[129.756928,42.734931],[129.760916,42.746365],[129.773041,42.767157],[129.789154,42.792751],[129.794851,42.806708],[129.798839,42.836859],[129.833995,42.907742],[129.841238,42.918036],[129.846283,42.928494],[129.84726,42.951524],[129.851573,42.962104],[129.862885,42.969306],[129.893077,42.971788],[129.906749,42.976386],[129.897472,42.978949],[129.88974,42.983018],[129.8838,42.988715],[129.879405,42.996283],[129.890391,42.999701],[129.908946,43.008734],[129.920421,43.010565],[129.933686,43.008653],[129.941417,43.003852],[129.971446,42.973944],[129.981293,42.966986],[129.995535,42.962104],[130.008067,42.960761],[130.046967,42.962104],[130.094168,42.977159],[130.121349,42.982123],[130.133311,42.972968],[130.1303,42.959744],[130.122325,42.943549],[130.111339,42.929307],[130.098562,42.921739],[130.140147,42.907335],[130.193451,42.908474],[130.238455,42.902533],[130.256114,42.867133],[130.241954,42.782294],[130.242686,42.743598],[130.262299,42.708848],[130.316905,42.667589],[130.324474,42.650499],[130.39267,42.606472],[130.403494,42.604315],[130.412608,42.604926],[130.420095,42.60456],[130.427419,42.599636],[130.429698,42.591742],[130.425955,42.572333],[130.430919,42.561794],[130.452159,42.549628],[130.467784,42.555203],[130.470795,42.570014],[130.454845,42.585395],[130.467459,42.600653],[130.483897,42.610297],[130.501069,42.610948],[130.516124,42.599636],[130.519216,42.588894],[130.524913,42.549506],[130.530528,42.530707],[130.54241,42.51081],[130.5442,42.506537],[130.545828,42.495551],[130.549734,42.490668],[130.554454,42.48786],[130.558523,42.482937],[130.57545,42.44599],[130.587169,42.432237],[130.605561,42.420844],[130.628347,42.415066],[130.645518,42.401068],[130.656342,42.38349],[130.660248,42.359442],[130.659923,42.334174],[130.662527,42.320828],[130.672781,42.311387],[130.700206,42.295111]]]}},{"type":"Feature","properties":{"kind":"rivers","name":"Muling","source":"Natural Earth 1:10m"},"geometry":{"type":"MultiLineString","coordinates":[[[130.079845,43.89643],[130.100027,43.921088],[130.109304,43.946357],[130.115896,43.97248],[130.128184,43.999823],[130.136485,44.009955],[130.155854,44.028184],[130.163829,44.038438],[130.17213,44.058417],[130.183523,44.099555],[130.194021,44.119452],[130.25172,44.179958],[130.255382,44.190253],[130.257498,44.211941],[130.263438,44.221137],[130.274099,44.22724],[130.297781,44.235867],[130.307872,44.243109],[130.314545,44.254218],[130.321381,44.280707],[130.326752,44.293158],[130.342052,44.310614],[130.358816,44.324164],[130.373139,44.339545],[130.381602,44.362494],[130.380789,44.386298],[130.371511,44.402615],[130.355398,44.411689],[130.334076,44.413845],[130.305919,44.409044],[130.295665,44.410834],[130.28004,44.420193],[130.273204,44.432685],[130.26946,44.447089],[130.262218,44.461982],[130.253429,44.468573],[130.24171,44.473985],[130.232351,44.480984],[130.230479,44.49197],[130.234955,44.498114],[130.251069,44.505723],[130.257335,44.511664],[130.273204,44.55504],[130.279796,44.568183],[130.291515,44.580024],[130.376231,44.628363],[130.385671,44.636786],[130.39267,44.652655],[130.393077,44.668809],[130.391531,44.685492],[130.392833,44.702663],[130.403819,44.724555],[130.439464,44.761542],[130.4546,44.781684],[130.48821,44.867947],[130.505056,44.897244],[130.509369,44.909003],[130.515554,44.946234],[130.519135,44.958319],[130.544037,45.004421],[130.560313,45.025092],[130.594656,45.056993],[130.610444,45.067898],[130.627452,45.07628],[130.647065,45.082058],[130.667654,45.093126],[130.671153,45.110867],[130.6692,45.131456],[130.674083,45.151475],[130.684093,45.160712],[130.711925,45.173936],[130.723888,45.181667],[130.736827,45.196479],[130.807546,45.30744],[130.823009,45.325507],[130.853526,45.343207],[130.891205,45.348415],[130.929779,45.343451],[130.963145,45.330593],[130.997162,45.309678],[131.014171,45.30268],[131.036062,45.299384],[131.115001,45.299628],[131.158214,45.288845],[131.198741,45.272528],[131.241628,45.264594],[131.441417,45.282538],[131.546641,45.32807],[131.602794,45.338243],[131.626231,45.334581],[131.668956,45.32099],[131.692312,45.319648],[131.722667,45.328477],[131.749766,45.345323],[131.939708,45.511094],[132.027192,45.550482],[132.062755,45.574001],[132.082123,45.582465],[132.095307,45.584581],[132.137543,45.58454],[132.170909,45.595404],[132.269135,45.66588],[132.294444,45.690619],[132.311046,45.698269],[132.323416,45.699246],[132.427664,45.687567],[132.495535,45.669501],[132.686941,45.672553],[132.880382,45.719916],[133.056244,45.738959],[133.104747,45.753038],[133.267019,45.835476],[133.345307,45.860175],[133.427338,45.872748],[133.510183,45.873358]]]}},{"type":"Feature","properties":{"kind":"rivers","name":"Liao","source":"Natural Earth 1:10m"},"geometry":{"type":"MultiLineString","coordinates":[[[123.553966,43.483466],[123.603119,43.439643],[123.609304,43.425116],[123.614838,43.403632],[123.625987,43.387315],[123.6338,43.370185],[123.628998,43.346381],[123.616303,43.333441],[123.598074,43.323554],[123.581635,43.31212],[123.574474,43.294786],[123.572032,43.273953],[123.547944,43.184882],[123.54713,43.174994],[123.550141,43.177191],[123.551199,43.17829],[123.55185,43.17947],[123.553966,43.18183],[123.560802,43.174994],[123.551199,43.157986],[123.539643,43.085639],[123.531261,43.072618],[123.520274,43.060167],[123.515147,43.047553],[123.527192,43.025214],[123.524425,43.001166],[123.526541,42.990058],[123.526541,42.996283],[123.530935,42.984076],[123.549734,42.967841],[123.553966,42.958686],[123.558523,42.953681],[123.58017,42.946885],[123.588145,42.942247],[123.589936,42.935126],[123.583751,42.923204],[123.589122,42.898871],[123.592784,42.835801],[123.601736,42.818712],[123.590424,42.802273],[123.584727,42.777167],[123.570974,42.760362],[123.566173,42.746039],[123.571381,42.730048],[123.573822,42.714708],[123.560802,42.702012],[123.570323,42.69123],[123.573334,42.685981],[123.574474,42.678168],[123.579031,42.674262],[123.600841,42.675564],[123.609304,42.67475],[123.615489,42.668158],[123.625255,42.647081],[123.632416,42.637519],[123.649506,42.620144],[123.654552,42.617703],[123.667979,42.613308],[123.694021,42.597235],[123.695323,42.590766],[123.683686,42.579169],[123.70517,42.570136],[123.762218,42.534491],[123.773692,42.520819],[123.768972,42.498155],[123.766775,42.496609],[123.773529,42.489285],[123.780935,42.487006],[123.788097,42.486151],[123.793549,42.482937],[123.800955,42.469672],[123.804698,42.455146],[123.802989,42.440863],[123.793549,42.42829],[123.807628,42.411811],[123.831147,42.411485],[123.853282,42.41706],[123.863048,42.417792],[123.867686,42.411973],[123.889659,42.405788],[123.897227,42.400417],[123.899425,42.389187],[123.894623,42.379462],[123.862071,42.344916],[123.831635,42.326117],[123.818126,42.314765],[123.798757,42.304999],[123.757091,42.305976],[123.738862,42.291124],[123.727306,42.301459],[123.706716,42.306505],[123.683604,42.3074],[123.663829,42.304796],[123.647634,42.298163],[123.635183,42.28738],[123.626882,42.273261],[123.622813,42.256415],[123.612641,42.262722],[123.603608,42.263536],[123.595714,42.26085],[123.588145,42.256415],[123.557384,42.209906],[123.533295,42.196479],[123.485769,42.18126],[123.442882,42.173407],[123.422455,42.16706],[123.407237,42.157416],[123.399913,42.150255],[123.392345,42.144721],[123.3838,42.141059],[123.372813,42.139716],[123.366466,42.141669],[123.363373,42.146348],[123.361746,42.152208],[123.35906,42.157416],[123.351736,42.161241],[123.345307,42.159125],[123.339854,42.155341],[123.33546,42.153998],[123.272472,42.172471],[123.249278,42.174506],[123.239838,42.172309],[123.217784,42.16295],[123.195567,42.158637],[123.19044,42.152655],[123.186453,42.143988],[123.177257,42.13349],[123.160574,42.124538],[123.141368,42.120551],[123.098399,42.1199],[123.089692,42.117621],[123.073741,42.107856],[123.051687,42.101752],[123.046641,42.092637],[123.042654,42.08161],[123.033214,42.072089],[123.020518,42.068793],[122.991222,42.068427],[122.977957,42.065253],[122.968191,42.060492],[122.960378,42.054999],[122.95989,42.049425],[122.97169,42.044135],[122.95045,42.009223],[122.936941,41.992703],[122.924571,41.982693],[122.926524,41.979071],[122.930756,41.969021],[122.919688,41.969835],[122.908946,41.969306],[122.898936,41.966905],[122.889903,41.962226],[122.906749,41.950751],[122.924571,41.941677],[122.914236,41.923692],[122.894786,41.902289],[122.872976,41.885077],[122.854991,41.879665],[122.862641,41.872829],[122.85377,41.860663],[122.842784,41.849677],[122.8296,41.840033],[122.814708,41.831855],[122.805593,41.831081],[122.793956,41.831977],[122.78419,41.830349],[122.78004,41.821601],[122.77825,41.814643],[122.773367,41.807969],[122.766612,41.802029],[122.7588,41.797065],[122.778738,41.791083],[122.786794,41.79088],[122.769054,41.77204],[122.766205,41.766954],[122.772634,41.750515],[122.774425,41.740587],[122.769623,41.736274],[122.743744,41.734198],[122.738455,41.72724],[122.741222,41.714423],[122.739024,41.694648],[122.729015,41.684516],[122.697276,41.669704],[122.690684,41.663926],[122.694347,41.636176],[122.694835,41.618679],[122.690684,41.605292],[122.694835,41.601264],[122.699718,41.591986],[122.704194,41.585395],[122.662364,41.552598],[122.643647,41.53144],[122.635916,41.506293],[122.6338,41.492987],[122.624522,41.470771],[122.622325,41.458197],[122.624115,41.44538],[122.628998,41.437812],[122.635509,41.431179],[122.642833,41.420966],[122.630463,41.415147],[122.636241,41.405219],[122.648692,41.392768],[122.656342,41.37934],[122.654226,41.379218],[122.645437,41.364569],[122.642833,41.358913],[122.639089,41.333197],[122.635916,41.324774],[122.641775,41.305732],[122.620697,41.28502],[122.567149,41.256456],[122.540294,41.24962],[122.533376,41.245063],[122.523448,41.232978],[122.519216,41.229193],[122.477143,41.199571],[122.467784,41.195014],[122.453298,41.192816],[122.430186,41.182969],[122.412852,41.180732],[122.397634,41.176703],[122.39088,41.166287],[122.388764,41.152045],[122.388927,41.136664],[122.401541,41.098212],[122.405935,41.091986],[122.414806,41.086005],[122.414236,41.071845],[122.408702,41.055528],[122.402599,41.042914],[122.407807,41.035956],[122.409679,41.026394],[122.409434,41.002631],[122.341807,40.995795],[122.343761,40.983507],[122.343028,40.96251],[122.339936,40.940945],[122.334972,40.926866],[122.323253,40.94245],[122.318614,40.936835],[122.313731,40.906358],[122.304698,40.892157],[122.292084,40.877875],[122.278331,40.865912],[122.266124,40.858588],[122.260509,40.859809],[122.252615,40.863593],[122.24407,40.86579],[122.235362,40.862006],[122.228933,40.85574],[122.223643,40.852484],[122.216319,40.851508],[122.203868,40.851752],[122.194428,40.863308],[122.186941,40.869452],[122.180431,40.868842],[122.173595,40.861111],[122.170095,40.854926],[122.170909,40.849718],[122.177257,40.844916],[122.125499,40.825141],[122.110362,40.808539],[122.115245,40.783515],[122.144542,40.759467],[122.163992,40.750556],[122.18157,40.725287],[122.190929,40.715277],[122.242117,40.702663],[122.258474,40.693468],[122.23878,40.680487],[122.20989,40.682685],[122.165457,40.710028],[122.156261,40.701606]]]}},{"type":"Feature","properties":{"kind":"rivers","name":"Xiliao","source":"Natural Earth 1:10m"},"geometry":{"type":"MultiLineString","coordinates":[[[120.758474,43.423448],[120.775076,43.431667],[120.803396,43.457465],[120.819753,43.468288],[120.97462,43.516628],[121.019054,43.524482],[121.118175,43.524482],[121.127859,43.526557],[121.147634,43.535997],[121.159272,43.538153],[121.360362,43.534003],[121.408783,43.524482],[121.43214,43.51557],[121.47169,43.493964],[121.495128,43.489691],[121.50058,43.48668],[121.505463,43.480048],[121.511974,43.473497],[121.522472,43.470486],[121.574636,43.470486],[121.772634,43.442491],[121.873464,43.444932],[121.919363,43.45307],[121.963796,43.470486],[121.995046,43.490546],[122.014578,43.500067],[122.036388,43.503974],[122.053315,43.509589],[122.107839,43.544949],[122.17628,43.568671],[122.19394,43.582831],[122.25172,43.641181],[122.361501,43.7237],[122.378429,43.720282],[122.468272,43.741482],[122.540294,43.77086],[122.586192,43.7803],[122.632498,43.784491],[122.652192,43.790391],[122.687592,43.815253],[122.711029,43.819281],[122.722341,43.816433],[122.745128,43.807074],[122.7588,43.805609],[122.771007,43.808173],[122.789968,43.817247],[122.79713,43.819281],[122.944428,43.803982],[122.962413,43.7956],[122.981619,43.78144],[122.988455,43.778835],[122.996593,43.777655],[123.00351,43.774929],[123.006602,43.767768],[123.006277,43.757025],[123.007091,43.75198],[123.009369,43.747341],[123.01767,43.737087],[123.024913,43.731269],[123.033702,43.727607],[123.142507,43.703192],[123.209483,43.674831],[123.231944,43.668484],[123.226085,43.653835],[123.23463,43.648505],[123.248627,43.646308],[123.259776,43.641181],[123.266612,43.648017],[123.280284,43.642117],[123.291596,43.642768],[123.302419,43.646023],[123.314382,43.648017],[123.372813,43.641181],[123.380626,43.637966],[123.3956,43.623847],[123.418386,43.618191],[123.451671,43.599555],[123.489675,43.591376],[123.500011,43.586534],[123.509532,43.57746],[123.510753,43.571845],[123.50823,43.565701],[123.506114,43.554877],[123.510916,43.536811],[123.523204,43.51793],[123.553966,43.483466]]]}},{"type":"Feature","properties":{"kind":"rivers","name":"Songhua","source":"Natural Earth 1:10m"},"geometry":{"type":"MultiLineString","coordinates":[[[132.517833,47.70661],[132.514415,47.693874],[132.511322,47.688096],[132.506602,47.683458],[132.499522,47.680365],[132.49171,47.679511],[132.475841,47.679755],[132.470144,47.678982],[132.464773,47.677191],[132.460134,47.674018],[132.45696,47.669053],[132.455577,47.660956],[132.457937,47.654364],[132.466238,47.641425],[132.467296,47.636908],[132.467052,47.631903],[132.465912,47.626776],[132.462494,47.618232],[132.451264,47.60102],[132.379487,47.520128],[132.351003,47.500556],[132.322195,47.473822],[132.313406,47.467312],[132.080496,47.371446],[132.062999,47.36046],[132.050792,47.349433],[132.040294,47.336737],[132.036062,47.329372],[132.034597,47.325548],[132.03004,47.30744],[132.008718,47.269232],[132.000092,47.259874],[131.988862,47.253607],[131.976329,47.250067],[131.963471,47.248725],[131.791515,47.261746],[131.780365,47.260769],[131.726573,47.245307],[131.624278,47.233832],[131.531668,47.245307],[131.466889,47.245144],[131.453624,47.242499],[131.320567,47.188585],[131.300304,47.185492],[131.149913,47.206244],[131.131602,47.205146],[131.066742,47.188585],[131.05421,47.188178],[131.041596,47.189643],[131.029389,47.193061],[130.996755,47.208197],[130.985362,47.211697],[130.972179,47.212714],[130.959402,47.211005],[130.907156,47.196885],[130.853282,47.18891],[130.829112,47.180487],[130.806244,47.168321],[130.784679,47.152899],[130.774343,47.1435],[130.765391,47.133572],[130.744233,47.10045],[130.689138,47.044135],[130.678722,47.035956],[130.667003,47.029486],[130.654307,47.024848],[130.641368,47.022528],[130.589122,47.01907],[130.559255,47.009467],[130.544851,47.001573],[130.533946,46.991563],[130.531261,46.986884],[130.529796,46.981757],[130.529307,46.946804],[130.527843,46.938503],[130.526785,46.934638],[130.524913,46.931586],[130.519949,46.925849],[130.518077,46.922878],[130.516775,46.92003],[130.515229,46.913275],[130.512299,46.905382],[130.508311,46.898139],[130.503429,46.891384],[130.497813,46.885199],[130.488373,46.877061],[130.478038,46.870185],[130.455577,46.859809],[130.405854,46.850938],[130.347992,46.833523],[130.339285,46.833564],[130.330089,46.837226]],[[124.674571,45.450466],[124.722341,45.450466],[124.73463,45.453721],[124.755463,45.468085],[124.767345,45.470893],[124.771902,45.467597],[124.776134,45.460557],[124.780365,45.450466],[124.785574,45.450019],[124.796479,45.451117],[124.82545,45.445176],[124.84905,45.442979],[124.861095,45.444281],[124.872162,45.448513],[124.8803,45.456],[124.883393,45.467231],[124.882416,45.470323],[124.879975,45.472113],[124.877859,45.474718],[124.87672,45.480577],[124.878673,45.488349],[124.882823,45.492743],[124.887543,45.495551],[124.890229,45.498236],[124.894542,45.518663],[124.897553,45.527167],[124.903901,45.532416],[124.915294,45.532742],[124.926362,45.527615],[124.934662,45.518866],[124.93808,45.508165],[124.950857,45.494818],[124.979747,45.493435],[125.027599,45.498236],[125.041433,45.492865],[125.044037,45.488471],[125.042084,45.482245],[125.04184,45.470893],[125.043468,45.451443],[125.047293,45.444892],[125.058604,45.433132],[125.073741,45.423041],[125.079682,45.416571],[125.082042,45.405463],[125.081635,45.389838],[125.082612,45.386013],[125.088634,45.38935],[125.103119,45.395209],[125.232514,45.413682],[125.24879,45.413398],[125.2671,45.408881],[125.27589,45.404731],[125.280528,45.401475],[125.285492,45.400336],[125.295014,45.402045],[125.30071,45.406562],[125.302419,45.412665],[125.30714,45.416856],[125.321707,45.415635],[125.355968,45.40058],[125.374522,45.398383],[125.397472,45.408881],[125.411062,45.424913],[125.422374,45.46129],[125.43214,45.477118],[125.451101,45.484809],[125.473562,45.481024],[125.497488,45.4737],[125.521007,45.470893],[125.542898,45.475898],[125.603526,45.504462],[125.618663,45.508083],[125.658132,45.504462],[125.667654,45.505968],[125.687266,45.511908],[125.699148,45.511908],[125.722992,45.517646],[125.79835,45.511908],[125.810802,45.509304],[125.832612,45.498847],[125.842459,45.498236],[125.850352,45.504828],[125.870372,45.539252],[125.886974,45.556505],[125.898367,45.563666],[125.923106,45.56977],[125.926768,45.577826],[125.925141,45.597235],[125.930919,45.622178],[125.9463,45.628485],[125.968354,45.62873],[125.993907,45.635443],[125.986339,45.643988],[125.966807,45.649604],[125.959727,45.6553],[125.959239,45.668728],[125.971202,45.674872],[125.986908,45.676459],[125.997325,45.676378],[126.003022,45.680691],[126.015229,45.699408],[126.024343,45.703721],[126.038097,45.703437],[126.046641,45.701768],[126.069021,45.690701],[126.109467,45.679307],[126.151134,45.681464],[126.240245,45.696845],[126.355724,45.695746],[126.358897,45.69835],[126.377208,45.717231],[126.385265,45.723497],[126.395274,45.727729],[126.461192,45.74018],[126.483979,45.750312],[126.493663,45.768581],[126.504242,45.767646],[126.556407,45.753974],[126.576101,45.751532],[126.593028,45.756659],[126.637625,45.785671],[126.670909,45.79503],[126.684988,45.801134],[126.6928,45.813544],[126.691905,45.83039],[126.685802,45.844062],[126.683197,45.857856],[126.6928,45.875067],[126.708995,45.883734],[126.729096,45.889838],[126.743175,45.898708],[126.741222,45.915961],[126.786143,45.925482],[126.820567,45.948269],[126.852631,45.975369],[126.890717,45.997911],[126.935313,46.013292],[126.983002,46.024034],[127.031179,46.026882],[127.076427,46.018378],[127.165701,45.981472],[127.188894,45.976589],[127.274994,45.978054],[127.326752,45.969265],[127.353038,45.960476],[127.36435,45.947333],[127.369884,45.924669],[127.384369,45.91828],[127.484467,45.926378],[127.51116,45.934027],[127.528331,45.950751],[127.529307,45.957546],[127.526866,45.963406],[127.523692,45.968817],[127.522065,45.974311],[127.524018,45.98074],[127.533132,45.991278],[127.535655,45.997911],[127.535737,46.020372],[127.539236,46.030463],[127.549327,46.038845],[127.574636,46.040798],[127.666026,46.011542],[127.692312,46.008246],[127.697358,46.003974],[127.706391,45.991726],[127.711681,45.982245],[127.714692,45.974229],[127.718679,45.966254],[127.72755,45.956895],[127.753917,45.968695],[127.763927,45.959988],[127.770112,45.944648],[127.785818,45.936469],[127.797781,45.934434],[127.825043,45.925401],[127.837413,45.923407],[127.892019,45.929633],[127.917654,45.925849],[127.943126,45.919257],[127.967865,45.91706],[128.013438,45.936103],[128.037608,45.93655],[128.061941,45.93122],[128.083751,45.923407],[128.128347,45.916124],[128.173839,45.924587],[128.288259,45.975653],[128.309662,45.979315],[128.36142,45.978054],[128.385753,45.974392],[128.44752,45.943915],[128.575857,45.909532],[128.590831,45.902289],[128.622,45.916205],[128.639171,45.921413],[128.655772,45.923407],[128.67335,45.92768],[128.706147,45.946479],[128.717377,45.950751],[128.730398,45.953559],[128.758311,45.96662],[128.77589,45.970567],[128.81894,45.972683],[128.841238,45.970649],[128.858409,45.964382],[128.878022,45.940497],[128.888438,45.913357],[128.904389,45.891059],[128.970144,45.874701],[128.981944,45.875067],[128.990896,45.878607],[129.007416,45.89057],[129.016043,45.895535],[129.03419,45.899522],[129.073985,45.902777],[129.090587,45.909735],[129.090587,45.902289],[129.165701,45.943793],[129.19866,45.970893],[129.254405,46.037299],[129.271983,46.053168],[129.286632,46.060004],[129.298839,46.070909],[129.323985,46.141913],[129.354991,46.204657],[129.375662,46.22956],[129.389903,46.254096],[129.395925,46.259223],[129.433849,46.27912],[129.456554,46.299994],[129.467865,46.305732],[129.503184,46.311103],[129.531749,46.329698],[129.546397,46.334784],[129.55714,46.343695],[129.564057,46.368476],[129.561697,46.397773],[129.564057,46.409451],[129.569021,46.420111],[129.582042,46.439399],[129.604096,46.465155],[129.637543,46.495917],[129.652843,46.506293],[129.69337,46.521796],[129.782644,46.543972],[129.824718,46.566474],[129.848399,46.587917],[129.858979,46.594346],[129.888682,46.606228],[129.896251,46.611151],[129.904796,46.621649],[129.910167,46.62995],[129.912852,46.63935],[129.915619,46.666205],[129.921316,46.67475],[129.963878,46.708441],[129.968842,46.717312],[129.969737,46.728339],[129.967865,46.752631],[129.971934,46.762274],[129.990326,46.774115],[130.010916,46.775417],[130.057546,46.765692],[130.083507,46.763373],[130.09547,46.7685],[130.098562,46.781562],[130.098562,46.803534],[130.107026,46.82453],[130.127615,46.832465],[130.152599,46.831855],[130.199148,46.820258],[130.217214,46.818671],[130.233328,46.82392],[130.252452,46.837714],[130.27296,46.849229],[130.29127,46.849433],[130.33196,46.834581]]]}},{"type":"Feature","properties":{"kind":"rivers","name":"Di’er Songhua","source":"Natural Earth 1:10m"},"geometry":{"type":"MultiLineString","coordinates":[[[126.90504,43.51081],[126.910574,43.541205],[126.908702,43.556586],[126.906749,43.582221],[126.904877,43.595811],[126.906749,43.609483],[126.903738,43.623806],[126.871023,43.639757],[126.84962,43.648017],[126.822358,43.649685],[126.791433,43.650458],[126.773855,43.662543],[126.770274,43.68769],[126.761974,43.704169],[126.737885,43.711249],[126.711843,43.711127],[126.698253,43.702582],[126.685802,43.69892],[126.679698,43.702582],[126.678803,43.703803]]]}},{"type":"Feature","properties":{"kind":"rivers","name":"Di’er Songhua","source":"Natural Earth 1:10m"},"geometry":{"type":"MultiLineString","coordinates":[[[126.679698,43.702582],[126.661388,43.731472],[126.646658,43.751247],[126.62794,43.765408],[126.604015,43.77086],[126.579519,43.772488],[126.55128,43.778591],[126.532237,43.791083],[126.535167,43.811835],[126.5442,43.818142],[126.567556,43.821479],[126.576101,43.825507],[126.578705,43.833808],[126.581065,43.861192],[126.579519,43.867051],[126.564871,43.873481],[126.500987,43.915554],[126.494884,43.916042],[126.477631,43.91413],[126.473074,43.915554],[126.47226,43.921332],[126.474864,43.926296],[126.478038,43.929307],[126.47991,43.929145],[126.482921,43.934882],[126.488048,43.949001],[126.490001,43.963487],[126.483653,43.97016],[126.475352,43.980902],[126.459402,44.045233],[126.453543,44.051378],[126.43214,44.06627],[126.408214,44.09988],[126.394216,44.109442],[126.401785,44.13113],[126.418468,44.154364],[126.43214,44.168728],[126.467703,44.197577],[126.481863,44.212714],[126.493663,44.23078],[126.469493,44.242458],[126.455577,44.262274],[126.457286,44.283474],[126.47991,44.29914],[126.467296,44.314521],[126.458425,44.332099],[126.455984,44.349392],[126.46282,44.363959],[126.469819,44.37519],[126.472667,44.387315],[126.47405,44.398139],[126.476492,44.405219],[126.478038,44.414252],[126.468354,44.4206],[126.445811,44.428778],[126.442475,44.429023],[126.437511,44.428575],[126.43157,44.429958],[126.425304,44.435614],[126.427419,44.436957],[126.429779,44.443386],[126.431651,44.451117],[126.43214,44.456122],[126.430186,44.461249],[126.427419,44.465399],[126.425548,44.469997],[126.425304,44.47663],[126.43214,44.493964],[126.432384,44.508083],[126.431163,44.51203],[126.42628,44.513943],[126.41505,44.521918],[126.408946,44.530544],[126.403738,44.549872],[126.39796,44.55976],[126.38323,44.568956],[126.365164,44.575222],[126.349864,44.584784],[126.337332,44.618516],[126.288829,44.668402],[126.268321,44.696357],[126.22755,44.704535],[126.22047,44.706855],[126.214773,44.713446],[126.201427,44.716376],[126.175548,44.716824],[126.161143,44.720811],[126.160655,44.730414],[126.16505,44.741889],[126.165945,44.751573],[126.135753,44.773057],[126.084239,44.785183],[126.028738,44.788845],[125.98642,44.785102],[125.940684,44.773464],[125.920421,44.778388],[125.911794,44.802436],[125.901947,44.817491],[125.878673,44.831732],[125.851085,44.842475],[125.828868,44.847195],[125.813569,44.845038],[125.805593,44.846706],[125.794688,44.8546],[125.786225,44.864447],[125.772472,44.88703],[125.741628,44.92418],[125.728445,44.934597],[125.706554,44.943386],[125.682872,44.949286],[125.670339,44.950629],[125.658132,44.94953],[125.648936,44.943956],[125.634288,44.926093],[125.616791,44.917996],[125.59669,44.899237],[125.586192,44.894965],[125.534597,44.888129],[125.493663,44.888129],[125.480561,44.890163],[125.452078,44.899115],[125.438731,44.90115],[125.429454,44.899848],[125.419363,44.896308],[125.409679,44.891181],[125.401134,44.884711],[125.393077,44.882758],[125.368175,44.887478],[125.356456,44.888129],[125.345225,44.884792],[125.33782,44.879462],[125.330984,44.873236],[125.321707,44.867621],[125.310151,44.864529],[125.2671,44.86876],[125.247976,44.873887],[125.236339,44.875067],[125.224539,44.872748],[125.212006,44.868109],[125.198822,44.86518],[125.185151,44.867621],[125.149018,44.930487],[125.14088,44.939968],[125.099701,44.943386],[125.09433,44.948676],[125.075857,44.98371],[125.046153,45.017849],[125.009939,45.043647],[124.931814,45.087348],[124.917084,45.098741],[124.87322,45.145372],[124.863699,45.152655],[124.85377,45.156277],[124.828217,45.161811],[124.816824,45.166368],[124.787852,45.182318],[124.741303,45.201687],[124.729747,45.217637],[124.725841,45.247748],[124.727143,45.252143],[124.730154,45.25788],[124.733653,45.262763],[124.736095,45.264919],[124.740815,45.267849],[124.739024,45.274482],[124.732595,45.285346],[124.726329,45.308214],[124.725841,45.318061],[124.732595,45.326361],[124.722179,45.339464],[124.687999,45.371039],[124.678315,45.386257],[124.668956,45.419989],[124.651296,45.447943]],[[127.376069,42.56745],[127.34905,42.580349],[127.337006,42.595893],[127.331391,42.610541],[127.316987,42.627509],[127.298106,42.637397],[127.278819,42.630683],[127.262706,42.614814],[127.249604,42.605333],[127.233979,42.600775],[127.210134,42.599636],[127.194021,42.605333],[127.192882,42.618964],[127.199474,42.634792],[127.206716,42.647406],[127.228038,42.674669],[127.232188,42.688056],[127.227143,42.708848],[127.218272,42.725531],[127.199718,42.749945],[127.193126,42.763495],[127.185313,42.820624],[127.179454,42.832384],[127.195323,42.84455],[127.207937,42.856716],[127.218191,42.870388],[127.227143,42.88703],[127.165538,42.928534],[127.141531,42.93476],[127.134939,42.938015],[127.113455,42.952094],[127.087169,42.958604],[127.0796,42.966498],[127.074799,42.975531],[127.069591,42.982611],[126.990733,43.034125],[126.987804,43.042344],[126.986908,43.066921],[126.983897,43.071967],[126.975841,43.07685],[126.970225,43.088446],[126.968761,43.10224],[126.973399,43.113593],[126.932384,43.113593],[126.949799,43.128201],[126.991222,43.14529],[127.00058,43.161322],[126.996349,43.179714],[126.986257,43.19538],[126.97991,43.212836],[126.987071,43.236518],[127.000906,43.247382],[127.021007,43.249701],[127.097992,43.242458],[127.116466,43.248643],[127.152192,43.278022],[127.135671,43.277289],[127.120372,43.280707],[127.107351,43.287787],[127.096934,43.297919],[127.088634,43.310329],[127.086925,43.318874],[127.090017,43.327175],[127.096934,43.338894],[127.130951,43.373603],[127.125255,43.380683],[127.111501,43.384833],[127.018077,43.39411],[127.004975,43.400499],[126.987641,43.428656],[126.977061,43.435085],[126.962983,43.439399],[126.931814,43.458686],[126.92213,43.462999],[126.914806,43.468614],[126.90504,43.51081]]]}},{"type":"Feature","properties":{"kind":"rivers","name":"Yalu","source":"Natural Earth 1:10m"},"geometry":{"type":"MultiLineString","coordinates":[[[128.090587,41.917507],[128.094005,41.901719],[128.099701,41.888861],[128.100841,41.8758],[128.090587,41.859158],[128.09075,41.841986],[128.096609,41.822821],[128.144054,41.754991],[128.154552,41.733954],[128.158783,41.712022],[128.185639,41.693183],[128.223888,41.669704],[128.25058,41.660427],[128.268647,41.643622],[128.281261,41.623236],[128.283132,41.605292],[128.302745,41.583686],[128.287364,41.544949],[128.185313,41.404731],[128.145925,41.376532],[128.103608,41.37934],[128.117931,41.393622],[128.103608,41.399848],[128.087901,41.389187],[128.063975,41.388617],[128.046479,41.398993],[128.050222,41.420966],[128.033295,41.413926],[128.023529,41.411729],[128.014903,41.41352],[128.011322,41.424628],[128.01295,41.442572],[128.012218,41.460313],[128.001231,41.471055],[127.992442,41.461371],[127.984304,41.45421],[127.973888,41.450629],[127.943858,41.471055],[127.903331,41.466498],[127.881277,41.461127],[127.871511,41.453966],[127.864757,41.437608],[127.848562,41.431586],[127.828543,41.434149],[127.810069,41.443793],[127.784434,41.43712],[127.689952,41.439154],[127.662364,41.447211],[127.657725,41.446804],[127.646658,41.433173],[127.638194,41.430121],[127.630382,41.433051],[127.597097,41.450629],[127.558604,41.458523],[127.544444,41.469062],[127.542491,41.491523],[127.525401,41.484565],[127.508067,41.488349],[127.490733,41.495632],[127.473643,41.49905],[127.456716,41.494981],[127.4428,41.488308],[127.427257,41.483344],[127.404796,41.484727],[127.400971,41.487087],[127.395518,41.491563],[127.388194,41.496283],[127.378673,41.49905],[127.370942,41.498318],[127.353526,41.492947],[127.343842,41.491523],[127.304779,41.4949],[127.286062,41.499213],[127.268891,41.505194],[127.274913,41.507595],[127.283295,41.512397],[127.28948,41.518826],[127.288666,41.525702],[127.281261,41.531317],[127.274425,41.530707],[127.2671,41.527533],[127.257823,41.525702],[127.244151,41.528266],[127.22169,41.541042],[127.206716,41.54621],[127.200125,41.542304],[127.187022,41.521674],[127.179454,41.517157],[127.174083,41.519477],[127.170095,41.524115],[127.164806,41.528754],[127.155528,41.530829],[127.1421,41.524115],[127.134369,41.522284],[127.12794,41.531806],[127.120616,41.53502],[127.111827,41.536933],[127.10434,41.537665],[127.117686,41.556016],[127.136241,41.569444],[127.157481,41.578884],[127.179454,41.585395],[127.165701,41.595242],[127.113699,41.610663],[127.096934,41.612738],[127.101573,41.622585],[127.10434,41.62641],[127.073822,41.635932],[127.058686,41.643581],[127.049083,41.653673],[127.045014,41.66824],[127.048595,41.678005],[127.059255,41.682481],[127.076427,41.681016],[127.067963,41.693874],[127.046479,41.71955],[127.042247,41.732856],[127.032725,41.731879],[126.980886,41.763536],[126.958344,41.767035],[126.945811,41.766425],[126.94044,41.771999],[126.939138,41.794013],[126.929617,41.801337],[126.908214,41.796413],[126.886811,41.785183],[126.877208,41.77379],[126.86435,41.747504],[126.808523,41.730048],[126.795828,41.705268],[126.788178,41.696153],[126.771088,41.704779],[126.741222,41.729438],[126.72698,41.737169],[126.712169,41.741523],[126.696544,41.741523],[126.679128,41.736274],[126.686941,41.724311],[126.699311,41.716661],[126.713878,41.710232],[126.72755,41.701483],[126.711925,41.694444],[126.679779,41.672146],[126.668956,41.667344],[126.633718,41.668891],[126.617605,41.666205],[126.601654,41.642279],[126.566824,41.614325],[126.566173,41.602159],[126.576915,41.588487],[126.580496,41.575466],[126.576915,41.562038],[126.558442,41.534369],[126.542003,41.489203],[126.507253,41.447455],[126.500987,41.434638],[126.507823,41.409451],[126.521902,41.377794],[126.521983,41.35224],[126.487397,41.344591],[126.487397,41.352078],[126.493582,41.355048],[126.496186,41.358262],[126.497976,41.362006],[126.500987,41.366278],[126.472179,41.366726],[126.440684,41.34866],[126.391124,41.303656],[126.380382,41.291083],[126.356944,41.24962],[126.345795,41.23786],[126.320811,41.219102],[126.309174,41.208075],[126.284109,41.164374],[126.274425,41.152777],[126.260509,41.143378],[126.147065,41.092475],[126.123546,41.075751],[126.137787,41.057237],[126.126069,41.043402],[126.111095,41.032742],[126.101003,41.022284],[126.10377,41.009467],[126.093191,41.006456],[126.083507,41.002753],[126.07545,40.997341],[126.069021,40.989569],[126.071544,40.980821],[126.065684,40.968858],[126.045095,40.944892],[126.02825,40.935492],[126.009044,40.932929],[125.991791,40.928575],[125.980154,40.913845],[125.996186,40.915147],[126.009532,40.91413],[126.014903,40.909369],[126.007498,40.899604],[125.994721,40.894355],[125.963878,40.891547],[125.949229,40.882839],[125.935964,40.877631],[125.923595,40.884304],[125.912039,40.894355],[125.901134,40.899604],[125.884858,40.897732],[125.872488,40.89293],[125.831391,40.871039],[125.821707,40.86994],[125.778819,40.884833],[125.770518,40.88642],[125.760509,40.885932],[125.754487,40.881903],[125.750499,40.874945],[125.745372,40.868354],[125.736501,40.865424],[125.706065,40.860663],[125.682872,40.848212],[125.64446,40.810818],[125.672944,40.784369],[125.682384,40.76911],[125.668386,40.762397],[125.609793,40.761501],[125.607921,40.76435],[125.600108,40.772976],[125.586192,40.782091],[125.571544,40.785102],[125.559825,40.778632],[125.555105,40.758979],[125.553152,40.737372],[125.546316,40.726142],[125.532725,40.722032],[125.491466,40.721218],[125.478526,40.719021],[125.468761,40.713162],[125.459483,40.701606],[125.456554,40.693915],[125.456065,40.679958],[125.452647,40.673651],[125.44337,40.669013],[125.425955,40.671454],[125.418468,40.666815],[125.414643,40.652167],[125.416921,40.639512],[125.413015,40.632025],[125.390636,40.632636],[125.384288,40.635321],[125.372162,40.644151],[125.363292,40.646918],[125.355724,40.646308],[125.336436,40.641384]],[[124.959239,40.453925],[124.935069,40.455837],[124.92571,40.458116],[124.917654,40.461371],[124.914968,40.466132],[124.905284,40.476752],[124.895112,40.483913],[124.890229,40.478095],[124.883474,40.465766],[124.849539,40.43183],[124.800548,40.394314],[124.779552,40.383734],[124.756602,40.379462],[124.740815,40.370551],[124.730968,40.349962],[124.722992,40.326972],[124.712169,40.310492],[124.692556,40.303046],[124.642182,40.294501],[124.626882,40.286322],[124.61085,40.272406],[124.570567,40.252631],[124.554454,40.241645],[124.551524,40.236396],[124.549897,40.224962],[124.54835,40.221137],[124.542898,40.217841],[124.531993,40.216254],[124.527843,40.214382],[124.385265,40.110663],[124.370209,40.098253]]]}},{"type":"Feature","properties":{"kind":"rivers","name":"Tao’er","source":"Natural Earth 1:10m"},"geometry":{"type":"MultiLineString","coordinates":[[[123.835134,45.724189],[123.845632,45.718573],[123.860444,45.708686],[123.882335,45.706977],[123.903819,45.716132],[123.937918,45.724066],[123.967296,45.727322],[123.992117,45.721869],[124.014415,45.71365],[124.038015,45.709906]]]}},{"type":"Feature","properties":{"kind":"rivers","name":"Tao’er","source":"Natural Earth 1:10m"},"geometry":{"type":"MultiLineString","coordinates":[[[120.165294,46.995673],[120.181814,46.982937],[120.217459,46.962185],[120.232432,46.947537],[120.244884,46.923611],[120.250499,46.898057],[120.250011,46.845242],[120.263438,46.797878],[120.30421,46.781684],[120.406993,46.784857],[120.428152,46.78144],[120.441498,46.773383],[120.467459,46.750067],[120.514903,46.732856],[120.561615,46.736884],[120.608653,46.749091],[120.655935,46.75613],[120.679861,46.74962],[120.724701,46.721015],[120.747813,46.714545],[120.847179,46.700873],[120.95045,46.698513],[120.998546,46.690375],[121.076427,46.661404],[121.105479,46.655219],[121.199799,46.651679],[121.231456,46.646267],[121.258311,46.634141],[121.271983,46.631944],[121.285818,46.63878]],[[121.285818,46.631944],[121.299571,46.616156],[121.314708,46.612413],[121.330984,46.61164],[121.347341,46.604682],[121.355072,46.592393],[121.358897,46.574571],[121.358653,46.55622],[121.35434,46.542548],[121.370535,46.530097],[121.384288,46.514472],[121.399425,46.501085],[121.419444,46.495429],[121.424734,46.492133],[121.441417,46.477607],[121.447032,46.474311],[121.457042,46.472683],[121.565929,46.433661],[121.591075,46.429877],[121.615733,46.433173],[121.626964,46.432563],[121.679861,46.409735],[121.690033,46.402615],[121.695404,46.395372],[121.71046,46.368476],[121.758474,46.332221],[121.779877,46.324083],[121.803396,46.320095],[121.873953,46.320136],[121.92099,46.313178],[121.963959,46.299384],[121.997976,46.27912],[122.031261,46.248358],[122.046641,46.228095],[122.058442,46.184516],[122.0713,46.16828],[122.087332,46.153754],[122.101573,46.135688],[122.100841,46.124864],[122.101573,46.121405],[122.107839,46.107774],[122.121511,46.091335],[122.12672,46.082628],[122.132091,46.044949],[122.141694,46.030707],[122.211029,45.989366],[122.237071,45.964708],[122.293549,45.883246],[122.310802,45.868109],[122.332123,45.8581],[122.35849,45.854519],[122.377452,45.847724],[122.384532,45.831122],[122.38795,45.810818],[122.395112,45.792426],[122.423106,45.765163],[122.425304,45.758002],[122.429454,45.736599],[122.433604,45.727891],[122.445242,45.710232],[122.470876,45.6553],[122.529796,45.551459],[122.560313,45.52558],[122.600352,45.504218],[122.620535,45.489447],[122.629242,45.474066],[122.635265,45.47016],[122.663992,45.464138],[122.673595,45.460395],[122.679698,45.452663],[122.685802,45.437079],[122.690684,45.429999],[122.724701,45.408881],[122.752615,45.398993],[122.78476,45.377305],[122.805919,45.370917],[122.828543,45.370714],[122.882742,45.376288],[122.919688,45.364447],[122.94752,45.361111],[122.970714,45.362901],[123.058116,45.38935],[123.068777,45.393988],[123.111339,45.419745],[123.145844,45.448188],[123.149913,45.453884],[123.148448,45.486884],[123.149913,45.498236],[123.160574,45.519639],[123.214773,45.562812],[123.226492,45.578315],[123.233165,45.58454],[123.242442,45.586982],[123.245128,45.589057],[123.248464,45.59394],[123.251069,45.599677],[123.252371,45.604438],[123.254893,45.608669],[123.260916,45.608344],[123.267996,45.607001],[123.273448,45.6081],[123.320567,45.66002],[123.328054,45.672675],[123.337901,45.681464],[123.403819,45.696845],[123.474864,45.728542],[123.511729,45.736884],[123.651785,45.72309],[123.683686,45.724189],[123.727143,45.731147],[123.748627,45.731635],[123.766775,45.724189],[123.783214,45.731147],[123.799897,45.730577],[123.835134,45.724189]],[[124.038015,45.709906],[124.087901,45.717841]]]}},{"type":"Feature","properties":{"kind":"rivers","name":"Daling","source":"Natural Earth 1:10m"},"geometry":{"type":"MultiLineString","coordinates":[[[118.978933,41.134101],[119.033214,41.149604],[119.166026,41.157538],[119.177175,41.155137],[119.188894,41.150946],[119.20045,41.149197],[119.211029,41.153754],[119.218761,41.163682],[119.227306,41.183295],[119.234874,41.191677],[119.240326,41.193712],[119.255463,41.195624],[119.262218,41.197821],[119.266043,41.200954],[119.274669,41.210313],[119.27589,41.212104],[119.317556,41.217231],[119.344249,41.230658],[119.369151,41.234158],[119.39446,41.232245],[119.413097,41.225165],[119.417898,41.217963],[119.422944,41.19831],[119.426768,41.191677],[119.435069,41.186876],[119.445079,41.18476],[119.482921,41.183051],[119.49407,41.180487],[119.504405,41.178331],[119.515717,41.177354],[119.529552,41.174262],[119.538992,41.166693],[119.54713,41.15766],[119.55714,41.15001],[119.590424,41.141059],[119.610037,41.138373],[119.621186,41.139838],[119.63087,41.146023],[119.66269,41.160956],[119.672455,41.163682],[119.684988,41.157782],[119.703705,41.134711],[119.717784,41.129584],[119.732432,41.127387],[119.762787,41.117499],[119.779307,41.115302],[119.791515,41.121405],[119.823985,41.157538],[119.850515,41.173448],[119.861257,41.182685],[119.865652,41.19477],[119.871104,41.204657],[119.884532,41.211778],[119.900401,41.218044],[119.913259,41.225165],[119.914806,41.231472],[119.912608,41.249335],[119.91684,41.253119],[119.924897,41.254462],[119.933197,41.258002],[119.947358,41.26671],[119.939952,41.281317],[119.9428,41.293891],[119.951427,41.304958],[119.994314,41.342882],[119.999034,41.34809],[120.077729,41.394843],[120.091563,41.40705],[120.107921,41.412543],[120.20753,41.430609],[120.269216,41.426947],[120.29892,41.431749],[120.296886,41.451728],[120.337169,41.468573],[120.376964,41.492296],[120.41269,41.519232],[120.440929,41.545681],[120.444916,41.547431],[120.456065,41.548285],[120.461436,41.551866],[120.462413,41.556179],[120.460704,41.567735],[120.461436,41.572333],[120.469005,41.593858],[120.47462,41.602851],[120.485362,41.606513],[120.505056,41.609809],[120.54835,41.624294],[120.5713,41.62755],[120.646414,41.606553],[120.664073,41.610216],[120.670339,41.615912],[120.69101,41.630683],[120.715017,41.654975],[120.722667,41.66116],[120.854503,41.736274],[120.878429,41.745673],[120.898936,41.749579],[120.946788,41.749864],[120.975597,41.744086],[120.985037,41.728583],[120.988455,41.70657],[120.998627,41.681016],[121.014171,41.661322],[121.056244,41.622992],[121.062266,41.613227],[121.064708,41.60574],[121.069916,41.600857],[121.083914,41.599066],[121.098725,41.595323],[121.099539,41.586208],[121.095144,41.574774],[121.094249,41.564317],[121.110037,41.544013],[121.125418,41.548651],[121.1421,41.560329],[121.162527,41.561225],[121.175222,41.558946],[121.204031,41.559149],[121.214366,41.554389],[121.223155,41.548163],[121.247651,41.540107],[121.283295,41.533515],[121.35434,41.530829],[121.366222,41.528673],[121.385753,41.519314],[121.3921,41.517157],[121.39503,41.512274],[121.418224,41.491889],[121.422455,41.489203],[121.431407,41.467963],[121.432546,41.446601],[121.42628,41.426825],[121.412608,41.410427],[121.403087,41.393093],[121.396658,41.344672],[121.388438,41.324774],[121.372569,41.312852],[121.354747,41.303778],[121.339854,41.290635],[121.333751,41.266425],[121.335948,41.240587],[121.342703,41.223171],[121.353526,41.20954],[121.367931,41.195014],[121.402599,41.135362],[121.445242,41.114569],[121.482514,41.1081],[121.495209,41.103542],[121.505056,41.098212],[121.600597,41.010281],[121.606049,41.001736],[121.611501,40.979031],[121.619721,40.97309],[121.629242,40.969265],[121.635916,40.961615],[121.634939,40.932563],[121.616303,40.900255],[121.588634,40.869574],[121.565033,40.8487]]]}},{"type":"Feature","properties":{"kind":"rivers","name":"Erdao","source":"Natural Earth 1:10m"},"geometry":{"type":"MultiLineString","coordinates":[[[128.111095,42.170722],[128.107432,42.185736],[128.089122,42.23253],[128.080333,42.246446],[128.076589,42.25434],[128.075694,42.265815],[128.076915,42.287787],[128.055919,42.318427],[128.071544,42.336493],[128.086925,42.360134],[128.098888,42.386094],[128.112885,42.465115],[128.124929,42.491523],[128.1421,42.502794],[128.164968,42.511542],[128.179779,42.532538],[128.183686,42.557685],[128.173269,42.579169],[128.144542,42.592637],[128.117686,42.587714],[128.090994,42.576606],[128.063406,42.571723],[128.079519,42.606635],[128.085704,42.627021],[128.080333,42.643988],[128.066987,42.644599],[128.026378,42.625312],[128.011485,42.620144],[128.001475,42.622585],[127.996755,42.628363],[127.993337,42.635118],[127.987641,42.64057],[127.979015,42.643175],[127.954112,42.647406],[127.930675,42.663398],[127.919932,42.667914],[127.90919,42.668036],[127.898936,42.665229],[127.888682,42.663764],[127.878347,42.667914],[127.883474,42.673529],[127.886729,42.678738],[127.888927,42.683702],[127.892019,42.688422],[127.871593,42.690701],[127.857188,42.700385],[127.846446,42.714301],[127.837413,42.729356],[127.846772,42.728461],[127.855724,42.725938],[127.86378,42.721951],[127.871511,42.716335],[127.867198,42.730984],[127.859304,42.744167],[127.848074,42.753607],[127.833995,42.75727],[127.834972,42.763292],[127.824311,42.776801],[127.802419,42.798285],[127.783214,42.812323],[127.770274,42.816962],[127.751475,42.818712],[127.733409,42.818427],[127.716563,42.815497],[127.70753,42.807237],[127.713796,42.790839],[127.698009,42.778673],[127.66155,42.760688],[127.645518,42.749823],[127.605561,42.702948],[127.535655,42.64057],[127.491303,42.632392],[127.474539,42.624213],[127.480479,42.606472],[127.471609,42.602118],[127.42213,42.561794],[127.40504,42.560329],[127.376069,42.56745]]]}},{"type":"Feature","properties":{"kind":"rivers","name":"Di’er Songhua","source":"Natural Earth 1:10m"},"geometry":{"type":"MultiLineString","coordinates":[[[123.465831,46.834581],[123.476654,46.823676],[123.489187,46.817206],[123.503998,46.814276],[123.52296,46.813503],[123.54184,46.815782],[123.548106,46.822455],[123.549815,46.83336],[123.553966,46.848253],[123.562999,46.86518],[123.570404,46.873236],[123.579112,46.875556],[123.591563,46.875556],[123.593761,46.869208],[123.613048,46.84101],[123.612315,46.834581],[123.604747,46.832058],[123.599294,46.825751],[123.595876,46.817735],[123.5949,46.810085],[123.598399,46.806749],[123.655935,46.806098],[123.671153,46.800238],[123.677419,46.783067],[123.685069,46.784857],[123.701752,46.775702],[123.751882,46.738471],[123.773692,46.717312],[123.766612,46.703803],[123.762218,46.690253],[123.759939,46.675808],[123.759044,46.63935],[123.759369,46.635321],[123.762543,46.628119],[123.771658,46.615058],[123.773692,46.611151],[123.776378,46.59455],[123.78297,46.587104],[123.79184,46.582343],[123.800955,46.57392],[123.810476,46.555365],[123.808442,46.544013],[123.787364,46.519314],[123.803233,46.497911],[123.836355,46.425157],[123.852143,46.409451],[123.855154,46.402208],[123.842052,46.357611],[123.846772,46.342231],[123.854015,46.326117],[123.853608,46.312771],[123.842052,46.305732],[123.872651,46.303168],[123.884776,46.297146],[123.895274,46.26907],[123.907237,46.266669],[123.919037,46.272284],[123.924571,46.282782],[123.926768,46.28616],[123.932546,46.28974],[123.939138,46.292507],[123.945079,46.293321],[123.954031,46.292304],[123.956472,46.290635],[123.956554,46.286811],[123.958588,46.27912],[123.959565,46.267849],[123.957286,46.25434],[123.957286,46.239325],[123.965424,46.223822],[123.956635,46.209744],[123.958344,46.192572],[123.965343,46.175645],[123.972992,46.162421],[123.976085,46.161241],[123.980398,46.162421],[123.984304,46.162869],[123.985932,46.159288],[123.985606,46.148261],[123.986501,46.143134],[123.993175,46.133002],[123.99822,46.122423],[124.000906,46.112331],[123.996186,46.107774],[123.996349,46.098171],[124.001475,46.077012],[124.010916,46.055976],[124.023936,46.046332],[124.034679,46.042751],[124.038666,46.034369],[124.037527,46.02501],[124.033783,46.018378],[124.02239,46.014228],[124.011322,46.016547],[124.001394,46.016547],[123.992768,46.005398],[124.006358,45.996283],[124.000987,45.989325],[123.988292,45.983466],[123.979096,45.978054],[123.973725,45.964952],[123.972667,45.95185],[123.974864,45.939765],[123.979096,45.929633],[123.997569,45.914618],[124.05071,45.888739],[124.061697,45.871649],[124.058523,45.856757],[124.044444,45.841254],[124.04127,45.830349],[124.046153,45.820868],[124.054861,45.815497],[124.059581,45.808946],[124.051199,45.796169],[124.040294,45.790351],[124.027843,45.787218],[124.017589,45.781684],[124.013276,45.768581],[124.021658,45.762519],[124.061453,45.74787],[124.074718,45.744656],[124.070242,45.739122],[124.067882,45.735541],[124.063975,45.733181],[124.054861,45.731635],[124.087901,45.717841],[124.102794,45.709581],[124.116222,45.696845],[124.119151,45.690253],[124.12379,45.672553],[124.125987,45.668972],[124.146088,45.668524],[124.155284,45.666693],[124.164806,45.662706],[124.147878,45.647162],[124.140717,45.632107],[124.148936,45.622138],[124.177745,45.621772],[124.199636,45.629462],[124.214692,45.637763],[124.223399,45.635443],[124.226085,45.611192],[124.233328,45.601915],[124.261648,45.589952],[124.263438,45.58393],[124.261322,45.574327],[124.266043,45.561469],[124.274506,45.550238],[124.283946,45.545437],[124.332042,45.547146],[124.352061,45.541775],[124.362804,45.52558],[124.36085,45.521593],[124.351329,45.510443],[124.349132,45.504462],[124.350108,45.498481],[124.352306,45.494493],[124.355968,45.49079],[124.358165,45.481472],[124.361501,45.472764],[124.367117,45.464789],[124.376475,45.457302],[124.395274,45.451361],[124.414236,45.454291],[124.434093,45.460232],[124.455496,45.463446],[124.477143,45.456],[124.502533,45.423163],[124.524099,45.415635],[124.549246,45.414374],[124.562918,45.415147],[124.572195,45.419135],[124.577566,45.429633],[124.577403,45.439805],[124.578705,45.449246],[124.589366,45.457302],[124.611501,45.447821],[124.631114,45.446397],[124.674571,45.450466]]]}}]}