{"type":"FeatureCollection","features":[{"type":"Feature","properties":{"kind":"lakes","name":null,"source":"Natural Earth 1:10m"},"geometry":{"type":"Polygon","coordinates":[[[120.848106,31.413182],[120.860763,31.429077],[120.865473,31.40229],[120.862824,31.392282],[120.850755,31.388161],[120.843396,31.387278],[120.826617,31.38139],[120.820141,31.380802],[120.807483,31.381979],[120.757441,31.375797],[120.750965,31.378152],[120.754792,31.389927],[120.764506,31.39552],[120.775986,31.399641],[120.785112,31.408766],[120.764506,31.406117],[120.747727,31.396992],[120.717408,31.375209],[120.680318,31.361962],[120.641462,31.354014],[120.641462,31.361374],[120.650587,31.362257],[120.657063,31.364612],[120.662362,31.367555],[120.682084,31.379035],[120.690326,31.38139],[120.684439,31.392282],[120.685322,31.401701],[120.69121,31.410238],[120.700335,31.419069],[120.706222,31.427605],[120.712109,31.447917],[120.717408,31.457042],[120.737425,31.470877],[120.748905,31.464107],[120.749199,31.445267],[120.737425,31.422307],[120.724178,31.406117],[120.716525,31.394342],[120.719174,31.393165],[120.775692,31.443795],[120.783345,31.463224],[120.765389,31.477353],[120.777458,31.48324],[120.79041,31.48324],[120.813076,31.477353],[120.8066,31.467345],[120.802774,31.457336],[120.802185,31.447328],[120.805423,31.436436],[120.816903,31.459397],[120.823379,31.468522],[120.833387,31.477353],[120.829561,31.459102],[120.836331,31.426722],[120.833387,31.40229],[120.84163,31.407294],[120.848106,31.413182]]]}},{"type":"Feature","properties":{"kind":"rivers","name":null,"source":"Natural Earth 1:10m"},"geometry":{"type":"MultiLineString","coordinates":[[[120.587006,31.128038],[120.594737,31.140815],[120.608653,31.170722],[120.621186,31.183295],[120.635834,31.19005],[120.677419,31.20128],[120.693614,31.203192],[120.725352,31.212022],[120.749115,31.232449],[120.769786,31.255235],[120.792491,31.27143],[120.777924,31.277411],[120.771495,31.278266],[120.782319,31.288926],[120.800792,31.291612],[120.840343,31.292548],[120.869314,31.308946],[120.874522,31.309638],[120.878673,31.31741],[120.88795,31.317694],[120.902354,31.313056],[120.9345,31.326036],[120.948985,31.327704],[121.00587,31.304551],[121.019786,31.305203],[121.038992,31.313056],[121.038829,31.294623],[121.036794,31.286444],[121.032725,31.278266],[121.054861,31.27497],[121.152273,31.278266],[121.164561,31.275458],[121.172293,31.268988],[121.177664,31.262071],[121.182872,31.257839],[121.205089,31.256537],[121.224864,31.261746],[121.243337,31.264187],[121.261729,31.254706],[121.282156,31.24018],[121.302745,31.233832],[121.340587,31.230496],[121.384532,31.218777],[121.406749,31.219062],[121.424571,31.246039],[121.444591,31.247667],[121.492117,31.244167],[121.507823,31.246894],[121.530772,31.25373],[121.551362,31.265163],[121.560313,31.281684],[121.555675,31.308539],[121.544037,31.325385],[121.511811,31.354031],[121.504893,31.362128],[121.500499,31.369818],[121.501882,31.378119],[121.511811,31.388129]]]}}]}