{"type":"FeatureCollection","features":[{"type":"Feature","properties":{"kind":"lakes","name":"洪泽湖","source":"Natural Earth 1:10m"},"geometry":{"type":"Polygon","coordinates":[[[118.668634,33.180838],[118.652149,33.190552],[118.614176,33.172596],[118.603579,33.177895],[118.593276,33.185548],[118.578558,33.183782],[118.573848,33.1776],[118.558247,33.152874],[118.55913,33.142571],[118.564429,33.127558],[118.565312,33.118727],[118.562662,33.10813],[118.556775,33.101949],[118.549416,33.09665],[118.544412,33.087525],[118.545001,33.078399],[118.548827,33.069274],[118.550299,33.058971],[118.544412,33.046608],[118.52469,33.056617],[118.513798,33.044842],[118.499963,33.009224],[118.481124,32.98538],[118.469643,32.979493],[118.426078,32.975666],[118.409593,32.970957],[118.333647,32.937988],[118.319223,32.93681],[118.323344,32.953],[118.315397,32.955944],[118.294791,32.950351],[118.291259,32.947113],[118.290376,32.940048],[118.288315,32.932984],[118.280956,32.93004],[118.27448,32.931806],[118.270065,32.93475],[118.266238,32.936516],[118.260645,32.933278],[118.255935,32.922386],[118.253286,32.89089],[118.250048,32.882059],[118.237979,32.879409],[118.229442,32.887063],[118.224732,32.899132],[118.222966,32.909434],[118.206188,32.900898],[118.190881,32.871167],[118.174691,32.861747],[118.173513,32.877643],[118.168803,32.887652],[118.16321,32.895894],[118.160855,32.906196],[118.167626,32.917971],[118.180872,32.92533],[118.191175,32.934161],[118.18882,32.950351],[118.200006,32.949468],[118.210603,32.950057],[118.220611,32.952706],[118.229148,32.95771],[118.204716,32.971545],[118.150847,33.022765],[118.134951,33.029535],[118.129064,33.017172],[118.126709,32.985086],[118.116112,32.97184],[118.104926,32.968602],[118.093446,32.967424],[118.081966,32.960948],[118.05459,32.926508],[118.041638,32.917382],[118.014851,32.904725],[118.003076,32.895894],[117.992774,32.871756],[117.985709,32.860276],[117.982765,32.864985],[117.98041,32.877054],[117.976584,32.886768],[117.9757,32.895305],[117.982765,32.903253],[117.975406,32.895894],[117.990419,32.91856],[118.051058,32.970957],[118.069603,32.993623],[118.083732,33.017172],[118.100216,33.0366],[118.126709,33.046608],[118.17263,33.034245],[118.242689,32.972428],[118.291259,32.970957],[118.291259,32.977727],[118.255052,32.988618],[118.230914,33.026297],[118.21649,33.073984],[118.205304,33.139922],[118.198534,33.15464],[118.18411,33.16141],[118.157617,33.163176],[118.135246,33.16141],[118.11729,33.156112],[118.085204,33.142276],[118.062243,33.1358],[118.042521,33.134329],[117.923598,33.140805],[117.907408,33.136095],[117.902992,33.121082],[117.907408,33.050435],[117.896811,33.038072],[117.871496,33.028063],[117.84412,33.021293],[117.826163,33.019232],[117.807324,33.023648],[117.78613,33.033656],[117.767585,33.046608],[117.757282,33.060149],[117.837644,33.045431],[117.877088,33.050435],[117.893867,33.087525],[117.89004,33.104598],[117.882093,33.125792],[117.877972,33.147575],[117.884153,33.166709],[117.902109,33.184076],[117.92036,33.193201],[117.940671,33.196734],[117.965692,33.197323],[117.988358,33.195262],[118.031041,33.185254],[118.051058,33.183782],[118.071369,33.190847],[118.100216,33.218222],[118.116406,33.22411],[118.154379,33.227936],[118.173219,33.226759],[118.195002,33.217928],[118.210603,33.206154],[118.21914,33.194379],[118.236507,33.163176],[118.228559,33.11755],[118.237685,33.064859],[118.260056,33.018349],[118.291259,32.991268],[118.315691,32.983909],[118.343067,32.979493],[118.369854,32.979199],[118.394286,32.985086],[118.415186,33.000099],[118.43903,33.039838],[118.456397,33.060149],[118.43432,33.044548],[118.403117,33.031301],[118.368971,33.025708],[118.338946,33.032479],[118.356902,33.045431],[118.382806,33.058971],[118.410182,33.069569],[118.456986,33.081343],[118.472293,33.095767],[118.469643,33.10607],[118.442562,33.10136],[118.485245,33.137567],[118.490543,33.149636],[118.48289,33.16612],[118.467583,33.171713],[118.43167,33.170241],[118.427255,33.167886],[118.421073,33.162882],[118.413714,33.158172],[118.404883,33.155817],[118.393697,33.1567],[118.313925,33.178778],[118.287138,33.195262],[118.248576,33.201149],[118.23268,33.20792],[118.222378,33.224404],[118.223555,33.242655],[118.228265,33.2612],[118.229148,33.280039],[118.225321,33.288281],[118.213252,33.304765],[118.209131,33.313596],[118.207954,33.322722],[118.209131,33.352158],[118.205599,33.372469],[118.199123,33.389248],[118.197945,33.405144],[118.209131,33.423394],[118.210014,33.394547],[118.231208,33.348331],[118.241511,33.291225],[118.255052,33.269147],[118.276541,33.253252],[118.3048,33.238534],[118.320401,33.265615],[118.330704,33.275918],[118.36014,33.285337],[118.380451,33.308298],[118.397819,33.313596],[118.409004,33.327432],[118.396641,33.389542],[118.411654,33.403377],[118.426078,33.401317],[118.436086,33.396901],[118.445506,33.394252],[118.456397,33.396607],[118.4667,33.407793],[118.470527,33.422217],[118.472293,33.435758],[118.476708,33.444588],[118.488777,33.445766],[118.494664,33.433991],[118.496725,33.403377],[118.492604,33.390425],[118.487305,33.380123],[118.489955,33.373058],[118.510266,33.368937],[118.518214,33.385127],[118.537347,33.391603],[118.556775,33.387776],[118.575026,33.357751],[118.595926,33.350981],[118.618886,33.353924],[118.633899,33.368937],[118.615354,33.370409],[118.603873,33.380417],[118.595337,33.393369],[118.585917,33.403377],[118.579736,33.406027],[118.542057,33.412503],[118.539996,33.419273],[118.542351,33.427515],[118.54088,33.433991],[118.518214,33.458129],[118.496725,33.48786],[118.479652,33.520829],[118.469938,33.553798],[118.461696,33.618852],[118.46199,33.630332],[118.469055,33.639457],[118.548239,33.650055],[118.558541,33.652704],[118.562074,33.657414],[118.564723,33.658297],[118.572377,33.650055],[118.575026,33.64299],[118.575026,33.62886],[118.578558,33.622679],[118.56384,33.606783],[118.558247,33.602073],[118.576792,33.603545],[118.583268,33.596186],[118.582385,33.583234],[118.578558,33.567338],[118.606817,33.577935],[118.615648,33.563217],[118.612999,33.537019],[118.606523,33.512881],[118.622124,33.507877],[118.619475,33.49463],[118.610055,33.474908],[118.606523,33.451359],[118.613293,33.451359],[118.618003,33.474025],[118.633016,33.477557],[118.668045,33.4649],[118.781669,33.44606],[118.793738,33.43929],[118.811989,33.409853],[118.819937,33.399551],[118.82759,33.393369],[118.845841,33.382478],[118.867035,33.373352],[118.876749,33.367465],[118.88087,33.358928],[118.874983,33.345976],[118.861442,33.328609],[118.846135,33.313302],[118.836127,33.306826],[118.830828,33.296523],[118.821114,33.249131],[118.815816,33.235001],[118.78844,33.214984],[118.784613,33.20792],[118.78373,33.199383],[118.778137,33.174362],[118.774605,33.166709],[118.75812,33.148458],[118.744285,33.129619],[118.738104,33.109602],[118.743696,33.087525],[118.72368,33.083992],[118.701014,33.084581],[118.685707,33.079871],[118.688356,33.060149],[118.668045,33.076633],[118.660686,33.105775],[118.669222,33.132562],[118.695715,33.142276],[118.695715,33.149636],[118.668634,33.180838]]]}},{"type":"Feature","properties":{"kind":"lakes","name":"鄱阳湖","source":"Natural Earth 1:10m"},"geometry":{"type":"Polygon","coordinates":[[[116.677555,29.173365],[116.688446,29.168066],[116.715233,29.137158],[116.715233,29.097125],[116.70758,29.082995],[116.688446,29.07858],[116.690801,29.091826],[116.689918,29.112137],[116.684325,29.127739],[116.656655,29.12715],[116.645763,29.112726],[116.637227,29.091826],[116.6334,29.072398],[116.625747,29.074164],[116.622803,29.075636],[116.618976,29.07858],[116.623686,29.086233],[116.62663,29.094475],[116.627513,29.103601],[116.626335,29.113315],[116.623686,29.120968],[116.619271,29.130682],[116.615444,29.135686],[116.607202,29.117436],[116.593072,29.12244],[116.576588,29.13392],[116.564519,29.140691],[116.556865,29.137158],[116.543325,29.12244],[116.537143,29.119496],[116.529784,29.123617],[116.523308,29.132154],[116.518598,29.142457],[116.516537,29.151288],[116.506823,29.160707],[116.48769,29.159824],[116.47621,29.152171],[116.488573,29.140691],[116.483274,29.124501],[116.492694,29.112137],[116.508295,29.103601],[116.523308,29.099774],[116.516537,29.085939],[116.53155,29.079757],[116.537143,29.07858],[116.537143,29.072398],[116.512416,29.069749],[116.485629,29.0462],[116.461197,29.051204],[116.459725,29.036486],[116.461197,29.024417],[116.468556,29.017058],[116.482391,29.017058],[116.480036,28.998807],[116.48975,28.983794],[116.504174,28.970254],[116.516537,28.95583],[116.52213,28.940523],[116.522425,28.924627],[116.518009,28.909026],[116.509178,28.894308],[116.52478,28.890481],[116.535377,28.895485],[116.544796,28.898135],[116.558043,28.886654],[116.550684,28.880473],[116.558043,28.873702],[116.541264,28.866049],[116.533905,28.861045],[116.530961,28.856335],[116.533022,28.845738],[116.541264,28.830725],[116.543325,28.825427],[116.54097,28.812769],[116.535082,28.796579],[116.526546,28.782449],[116.516537,28.776856],[116.523308,28.790692],[116.518892,28.791575],[116.515654,28.792752],[116.513005,28.794518],[116.509178,28.798051],[116.481508,28.79128],[116.472088,28.790692],[116.46208,28.794224],[116.456487,28.803055],[116.453249,28.814535],[116.448245,28.825427],[116.438531,28.836024],[116.429994,28.842794],[116.423224,28.850153],[116.420869,28.862811],[116.424107,28.874291],[116.432349,28.882828],[116.454721,28.894308],[116.426168,28.899606],[116.404973,28.874291],[116.388489,28.840145],[116.372593,28.818362],[116.365823,28.825427],[116.371416,28.83308],[116.39261,28.877823],[116.419103,28.917563],[116.424696,28.929926],[116.427934,28.943172],[116.427345,28.95583],[116.420575,28.966133],[116.413804,28.961423],[116.4088,28.948765],[116.40674,28.935224],[116.397614,28.940523],[116.393199,28.938462],[116.386134,28.921389],[116.3879,28.919623],[116.39261,28.906082],[116.393199,28.900489],[116.39055,28.898723],[116.381424,28.894013],[116.379658,28.890481],[116.373182,28.87017],[116.358464,28.850153],[116.342274,28.841322],[116.331088,28.853391],[116.333737,28.863988],[116.354637,28.883122],[116.359053,28.894308],[116.353754,28.904611],[116.344334,28.907554],[116.335209,28.908143],[116.331088,28.911381],[116.333149,28.925216],[116.338742,28.941112],[116.359053,28.976141],[116.344334,28.980851],[116.329911,28.982911],[116.2678,28.980262],[116.260735,28.985855],[116.269566,29.004106],[116.264267,29.007932],[116.259558,29.012642],[116.256614,29.019118],[116.255142,29.027655],[116.252198,29.031481],[116.206572,29.033248],[116.19833,29.037957],[116.194503,29.051204],[116.187733,29.051204],[116.174192,29.038841],[116.155647,29.047083],[116.142989,29.066216],[116.145933,29.085939],[116.131509,29.082701],[116.115908,29.077108],[116.10325,29.078285],[116.093536,29.114492],[116.08235,29.125678],[116.057329,29.140691],[116.042317,29.165417],[116.035841,29.181313],[116.040256,29.188378],[116.074991,29.183668],[116.084117,29.186906],[116.077935,29.202213],[116.140046,29.197208],[116.158885,29.203096],[116.14505,29.212515],[116.123856,29.220758],[116.102661,29.223996],[116.088238,29.219874],[116.077641,29.223996],[116.005816,29.239891],[115.997573,29.254315],[115.98992,29.272271],[115.980795,29.280219],[115.967843,29.264029],[115.967548,29.249017],[115.974907,29.232827],[115.980795,29.215459],[115.975202,29.195737],[115.929281,29.203979],[115.907498,29.216931],[115.922216,29.250194],[115.924277,29.262852],[115.927809,29.273449],[115.97844,29.294643],[115.984916,29.299353],[116.009642,29.311127],[116.01759,29.319075],[116.024066,29.327906],[116.028187,29.338798],[116.029954,29.352927],[116.02701,29.361169],[116.00405,29.410328],[115.998751,29.417393],[115.990509,29.42122],[115.975202,29.42122],[115.975202,29.428579],[115.991392,29.433583],[116.001695,29.440059],[116.01082,29.447712],[116.023183,29.455955],[116.046144,29.448007],[116.060862,29.463314],[116.070576,29.485391],[116.077935,29.49746],[116.077935,29.503642],[116.063217,29.509529],[116.070576,29.51836],[116.086471,29.528957],[116.098246,29.538376],[116.097069,29.544558],[116.092653,29.553683],[116.090298,29.56222],[116.112081,29.579587],[116.116497,29.593717],[116.12886,29.65936],[116.126211,29.66878],[116.116497,29.674667],[116.098246,29.681732],[116.100895,29.685853],[116.105605,29.695567],[116.092653,29.694389],[116.069398,29.688797],[116.060862,29.692035],[116.092947,29.724415],[116.102073,29.730302],[116.150054,29.727947],[116.173603,29.73354],[116.187733,29.750907],[116.229238,29.743843],[116.210399,29.735012],[116.193326,29.718527],[116.188027,29.702632],[116.204806,29.695567],[116.238658,29.708225],[116.256908,29.709696],[116.269566,29.695567],[116.247783,29.691151],[116.243073,29.683792],[116.244839,29.673784],[116.243073,29.661421],[116.232182,29.651412],[116.217758,29.670252],[116.204806,29.664953],[116.202451,29.650235],[116.205983,29.630807],[116.205689,29.613439],[116.190971,29.60608],[116.187733,29.598427],[116.195386,29.581059],[116.207161,29.562809],[116.215697,29.552212],[116.195681,29.556627],[116.186261,29.564869],[116.179491,29.574878],[116.167127,29.585769],[116.152115,29.554272],[116.145639,29.533667],[116.14976,29.524247],[116.157119,29.521303],[116.162417,29.514533],[116.166244,29.506585],[116.17066,29.500698],[116.168893,29.495694],[116.152115,29.477737],[116.145933,29.469495],[116.151232,29.460959],[116.152998,29.452422],[116.150937,29.443591],[116.145933,29.43476],[116.115614,29.443886],[116.08029,29.418276],[116.061745,29.383835],[116.081467,29.366468],[116.114142,29.367645],[116.150643,29.373533],[116.184789,29.387956],[116.208044,29.415038],[116.223056,29.380892],[116.225706,29.363819],[116.221879,29.346157],[116.214225,29.358226],[116.206572,29.356459],[116.198035,29.347923],[116.187733,29.339386],[116.145639,29.342036],[116.132981,29.339386],[116.120323,29.324962],[116.123561,29.312305],[116.145933,29.290816],[116.161829,29.27963],[116.166244,29.273743],[116.130626,29.264029],[116.126211,29.264029],[116.12415,29.24725],[116.140046,29.244012],[116.174192,29.250488],[116.181845,29.248722],[116.189205,29.244601],[116.196858,29.242246],[116.204806,29.246662],[116.217169,29.258436],[116.22394,29.262852],[116.229238,29.264029],[116.236008,29.258436],[116.246017,29.234593],[116.255142,29.223112],[116.266328,29.215753],[116.280752,29.210455],[116.296059,29.209572],[116.310483,29.216342],[116.306656,29.220758],[116.305478,29.22429],[116.305478,29.228705],[116.303712,29.236948],[116.316664,29.232238],[116.325495,29.236065],[116.331971,29.241657],[116.338447,29.243129],[116.346101,29.23577],[116.346395,29.228411],[116.347867,29.221641],[116.359053,29.216342],[116.366412,29.232827],[116.372299,29.238714],[116.379658,29.229294],[116.378775,29.221641],[116.369944,29.196325],[116.365823,29.188378],[116.338153,29.171304],[116.324023,29.156881],[116.324906,29.140691],[116.33933,29.139807],[116.364646,29.166889],[116.365823,29.147461],[116.372888,29.15011],[116.379658,29.15482],[116.393199,29.140691],[116.397909,29.152171],[116.39732,29.163357],[116.394671,29.175131],[116.393199,29.188378],[116.399381,29.188378],[116.407917,29.176603],[116.422047,29.176014],[116.434999,29.183962],[116.440886,29.198975],[116.442358,29.207806],[116.445596,29.215165],[116.447068,29.221346],[116.444713,29.226351],[116.438237,29.234593],[116.435587,29.244307],[116.43647,29.254609],[116.440886,29.264029],[116.437059,29.266973],[116.432055,29.273449],[116.427345,29.277864],[116.445596,29.280808],[116.463552,29.269622],[116.477093,29.249311],[116.488573,29.202507],[116.500053,29.204568],[116.50594,29.223112],[116.495638,29.250488],[116.510356,29.24519],[116.514477,29.231355],[116.516243,29.216636],[116.523308,29.208983],[116.536554,29.213987],[116.541853,29.229294],[116.541264,29.246073],[116.537143,29.257259],[116.543325,29.257259],[116.550389,29.251371],[116.555394,29.252255],[116.558337,29.259025],[116.558043,29.271094],[116.570406,29.248133],[116.588362,29.245484],[116.606613,29.24725],[116.618976,29.236948],[116.605435,29.236948],[116.618976,29.202213],[116.629573,29.232238],[116.630751,29.246367],[116.626335,29.264029],[116.641053,29.257847],[116.65636,29.249017],[116.665191,29.239303],[116.660776,29.229294],[116.688446,29.216342],[116.684031,29.212221],[116.678438,29.2081],[116.667546,29.202213],[116.65636,29.209277],[116.651356,29.207511],[116.648413,29.200741],[116.643703,29.192204],[116.618976,29.168066],[116.623686,29.150405],[116.638404,29.152465],[116.664014,29.168066],[116.67255,29.169833],[116.674611,29.172776],[116.677555,29.173365]]]}},{"type":"Feature","properties":{"kind":"lakes","name":"大官湖","source":"Natural Earth 1:10m"},"geometry":{"type":"Polygon","coordinates":[[[116.461197,30.093547],[116.459725,30.08089],[116.443241,30.0647],[116.436765,30.050864],[116.494755,30.038795],[116.50859,30.023194],[116.517126,30.003177],[116.530961,29.983455],[116.509178,29.96285],[116.477976,29.950781],[116.442358,29.948131],[116.40674,29.956079],[116.395259,29.96491],[116.376126,29.986987],[116.365823,29.989637],[116.354932,29.981983],[116.353754,29.970503],[116.349339,29.958434],[116.331088,29.94872],[116.309011,29.963733],[116.302829,29.973152],[116.303712,29.989637],[116.291349,29.986693],[116.281635,29.989637],[116.27457,29.995818],[116.269566,30.004061],[116.276042,30.007887],[116.284284,30.014952],[116.289288,30.017601],[116.270155,30.0229],[116.258674,30.014952],[116.257203,30.010831],[116.247194,30.036441],[116.25632,30.042622],[116.255142,30.066171],[116.240424,30.05999],[116.234831,30.072059],[116.236597,30.091192],[116.243073,30.107088],[116.245722,30.102378],[116.251021,30.097963],[116.255142,30.093547],[116.254259,30.105616],[116.245134,30.120629],[116.243073,30.130637],[116.2469,30.139174],[116.255731,30.135053],[116.264856,30.126516],[116.269566,30.120629],[116.278397,30.078535],[116.286639,30.059695],[116.303712,30.058812],[116.289288,30.099435],[116.291938,30.117391],[116.310483,30.12681],[116.315487,30.095313],[116.320491,30.081184],[116.331088,30.072942],[116.33462,30.086188],[116.339625,30.085305],[116.345512,30.07824],[116.351399,30.072942],[116.386134,30.058812],[116.380836,30.051453],[116.38113,30.044683],[116.387606,30.039973],[116.399381,30.038207],[116.401147,30.050864],[116.407328,30.058224],[116.420869,30.058812],[116.420869,30.066171],[116.410861,30.076474],[116.424107,30.087954],[116.444124,30.101201],[116.461197,30.093547]]]}},{"type":"Feature","properties":{"kind":"lakes","name":"龙感湖","source":"Natural Earth 1:10m"},"geometry":{"type":"Polygon","coordinates":[[[116.257203,30.010831],[116.252493,29.999645],[116.24896,29.983455],[116.254259,29.983749],[116.264562,29.983161],[116.269566,29.983455],[116.265445,29.961672],[116.266328,29.941655],[116.263384,29.927526],[116.246017,29.921933],[116.233065,29.915163],[116.218052,29.901622],[116.200685,29.89338],[116.180962,29.901622],[116.158885,29.893674],[116.11738,29.90486],[116.091476,29.901622],[116.051148,29.871597],[116.040256,29.866887],[116.029365,29.870125],[116.001989,29.893968],[115.997573,29.904565],[115.995807,29.915457],[115.995807,29.939006],[115.992275,29.953136],[115.983444,29.9602],[115.961661,29.969914],[115.954302,29.983455],[115.949003,29.986399],[115.942233,29.989048],[115.936346,29.993169],[115.933991,30.000528],[115.933991,30.044977],[115.939878,30.035557],[115.97373,29.996701],[115.981678,29.993463],[115.985799,29.987576],[115.995807,29.983455],[116.007288,29.983455],[116.016413,29.989637],[116.014941,29.996113],[115.999634,30.011714],[115.995807,30.021134],[115.996396,30.031436],[115.998751,30.038795],[116.003755,30.043505],[116.01288,30.044977],[116.021123,30.041739],[116.024655,30.03438],[116.026421,30.025255],[116.029954,30.017601],[116.054091,29.993758],[116.057329,29.986693],[116.061156,29.973741],[116.070576,29.969914],[116.081467,29.973741],[116.091476,29.983455],[116.077052,29.988459],[116.071459,29.989637],[116.085883,29.996996],[116.092653,29.991697],[116.097952,29.981983],[116.108843,29.976685],[116.13563,29.977273],[116.148288,29.979334],[116.160357,29.983455],[116.152703,29.996113],[116.143284,29.99523],[116.132392,29.989931],[116.11944,29.989637],[116.10796,29.996996],[116.113553,30.002],[116.125328,30.006121],[116.132981,30.01142],[116.133275,30.06205],[116.141223,30.085011],[116.163889,30.076474],[116.173309,30.069998],[116.180962,30.067643],[116.185967,30.062639],[116.189793,30.027315],[116.193031,30.016129],[116.198035,30.007887],[116.2051,30.000823],[116.218052,29.990814],[116.230416,29.987576],[116.236008,30.000528],[116.234242,30.01348],[116.228944,30.023194],[116.222468,30.032614],[116.215697,30.044977],[116.247194,30.036441],[116.257203,30.010831]]]}},{"type":"Feature","properties":{"kind":"lakes","name":"高邮湖","source":"Natural Earth 1:10m"},"geometry":{"type":"Polygon","coordinates":[[[119.405133,32.847324],[119.411903,32.819653],[119.415141,32.793455],[119.408371,32.766079],[119.401012,32.752538],[119.391592,32.740175],[119.380406,32.732227],[119.367454,32.731344],[119.351853,32.740764],[119.33213,32.7702],[119.319178,32.779031],[119.316529,32.761369],[119.306521,32.741058],[119.293569,32.724574],[119.2815,32.717803],[119.272669,32.727517],[119.250297,32.746945],[119.227337,32.759309],[119.216445,32.748712],[119.213796,32.707795],[119.207614,32.690428],[119.195545,32.676592],[119.177,32.667173],[119.174646,32.676298],[119.172585,32.692488],[119.154629,32.703968],[119.162282,32.70544],[119.166403,32.707206],[119.169641,32.709267],[119.17494,32.711327],[119.17494,32.717803],[119.156101,32.724574],[119.141971,32.738115],[119.131668,32.756071],[119.126075,32.773144],[119.120777,32.785802],[119.124604,32.790806],[119.129608,32.79581],[119.133435,32.801108],[119.134023,32.806996],[119.129019,32.818182],[119.122543,32.819948],[119.113123,32.81877],[119.099288,32.820831],[119.082215,32.832311],[119.06367,32.864691],[119.044831,32.875877],[119.044831,32.882059],[119.066614,32.883825],[119.081921,32.874994],[119.09605,32.861159],[119.113418,32.847912],[119.116361,32.862042],[119.12166,32.878821],[119.129019,32.894716],[119.137556,32.906196],[119.144915,32.910023],[119.150213,32.90708],[119.153451,32.900309],[119.156101,32.885297],[119.16081,32.88147],[119.189952,32.870284],[119.201138,32.868518],[119.21203,32.864102],[119.226454,32.851445],[119.284738,32.875877],[119.266487,32.875288],[119.259128,32.872933],[119.250886,32.868518],[119.239406,32.877349],[119.237345,32.887946],[119.243232,32.909434],[119.242055,32.915616],[119.238228,32.92327],[119.235285,32.930629],[119.237051,32.93681],[119.243527,32.937988],[119.253241,32.935633],[119.261483,32.932395],[119.264427,32.93004],[119.275024,32.941815],[119.276496,32.951234],[119.270314,32.960065],[119.22351,32.998921],[119.255007,33.012462],[119.264427,33.019232],[119.268253,33.028358],[119.267076,33.037483],[119.267959,33.046019],[119.277967,33.053967],[119.284443,33.044842],[119.307404,33.023648],[119.31594,33.019232],[119.327126,33.023648],[119.328304,33.034245],[119.323888,33.047786],[119.300928,33.096944],[119.298573,33.111957],[119.292097,33.11755],[119.250886,33.136095],[119.243527,33.137861],[119.238228,33.136978],[119.234107,33.136978],[119.229692,33.142276],[119.230575,33.146692],[119.240877,33.158467],[119.243232,33.166709],[119.236462,33.176128],[119.220566,33.176423],[119.195545,33.170241],[119.170524,33.155817],[119.158455,33.134329],[119.154923,33.106658],[119.154629,33.073984],[119.16346,33.080754],[119.173174,33.08517],[119.183771,33.087525],[119.195545,33.087525],[119.179944,33.073101],[119.158455,33.0575],[119.135789,33.044842],[119.11695,33.039838],[119.109885,33.0366],[119.087808,33.02247],[119.075739,33.019232],[119.061021,33.021293],[119.030996,33.030418],[119.014806,33.032479],[118.981837,33.044253],[118.970357,33.046608],[118.95711,33.045431],[118.933561,33.040132],[118.921787,33.039838],[118.896766,33.049846],[118.862031,33.087525],[118.839954,33.10136],[118.874394,33.10136],[118.888818,33.09665],[118.900298,33.069569],[118.914722,33.067508],[118.945925,33.073984],[119.052484,33.046608],[119.08251,33.057205],[119.094578,33.063681],[119.108414,33.065742],[119.122249,33.069274],[119.134023,33.080754],[119.139027,33.094001],[119.152863,33.158172],[119.156984,33.165826],[119.225865,33.197323],[119.237051,33.204976],[119.237051,33.211158],[119.23499,33.220872],[119.244999,33.227642],[119.257951,33.221755],[119.268548,33.169358],[119.279734,33.15935],[119.296218,33.152874],[119.31594,33.139038],[119.31859,33.131974],[119.328598,33.086347],[119.335074,33.076633],[119.342139,33.068097],[119.346849,33.060149],[119.349498,33.037777],[119.341844,33.019232],[119.326243,33.003925],[119.305343,32.991268],[119.331542,32.994211],[119.358623,33.010696],[119.379523,33.02041],[119.38806,33.002159],[119.405133,32.847324]]]}},{"type":"Feature","properties":{"kind":"lakes","name":"鄱湖","source":"Natural Earth 1:10m"},"geometry":{"type":"Polygon","coordinates":[[[116.444124,30.101201],[116.454721,30.117391],[116.445596,30.124161],[116.425579,30.115036],[116.393199,30.093547],[116.393199,30.099435],[116.398497,30.10856],[116.394082,30.11327],[116.384074,30.112975],[116.396437,30.122984],[116.40674,30.12681],[116.40674,30.134464],[116.394376,30.137113],[116.383779,30.141234],[116.374654,30.147121],[116.365823,30.154775],[116.370238,30.155364],[116.373182,30.15713],[116.375831,30.15919],[116.379658,30.16184],[116.393199,30.154775],[116.384662,30.168021],[116.371122,30.17538],[116.354932,30.175675],[116.338447,30.16861],[116.319608,30.177441],[116.317547,30.182151],[116.317253,30.192454],[116.321668,30.214531],[116.316075,30.223656],[116.296942,30.223656],[116.31166,30.235431],[116.325789,30.240729],[116.33727,30.237491],[116.344629,30.223656],[116.351399,30.229838],[116.348161,30.235431],[116.346689,30.239552],[116.344629,30.250443],[116.359053,30.244262],[116.358464,30.255153],[116.360524,30.261629],[116.365234,30.266339],[116.372593,30.271343],[116.369061,30.223656],[116.377892,30.219535],[116.387606,30.212176],[116.39732,30.210704],[116.40674,30.223656],[116.411744,30.21041],[116.413216,30.194514],[116.418809,30.181268],[116.434704,30.17538],[116.432938,30.193337],[116.430877,30.201284],[116.427345,30.209527],[116.436176,30.204817],[116.445596,30.203934],[116.454427,30.203934],[116.461197,30.203345],[116.46002,30.205406],[116.464435,30.207761],[116.470911,30.209232],[116.475621,30.209527],[116.476504,30.199224],[116.478859,30.192159],[116.485629,30.188921],[116.50388,30.195692],[116.527135,30.226894],[116.543325,30.236608],[116.542736,30.220418],[116.536849,30.183034],[116.530961,30.16861],[116.535671,30.165372],[116.538026,30.162428],[116.540087,30.158896],[116.543325,30.154775],[116.532727,30.153892],[116.519481,30.150065],[116.508295,30.144472],[116.503585,30.137407],[116.506529,30.125044],[116.514183,30.122689],[116.52478,30.123867],[116.537143,30.120629],[116.549801,30.111209],[116.555394,30.102378],[116.551272,30.095902],[116.533905,30.093547],[116.52007,30.08972],[116.495932,30.072059],[116.482391,30.066171],[116.48298,30.076474],[116.486807,30.084716],[116.493577,30.090604],[116.503585,30.093547],[116.503585,30.099435],[116.4924,30.100318],[116.481508,30.099729],[116.470911,30.097668],[116.461197,30.093547],[116.444124,30.101201]]]}},{"type":"Feature","properties":{"kind":"lakes","name":"石臼湖","source":"Natural Earth 1:10m"},"geometry":{"type":"Polygon","coordinates":[[[118.82288,31.401996],[118.771661,31.471466],[118.764302,31.484418],[118.791383,31.429077],[118.794916,31.400818],[118.784024,31.389338],[118.773427,31.39287],[118.777843,31.408766],[118.758415,31.423779],[118.751056,31.434376],[118.750467,31.443501],[118.74664,31.456159],[118.738104,31.472938],[118.732216,31.488539],[118.736043,31.497958],[118.736043,31.504729],[118.757237,31.504729],[118.74193,31.517681],[118.724268,31.527689],[118.706018,31.534754],[118.688356,31.538875],[118.722502,31.559481],[118.733688,31.556243],[118.750172,31.542113],[118.785791,31.532693],[118.794621,31.531516],[118.801981,31.532105],[118.806396,31.534165],[118.815816,31.542407],[118.82288,31.54594],[118.829062,31.544174],[118.834361,31.540347],[118.839954,31.538875],[118.903242,31.547706],[118.939154,31.565662],[118.951812,31.552416],[118.963292,31.512382],[118.96653,31.506789],[118.971534,31.501196],[118.975361,31.494132],[118.976538,31.484418],[118.973006,31.473526],[118.965941,31.459691],[118.956522,31.448211],[118.945925,31.443501],[118.912956,31.442912],[118.907952,31.439969],[118.906185,31.436436],[118.894411,31.40229],[118.857615,31.381685],[118.82288,31.401996]]]}},{"type":"Feature","properties":{"kind":"lakes","name":"巢湖","source":"Natural Earth 1:10m"},"geometry":{"type":"Polygon","coordinates":[[[117.936256,31.548295],[117.95274,31.526806],[117.955389,31.497958],[117.932429,31.515032],[117.925659,31.524157],[117.928602,31.531516],[117.928602,31.538875],[117.911529,31.548589],[117.875322,31.563602],[117.84618,31.583324],[117.834994,31.588034],[117.820865,31.588917],[117.798493,31.586856],[117.778476,31.591272],[117.768174,31.591272],[117.749923,31.559481],[117.734322,31.545057],[117.70047,31.522391],[117.685163,31.508556],[117.661025,31.475881],[117.647484,31.46234],[117.625113,31.455276],[117.617459,31.446445],[117.612749,31.443501],[117.606273,31.442324],[117.595971,31.443501],[117.562413,31.443501],[117.557998,31.439969],[117.547989,31.438497],[117.500008,31.452921],[117.471455,31.469994],[117.455559,31.476176],[117.442018,31.484123],[117.43407,31.497958],[117.416409,31.517387],[117.383734,31.542996],[117.376375,31.54594],[117.359596,31.548295],[117.338402,31.554771],[117.317797,31.563602],[117.304256,31.573021],[117.288066,31.611583],[117.288949,31.661036],[117.306316,31.704308],[117.338991,31.72403],[117.360479,31.720498],[117.396097,31.70107],[117.438192,31.690178],[117.439369,31.673988],[117.432304,31.653971],[117.427594,31.635132],[117.434954,31.611583],[117.452027,31.596865],[117.474693,31.588917],[117.545929,31.580086],[117.563296,31.583324],[117.585374,31.600397],[117.622758,31.642786],[117.645424,31.657504],[117.678098,31.663097],[117.706652,31.659859],[117.84618,31.607756],[117.857072,31.598631],[117.880621,31.571844],[117.890335,31.566251],[117.913295,31.561541],[117.936256,31.548295]]]}},{"type":"Feature","properties":{"kind":"lakes","name":null,"source":"Natural Earth 1:10m"},"geometry":{"type":"Polygon","coordinates":[[[114.853674,30.313732],[114.857501,30.313143],[114.859267,30.301074],[114.849259,30.297542],[114.838368,30.291654],[114.837779,30.271343],[114.830714,30.271343],[114.830125,30.280174],[114.82777,30.284295],[114.822178,30.285178],[114.813641,30.285178],[114.806282,30.286944],[114.798334,30.29136],[114.793919,30.295775],[114.796568,30.298719],[114.785088,30.292537],[114.783027,30.282529],[114.788031,30.272226],[114.796568,30.264867],[114.781555,30.258097],[114.776257,30.266045],[114.773019,30.278702],[114.765365,30.285178],[114.750353,30.289594],[114.733574,30.309316],[114.720916,30.313143],[114.739756,30.27988],[114.741816,30.265456],[114.734751,30.244262],[114.752708,30.243967],[114.763893,30.238374],[114.774196,30.230132],[114.789209,30.223656],[114.789209,30.216297],[114.775668,30.209527],[114.772724,30.214237],[114.766543,30.218652],[114.761833,30.223656],[114.755063,30.209527],[114.753885,30.214237],[114.748881,30.223656],[114.739756,30.219535],[114.732985,30.213648],[114.728864,30.2057],[114.727687,30.195692],[114.70973,30.205111],[114.679411,30.233076],[114.665576,30.229838],[114.657334,30.236608],[114.650269,30.241024],[114.649091,30.253681],[114.663221,30.258685],[114.683238,30.260746],[114.700605,30.264867],[114.700605,30.271343],[114.673229,30.271343],[114.673229,30.277819],[114.676762,30.280763],[114.68206,30.287239],[114.68677,30.29136],[114.679411,30.298719],[114.662338,30.29136],[114.662043,30.301663],[114.668814,30.313143],[114.673229,30.309316],[114.707376,30.317853],[114.717384,30.322563],[114.739461,30.354059],[114.748881,30.360241],[114.750058,30.355531],[114.759184,30.346112],[114.771547,30.336986],[114.783027,30.332277],[114.778023,30.346406],[114.785088,30.352882],[114.797745,30.350821],[114.809814,30.339636],[114.821883,30.345817],[114.82571,30.341402],[114.826887,30.332865],[114.830714,30.326095],[114.853674,30.313732]]]}},{"type":"Feature","properties":{"kind":"lakes","name":"微山湖","source":"Natural Earth 1:10m"},"geometry":{"type":"Polygon","coordinates":[[[117.327511,34.627344],[117.338991,34.612331],[117.342818,34.591431],[117.340463,34.579951],[117.318385,34.569943],[117.306316,34.559051],[117.261867,34.505477],[117.260101,34.499589],[117.2445,34.49694],[117.229193,34.49017],[117.201817,34.472508],[117.196519,34.486343],[117.201523,34.512836],[117.195047,34.527554],[117.180329,34.524022],[117.169143,34.536091],[117.129109,34.637352],[117.126166,34.660018],[117.134113,34.702701],[117.134113,34.723601],[117.122928,34.732432],[117.117923,34.738024],[117.124694,34.748916],[117.134996,34.755981],[117.140295,34.749799],[117.142356,34.740379],[117.147654,34.734492],[117.156191,34.732137],[117.160312,34.732432],[117.185333,34.718302],[117.234197,34.69858],[117.256569,34.68445],[117.327511,34.627344]]]}},{"type":"Feature","properties":{"kind":"lakes","name":null,"source":"Natural Earth 1:10m"},"geometry":{"type":"Polygon","coordinates":[[[118.826118,29.627274],[118.839954,29.630218],[118.834361,29.628452],[118.826118,29.627274]]]}},{"type":"Feature","properties":{"kind":"lakes","name":null,"source":"Natural Earth 1:10m"},"geometry":{"type":"Polygon","coordinates":[[[119.579396,31.662802],[119.600002,31.648967],[119.600885,31.621297],[119.583223,31.603635],[119.562617,31.587151],[119.552315,31.563013],[119.545839,31.559481],[119.532004,31.559186],[119.517874,31.555654],[119.511398,31.542407],[119.510221,31.526806],[119.506394,31.514737],[119.500212,31.512088],[119.491087,31.525334],[119.481373,31.547412],[119.496974,31.631894],[119.511692,31.651911],[119.544367,31.663097],[119.579396,31.662802]]]}},{"type":"Feature","properties":{"kind":"lakes","name":null,"source":"Natural Earth 1:10m"},"geometry":{"type":"Polygon","coordinates":[[[115.176592,30.146238],[115.2075,30.137996],[115.220452,30.107088],[115.214271,30.108265],[115.190721,30.109443],[115.181007,30.107088],[115.17306,30.100318],[115.161874,30.082067],[115.153043,30.072942],[115.136558,30.067054],[115.11507,30.06676],[115.095642,30.070881],[115.08475,30.079712],[115.072976,30.072942],[115.0665,30.075591],[115.060318,30.082361],[115.050604,30.086482],[115.041479,30.086188],[115.009099,30.079712],[115.005272,30.08089],[114.994381,30.085894],[114.988493,30.086482],[114.983195,30.084128],[114.974069,30.075002],[114.967593,30.072942],[114.943161,30.084128],[114.933153,30.086482],[114.919023,30.085011],[114.905188,30.087071],[114.895474,30.093842],[114.892825,30.107088],[114.898418,30.112681],[114.908721,30.117391],[114.917846,30.125044],[114.919612,30.140645],[114.947577,30.140645],[114.947282,30.117391],[114.954936,30.108854],[114.965827,30.114741],[114.974953,30.134464],[114.977896,30.128871],[114.98555,30.119157],[114.988493,30.113858],[115.012925,30.135347],[115.046483,30.137996],[115.081512,30.133581],[115.112126,30.134464],[115.14068,30.141823],[115.176592,30.146238]]]}},{"type":"Feature","properties":{"kind":"lakes","name":null,"source":"Natural Earth 1:10m"},"geometry":{"type":"Polygon","coordinates":[[[118.987724,31.167682],[119.014806,31.138246],[119.020987,31.120584],[119.011862,31.103805],[118.995672,31.088792],[118.962115,31.065243],[118.944453,31.060828],[118.928557,31.064949],[118.915605,31.079667],[118.889995,31.087909],[118.853494,31.101744],[118.834361,31.119995],[118.853494,31.141778],[118.879693,31.142367],[118.894705,31.144427],[118.901181,31.151786],[118.904419,31.157379],[118.910895,31.153847],[118.91796,31.146782],[118.921787,31.141778],[118.923259,31.134713],[118.921787,31.107043],[118.933856,31.117934],[118.942098,31.154436],[118.955933,31.169742],[118.9733,31.173864],[118.987724,31.167682]]]}},{"type":"Feature","properties":{"kind":"lakes","name":"駱馬湖","source":"Natural Earth 1:10m"},"geometry":{"type":"Polygon","coordinates":[[[118.250048,34.108674],[118.26506,34.098077],[118.26771,34.090718],[118.263589,34.082181],[118.247693,34.040381],[118.23739,34.023308],[118.2212,34.018304],[118.195002,34.026546],[118.174396,34.037438],[118.156146,34.050095],[118.139956,34.066285],[118.126709,34.088068],[118.131419,34.088363],[118.134363,34.090129],[118.136718,34.092484],[118.14025,34.094839],[118.155851,34.129868],[118.160855,34.136639],[118.173513,34.138405],[118.182638,34.132517],[118.190881,34.123392],[118.202361,34.116033],[118.214724,34.113678],[118.238568,34.112795],[118.250048,34.108674]]]}},{"type":"Feature","properties":{"kind":"lakes","name":null,"source":"Natural Earth 1:10m"},"geometry":{"type":"Polygon","coordinates":[[[116.929236,32.400185],[116.947192,32.393414],[116.968386,32.388704],[116.968386,32.381934],[116.934535,32.377518],[116.92747,32.374869],[116.921288,32.364272],[116.926881,32.358974],[116.936301,32.354264],[116.941305,32.344255],[116.937773,32.335424],[116.929825,32.332186],[116.920994,32.331009],[116.913929,32.327182],[116.905981,32.315996],[116.90186,32.306871],[116.900388,32.296568],[116.900094,32.268309],[116.898622,32.261539],[116.893618,32.259184],[116.870657,32.257712],[116.863887,32.253886],[116.837983,32.217679],[116.828563,32.210614],[116.824442,32.220622],[116.826209,32.229748],[116.830918,32.24005],[116.837689,32.250648],[116.845048,32.259184],[116.845342,32.259478],[116.851818,32.270959],[116.879783,32.306871],[116.873012,32.322767],[116.87625,32.341017],[116.892735,32.374869],[116.870363,32.391942],[116.862121,32.404894],[116.858589,32.423439],[116.889791,32.481429],[116.867125,32.507627],[116.858294,32.504389],[116.841515,32.488199],[116.827975,32.477897],[116.811785,32.469654],[116.794417,32.464945],[116.777344,32.464356],[116.816494,32.489377],[116.858589,32.533237],[116.868597,32.533826],[116.878605,32.523817],[116.892735,32.505273],[116.908336,32.490554],[116.912457,32.482606],[116.913929,32.467594],[116.911868,32.460235],[116.907747,32.452876],[116.905098,32.443162],[116.90657,32.429621],[116.915401,32.411076],[116.929236,32.400185]]]}},{"type":"Feature","properties":{"kind":"lakes","name":null,"source":"Natural Earth 1:10m"},"geometry":{"type":"Polygon","coordinates":[[[116.310483,32.217384],[116.298708,32.235929],[116.295764,32.250353],[116.30018,32.262128],[116.32108,32.275963],[116.326084,32.284205],[116.324906,32.300101],[116.336681,32.289209],[116.347867,32.287737],[116.355815,32.295097],[116.360524,32.32571],[116.36494,32.333953],[116.379658,32.347199],[116.400852,32.37222],[116.414687,32.378402],[116.430877,32.371631],[116.438531,32.360445],[116.434704,32.352792],[116.424696,32.344844],[116.41351,32.333953],[116.37642,32.271253],[116.359053,32.252119],[116.354048,32.248881],[116.342568,32.239167],[116.33462,32.228865],[116.341685,32.224155],[116.356698,32.217973],[116.356992,32.203549],[116.34875,32.187654],[116.338447,32.176468],[116.337858,32.193247],[116.328733,32.201783],[116.317842,32.208259],[116.310483,32.217384]]]}},{"type":"Feature","properties":{"kind":"lakes","name":"武昌湖","source":"Natural Earth 1:10m"},"geometry":{"type":"Polygon","coordinates":[[[116.821204,30.313143],[116.825031,30.311082],[116.840927,30.285473],[116.839161,30.281352],[116.834451,30.27723],[116.832096,30.268105],[116.82562,30.25898],[116.812079,30.26104],[116.790885,30.271343],[116.774695,30.271049],[116.763803,30.2684],[116.743198,30.257802],[116.739665,30.255447],[116.735839,30.251326],[116.73054,30.2475],[116.723475,30.244262],[116.716411,30.243379],[116.694628,30.244262],[116.668724,30.241907],[116.657244,30.237786],[116.646941,30.229838],[116.633989,30.235431],[116.605141,30.239552],[116.5916,30.244262],[116.5916,30.250443],[116.621331,30.249266],[116.637815,30.250443],[116.64959,30.255447],[116.639876,30.262218],[116.613383,30.298719],[116.603964,30.295481],[116.568051,30.297542],[116.550684,30.29136],[116.545974,30.30078],[116.545974,30.308433],[116.550095,30.314909],[116.558043,30.319325],[116.558043,30.313143],[116.5707,30.326095],[116.613972,30.324623],[116.626335,30.339636],[116.6334,30.339636],[116.633989,30.334926],[116.635755,30.332277],[116.63811,30.329922],[116.640759,30.326095],[116.637815,30.322563],[116.6334,30.313143],[116.644291,30.309022],[116.669312,30.29607],[116.674317,30.295187],[116.677849,30.298425],[116.686386,30.290182],[116.701398,30.271343],[116.708463,30.29136],[116.715233,30.29136],[116.719943,30.277525],[116.72583,30.280763],[116.739665,30.302251],[116.749379,30.309905],[116.769102,30.320502],[116.780876,30.329333],[116.790296,30.330805],[116.801776,30.324917],[116.812668,30.31697],[116.821204,30.313143]]]}},{"type":"Feature","properties":{"kind":"lakes","name":null,"source":"Natural Earth 1:10m"},"geometry":{"type":"Polygon","coordinates":[[[117.119101,30.403513],[117.11233,30.394976],[117.160312,30.394976],[117.160312,30.387617],[117.14942,30.385851],[117.141178,30.382318],[117.133819,30.376137],[117.126166,30.367895],[117.133525,30.360241],[117.124399,30.358181],[117.113508,30.361124],[117.103205,30.36554],[117.095552,30.367895],[117.081128,30.368483],[117.069942,30.371721],[117.064055,30.379964],[117.064643,30.394976],[117.057873,30.394976],[117.051103,30.379669],[117.018428,30.367011],[117.002533,30.354059],[117.008714,30.338753],[117.009892,30.320208],[117.004004,30.308433],[116.988992,30.313143],[116.98752,30.312554],[116.985165,30.316675],[116.984576,30.320502],[116.988992,30.326095],[116.979867,30.335515],[116.974274,30.351999],[116.973096,30.369955],[116.978983,30.384085],[116.989875,30.392032],[117.004888,30.398508],[117.036679,30.408222],[117.046982,30.41617],[117.066115,30.419997],[117.082894,30.426767],[117.09879,30.435893],[117.112919,30.449728],[117.12175,30.455321],[117.133525,30.456498],[117.135291,30.451788],[117.133819,30.442369],[117.13588,30.432949],[117.146771,30.428534],[117.146771,30.422352],[117.127049,30.410577],[117.119101,30.403513]]]}},{"type":"Feature","properties":{"kind":"lakes","name":null,"source":"Natural Earth 1:10m"},"geometry":{"type":"Polygon","coordinates":[[[114.953758,30.250443],[114.947577,30.257802],[114.949932,30.256919],[114.951992,30.253976],[114.952875,30.252209],[114.953758,30.250443]]]}},{"type":"Feature","properties":{"kind":"lakes","name":null,"source":"Natural Earth 1:10m"},"geometry":{"type":"Polygon","coordinates":[[[114.944044,30.262218],[114.93698,30.26575],[114.919612,30.271343],[114.935213,30.277525],[114.954641,30.278997],[114.991731,30.277819],[115.004683,30.281646],[115.007038,30.291949],[115.007627,30.307256],[115.015575,30.326095],[115.005566,30.334926],[114.999385,30.348761],[114.996441,30.364951],[114.995264,30.380847],[115.006449,30.372604],[115.025878,30.351116],[115.046777,30.339636],[115.048838,30.322857],[115.043245,30.288416],[115.033531,30.257214],[115.009982,30.245439],[114.979368,30.246911],[114.949932,30.256919],[114.944044,30.262218]]]}},{"type":"Feature","properties":{"kind":"lakes","name":"新安江水库","source":"Natural Earth 1:10m"},"geometry":{"type":"Polygon","coordinates":[[[119.188775,29.541026],[119.184065,29.536022],[119.18171,29.528074],[119.183182,29.519832],[119.186714,29.511589],[119.195545,29.49746],[119.169347,29.49952],[119.158455,29.50217],[119.153157,29.498343],[119.147858,29.490101],[119.139911,29.490689],[119.123426,29.496282],[119.11018,29.49746],[119.09399,29.484802],[119.083981,29.482153],[119.079566,29.493927],[119.073384,29.503347],[119.060138,29.504525],[119.046008,29.501287],[119.038355,29.49746],[119.027169,29.507468],[119.022459,29.516888],[119.017455,29.52513],[119.004503,29.531606],[118.989196,29.531312],[118.968296,29.514827],[118.942687,29.508057],[118.935916,29.501875],[118.930029,29.495105],[118.921787,29.490101],[118.912956,29.488335],[118.907069,29.488335],[118.900593,29.489512],[118.837304,29.49275],[118.826118,29.490101],[118.825235,29.476854],[118.830828,29.461547],[118.830828,29.450067],[118.811989,29.449184],[118.808457,29.453894],[118.803158,29.463314],[118.796093,29.472733],[118.788145,29.477149],[118.780492,29.475677],[118.761358,29.468907],[118.757237,29.466257],[118.743402,29.443886],[118.712788,29.417982],[118.682174,29.403558],[118.668045,29.415038],[118.668045,29.408268],[118.661863,29.417687],[118.651855,29.421808],[118.639492,29.422397],[118.626245,29.42122],[118.626245,29.428579],[118.646851,29.4327],[118.684235,29.42122],[118.701897,29.428579],[118.709845,29.446829],[118.699836,29.461547],[118.680408,29.471556],[118.661569,29.477149],[118.661569,29.483919],[118.67511,29.482742],[118.687179,29.480387],[118.698364,29.475971],[118.70955,29.469495],[118.71426,29.472145],[118.729861,29.483919],[118.726329,29.494516],[118.731628,29.500992],[118.757237,29.510706],[118.785202,29.528662],[118.788145,29.531606],[118.814638,29.537788],[118.861736,29.565752],[118.925025,29.582531],[118.927085,29.590773],[118.92738,29.60608],[118.925908,29.622859],[118.921787,29.634045],[118.904419,29.644348],[118.884402,29.644053],[118.840542,29.630218],[118.845252,29.641993],[118.833772,29.656711],[118.813755,29.669663],[118.771661,29.681437],[118.751056,29.697039],[118.716321,29.730302],[118.729273,29.727653],[118.746346,29.717939],[118.757237,29.715878],[118.763713,29.71941],[118.769012,29.725592],[118.77696,29.730891],[118.791383,29.730302],[118.779314,29.710285],[118.806102,29.687913],[118.847901,29.669369],[118.88087,29.661421],[118.891467,29.662304],[118.908835,29.667602],[118.918843,29.66878],[118.929735,29.66407],[118.933561,29.652884],[118.935033,29.640226],[118.93886,29.630807],[118.960643,29.621976],[118.98272,29.631396],[119.018044,29.661421],[119.000088,29.67084],[119.001854,29.680554],[119.011862,29.686736],[119.018044,29.685264],[119.023931,29.679083],[119.037766,29.674373],[119.053662,29.672607],[119.065142,29.674961],[119.05896,29.688502],[119.043653,29.71264],[119.038355,29.723532],[119.06367,29.704987],[119.074856,29.699394],[119.085748,29.702337],[119.093107,29.715878],[119.089574,29.731479],[119.071912,29.764448],[119.078683,29.779461],[119.089574,29.795062],[119.103409,29.807425],[119.11695,29.812135],[119.135789,29.810075],[119.130197,29.803304],[119.113418,29.792707],[119.099288,29.778578],[119.095756,29.746198],[119.123721,29.737367],[119.160222,29.737367],[119.18171,29.730302],[119.16817,29.72677],[119.123426,29.707047],[119.113418,29.698805],[119.065142,29.640815],[119.055428,29.635811],[119.046008,29.634339],[119.039532,29.630807],[119.038355,29.620504],[119.045125,29.609613],[119.067203,29.601959],[119.071912,29.589007],[119.078683,29.580765],[119.115478,29.60137],[119.134023,29.60608],[119.108119,29.556627],[119.108708,29.53926],[119.140794,29.538376],[119.171702,29.554272],[119.188186,29.558688],[119.195545,29.548385],[119.193485,29.544558],[119.188775,29.541026]]]}},{"type":"Feature","properties":{"kind":"rivers","name":"Yi","source":"Natural Earth 1:10m"},"geometry":{"type":"MultiLineString","coordinates":[[[118.503429,36.103542],[118.531749,36.121202],[118.547862,36.128038],[118.561697,36.130805],[118.57073,36.126247],[118.590343,36.104031],[118.59962,36.096055],[118.590831,36.06863],[118.606619,36.059109],[118.629242,36.055203],[118.640636,36.044542],[118.649669,36.035834],[118.709483,36.006659],[118.739838,35.9831],[118.752208,35.968044],[118.757335,35.949001],[118.760916,35.923041],[118.771251,35.904812],[118.786632,35.890733],[118.825206,35.862901],[118.835378,35.849392],[118.839122,35.831814],[118.839854,35.804958],[118.845876,35.79324],[118.859386,35.783962],[118.871349,35.770453],[118.874034,35.745958],[118.871023,35.736396],[118.862641,35.722235],[118.860362,35.71247],[118.860932,35.702745],[118.865896,35.686835],[118.868175,35.663682],[118.872813,35.64407],[118.874034,35.611518],[118.85849,35.557685],[118.853526,35.548041],[118.845307,35.542182],[118.833914,35.536689],[118.823741,35.52912],[118.819347,35.516954],[118.814545,35.507921],[118.784679,35.479071],[118.781749,35.474229],[118.779714,35.468044],[118.77825,35.461371],[118.777843,35.455186],[118.774506,35.451931],[118.767589,35.450995],[118.760346,35.448676],[118.757335,35.44123],[118.75294,35.433661],[118.743663,35.427924],[118.734304,35.420437],[118.729991,35.407416],[118.72877,35.392442],[118.725027,35.384345],[118.709483,35.3699],[118.678315,35.332099],[118.665701,35.30919],[118.667979,35.294135],[118.658132,35.280707],[118.649343,35.260565],[118.643077,35.239285],[118.640636,35.22248],[118.646414,35.19835],[118.647472,35.188015],[118.644786,35.177598],[118.616222,35.122911],[118.57545,35.071601],[118.566742,35.066433],[118.556407,35.063585],[118.547862,35.059638],[118.542491,35.045437],[118.537852,35.042589],[118.532156,35.040798],[118.527354,35.037787],[118.523448,35.030341],[118.525076,35.024522],[118.528738,35.019232],[118.530772,35.013536],[118.537608,34.849066],[118.535167,34.840277],[118.531749,34.832872],[118.529389,34.825141],[118.530772,34.815009],[118.536632,34.807481],[118.554291,34.797471],[118.567556,34.770819],[118.590587,34.767361],[118.640636,34.773383],[118.661388,34.76199],[118.667979,34.759711],[118.670909,34.760688],[118.680186,34.765448],[118.684988,34.766547],[118.784679,34.766547],[118.800548,34.769721],[118.818777,34.768907],[118.837169,34.765245],[118.858897,34.757392],[118.863455,34.754747],[118.868256,34.751288],[118.874034,34.746039],[118.878184,34.739529],[118.887706,34.718126],[118.911632,34.707139],[118.94044,34.701239],[119.017019,34.697862],[119.054861,34.68891],[119.141124,34.683173],[119.154552,34.684597],[119.169037,34.688503],[119.17864,34.693223],[119.200287,34.713813]]]}},{"type":"Feature","properties":{"kind":"rivers","name":"Quan","source":"Natural Earth 1:10m"},"geometry":{"type":"MultiLineString","coordinates":[[[115.556407,33.197699],[115.407156,33.219591],[115.382498,33.228705],[115.353282,33.245551],[115.300385,33.284206],[115.192556,33.338813],[115.137787,33.352607],[114.998953,33.406928],[114.982432,33.411404],[114.9699,33.416775],[114.949229,33.435004],[114.908214,33.447862],[114.894786,33.461453],[114.884044,33.4796],[114.865164,33.501003],[114.810151,33.540229],[114.656668,33.605007],[114.592784,33.615261],[114.583995,33.614773],[114.575125,33.610541],[114.5595,33.598009],[114.552013,33.59573],[114.524506,33.602729],[114.478038,33.631171],[114.453054,33.64289],[114.379975,33.655626],[114.363699,33.664333],[114.347667,33.677802],[114.329031,33.687079],[114.2671,33.708197],[114.253429,33.708564],[114.153087,33.657782],[114.096446,33.637397],[114.079112,33.626899],[114.068126,33.613552],[114.052257,33.582302],[114.040701,33.568793],[114.018891,33.56269],[113.985362,33.563666],[113.951671,33.568712],[113.871511,33.593817],[113.840424,33.59752],[113.800141,33.594306],[113.784272,33.5963],[113.768891,33.600165],[113.758311,33.605292],[113.746023,33.608751],[113.689464,33.60989],[113.670665,33.620307],[113.657725,33.638495],[113.648204,33.655707],[113.640147,33.663113],[113.6303,33.665595],[113.628673,33.672309],[113.630056,33.679551],[113.629649,33.683702],[113.622162,33.685126],[113.607839,33.683417],[113.598643,33.683702],[113.50294,33.710232],[113.473562,33.708319],[113.439464,33.698188],[113.411794,33.680447],[113.402192,33.655585],[113.385509,33.67239],[113.37322,33.666531],[113.362315,33.651394],[113.34962,33.640163],[113.327403,33.637397],[113.305675,33.642157],[113.285655,33.651313],[113.210704,33.702908],[113.185476,33.726426],[113.176362,33.730821],[113.166515,33.731309],[113.140147,33.719184],[113.124766,33.716986],[113.001964,33.735175],[112.875987,33.728868],[112.831635,33.72838],[112.806651,33.734809],[112.759288,33.755072],[112.731619,33.756781],[112.720714,33.753445],[112.701671,33.742296],[112.691905,33.738471],[112.67685,33.736029],[112.670421,33.738064],[112.664561,33.743028],[112.651378,33.74962],[112.616466,33.756415],[112.54184,33.759101],[112.463471,33.778835],[112.443126,33.780382],[112.400076,33.772569],[112.378835,33.771064],[112.33489,33.775743]]]}},{"type":"Feature","properties":{"kind":"rivers","name":"Ying","source":"Natural Earth 1:10m"},"geometry":{"type":"MultiLineString","coordinates":[[[116.521902,32.498847],[116.480235,32.497667],[116.461925,32.507921],[116.445811,32.522406],[116.419444,32.533881],[116.410655,32.533881],[116.39503,32.529324],[116.385346,32.529812],[116.372488,32.535224],[116.356049,32.545233],[116.341319,32.556952],[116.333425,32.567572],[116.326264,32.590847],[116.318126,32.608018],[116.304128,32.619452],[116.278901,32.625067],[116.260916,32.639472],[116.241222,32.727607],[116.222097,32.757392],[116.202891,32.771796],[116.180919,32.773953],[116.127452,32.760199],[116.11671,32.763373],[116.109304,32.774766],[116.094249,32.793036],[116.067393,32.812364],[116.046804,32.815985],[116.025076,32.814317],[115.995372,32.818142],[115.929861,32.838731],[115.90089,32.852484],[115.871349,32.871527],[115.847992,32.891425],[115.80657,32.939765],[115.788829,32.96544],[115.775076,32.998155],[115.766775,33.00788],[115.753429,33.01321],[115.737234,33.015245],[115.72226,33.019151],[115.713145,33.030097],[115.706065,33.054063],[115.697846,33.071723],[115.684174,33.085761],[115.660818,33.098822],[115.622081,33.114773],[115.604096,33.125556],[115.589692,33.141669],[115.58546,33.153022],[115.580333,33.1789],[115.574311,33.18891],[115.556407,33.197699]]]}},{"type":"Feature","properties":{"kind":"rivers","name":"Yangtze","source":"Natural Earth 1:10m"},"geometry":{"type":"MultiLineString","coordinates":[[[119.606375,32.196885],[119.58782,32.19245],[119.572358,32.191759],[119.557384,32.200141],[119.54005,32.222113],[119.530365,32.231716],[119.517345,32.238064],[119.504812,32.239529],[119.452566,32.233466],[119.385753,32.237413],[119.365326,32.234402],[119.346202,32.226752],[119.324474,32.214626],[119.303722,32.206163],[119.278331,32.20128],[119.252208,32.200019],[119.229421,32.202663],[119.129242,32.228542],[119.078705,32.232733],[119.027843,32.2213],[118.96339,32.187771],[118.927745,32.176825],[118.909679,32.173896],[118.883474,32.173204],[118.820404,32.188992],[118.793224,32.192816],[118.78655,32.192694],[118.780284,32.191107],[118.774343,32.187079],[118.769054,32.18122],[118.764659,32.174506],[118.761485,32.168036],[118.759532,32.162909],[118.758474,32.160997],[118.747488,32.147244],[118.73406,32.124864],[118.706391,32.09337],[118.689464,32.062445],[118.668956,32.039496],[118.658376,32.030585],[118.645925,32.016181],[118.614838,31.990017],[118.586355,31.949571],[118.553315,31.916287],[118.540538,31.892442],[118.53476,31.884467],[118.504812,31.859198],[118.498627,31.851264],[118.448009,31.756415],[118.426199,31.724473],[118.41505,31.699774],[118.403819,31.623236],[118.379649,31.556179],[118.347992,31.507595],[118.31601,31.4713],[118.309825,31.460069],[118.305186,31.448798],[118.302175,31.438341],[118.301768,31.427802],[118.304861,31.416449],[118.31544,31.400824],[118.318614,31.394965],[118.322358,31.383165],[118.324474,31.371039],[118.32545,31.356391],[118.324474,31.338324],[118.3213,31.320828],[118.315115,31.308051],[118.306163,31.300401],[118.296641,31.29739],[118.220144,31.291124],[118.210053,31.287787],[118.173839,31.265896],[118.155935,31.259141],[118.112722,31.252509],[118.060557,31.233222],[118.040457,31.233344],[118.027843,31.243679],[118.014171,31.237616],[118.002371,31.223253],[117.995942,31.208604],[117.993582,31.19127],[117.992931,31.138983],[117.988699,31.122829],[117.980398,31.109971],[117.968272,31.100287],[117.952729,31.093573],[117.937266,31.088935],[117.921886,31.086005],[117.907156,31.087673],[117.894542,31.096788],[117.879242,31.12226],[117.870372,31.133328],[117.856863,31.140937],[117.839366,31.143663],[117.822765,31.141181],[117.807546,31.134385],[117.793386,31.124457],[117.781505,31.113959],[117.77239,31.103868],[117.766531,31.092108],[117.763276,31.076483],[117.763682,31.058702],[117.768891,31.023749],[117.768077,31.006659],[117.747162,30.943468],[117.732026,30.874457],[117.697276,30.803738],[117.687429,30.796658],[117.642589,30.789496],[117.608653,30.780137],[117.593354,30.773708],[117.552338,30.747829],[117.53712,30.740831],[117.466075,30.726264],[117.457937,30.722235],[117.436534,30.706366],[117.42921,30.70246],[117.421641,30.700507],[117.345876,30.698757],[117.326671,30.69477],[117.276947,30.673367],[117.260753,30.669623],[117.252371,30.670681],[117.234304,30.674913],[117.226003,30.673367],[117.2199,30.6671],[117.217703,30.658474],[117.217784,30.648953],[117.218842,30.640245],[117.220714,30.634304],[117.225678,30.623074],[117.22755,30.617377],[117.228038,30.611762],[117.224132,30.597235],[117.22405,30.586208],[117.232839,30.555121],[117.231293,30.543484],[117.225678,30.532497],[117.217865,30.522528],[117.209565,30.514024],[117.183116,30.499376],[117.150645,30.494249],[117.033295,30.490587],[117.007498,30.48371],[116.984386,30.471747],[116.94866,30.443427],[116.936127,30.435858],[116.925222,30.432929],[116.913259,30.431952],[116.901866,30.429755],[116.89267,30.423285],[116.888276,30.402615],[116.899099,30.380683],[116.913992,30.358588],[116.921397,30.33747],[116.920014,30.32453],[116.90683,30.270697],[116.896902,30.244208],[116.822276,30.115424],[116.808523,30.102078],[116.790538,30.090888],[116.716075,30.05976],[116.690522,30.0539],[116.662608,30.052761],[116.650076,30.050605],[116.636485,30.043321],[116.605072,30.017686],[116.593761,30.010565],[116.591726,30.005683],[116.587901,30.00198],[116.579112,29.995225],[116.575206,29.99079],[116.567149,29.976752],[116.548839,29.954128],[116.536632,29.923204],[116.526947,29.906684],[116.51295,29.89411],[116.492198,29.88463],[116.466563,29.880316],[116.414236,29.880561],[116.389171,29.876003],[116.356537,29.858262],[116.297537,29.808702],[116.265229,29.788886],[116.235932,29.781277],[116.206554,29.781317],[116.146983,29.788682],[116.110281,29.786444],[116.077647,29.776394],[116.012787,29.748155],[115.99879,29.744005],[115.888682,29.731757],[115.855724,29.738471],[115.743337,29.808783],[115.73642,29.816352],[115.72519,29.842637],[115.718191,29.854071],[115.704845,29.860704],[115.621104,29.862372],[115.534923,29.85456],[115.50644,29.857611],[115.46339,29.871283],[115.450043,29.87755],[115.437511,29.885362],[115.426687,29.895331],[115.417247,29.909369],[115.396088,29.956081],[115.386729,29.969672],[115.375906,29.980496],[115.338471,30.008002],[115.330496,30.018175],[115.301524,30.06741],[115.283376,30.10932],[115.275401,30.120958],[115.189952,30.208767],[115.164561,30.221055],[115.145518,30.222357],[115.106944,30.21955],[115.087983,30.224148],[115.072032,30.236029],[115.063569,30.25198],[115.061453,30.270453],[115.064138,30.289862],[115.072846,30.324246],[115.072765,30.341132],[115.064952,30.357367],[115.052989,30.369005],[114.987397,30.407416],[114.966075,30.41352],[114.94394,30.416042],[114.8803,30.414984],[114.860769,30.418891],[114.842703,30.428046],[114.829275,30.441107],[114.820567,30.457139],[114.810802,30.493191],[114.808035,30.511054],[114.808523,30.526313],[114.814057,30.539903],[114.826589,30.552802],[114.839936,30.563788],[114.851573,30.576931],[114.855398,30.591132],[114.844737,30.605658],[114.826671,30.613796],[114.806082,30.616278],[114.731456,30.609442],[114.714854,30.605414],[114.688487,30.590766],[114.67685,30.58629],[114.613048,30.573594],[114.600841,30.574286],[114.58017,30.581651],[114.56601,30.593329],[114.502371,30.673163],[114.484386,30.684353],[114.45753,30.690741],[114.429128,30.690294],[114.401378,30.683905],[114.375987,30.672675],[114.354015,30.656521],[114.311127,30.609646],[114.296397,30.586859]],[[116.19752,29.75141],[116.20753,29.779486]],[[113.127615,29.462755],[113.145437,29.471991],[113.16212,29.493109],[113.186046,29.531684],[113.415538,29.764472],[113.445974,29.780056],[113.497325,29.819403],[113.519216,29.84162],[113.590017,29.87991],[113.607026,29.890204],[113.629975,29.9088],[113.65032,29.929389],[113.664236,29.954617],[113.675955,29.961127],[113.687755,29.963446],[113.693126,29.959581],[113.703624,29.934149],[113.706716,29.9289],[113.748627,29.919989],[113.79241,29.933417],[113.831065,29.958279],[113.889659,30.013007],[113.92335,30.033555],[114.043956,30.07921],[114.062266,30.088935],[114.069835,30.103339],[114.064382,30.124376],[114.050873,30.136339],[114.015147,30.154853],[113.983409,30.185167],[113.964285,30.197943],[113.940115,30.203233],[113.918061,30.198065],[113.895274,30.188747],[113.874441,30.184841],[113.858165,30.195828],[113.857595,30.231065],[113.885509,30.265204],[113.927175,30.28852],[113.968028,30.291368],[113.983409,30.282579],[113.996755,30.268622],[114.018565,30.240505],[114.039073,30.2296],[114.053966,30.24018],[114.086029,30.31741],[114.106619,30.352322],[114.24171,30.497423],[114.287364,30.575995],[114.303233,30.593044]]]}},{"type":"Feature","properties":{"kind":"rivers","name":"Gan","source":"Natural Earth 1:10m"},"geometry":{"type":"MultiLineString","coordinates":[[[115.981944,29.279161],[115.981375,29.290229],[116.000011,29.302598],[116.041515,29.312445],[116.05185,29.332546],[116.051199,29.365424],[116.040945,29.403103],[116.045828,29.423651],[116.07073,29.44538],[116.091401,29.468858],[116.114675,29.492458],[116.127371,29.51793],[116.127045,29.545762],[116.134532,29.58043],[116.149099,29.616319],[116.161794,29.651435],[116.156993,29.680691],[116.160655,29.703192],[116.177257,29.719835],[116.192393,29.735867],[116.19752,29.75141]]]}},{"type":"Feature","properties":{"kind":"rivers","name":"Fuchun","source":"Natural Earth 1:10m"},"geometry":{"type":"MultiLineString","coordinates":[[[119.195567,29.50373],[119.176768,29.511176],[119.152192,29.515692],[119.103526,29.526679],[119.077403,29.538113],[118.97462,29.588568],[118.940033,29.617499],[118.917979,29.643988],[118.897065,29.655585],[118.875662,29.656806],[118.855561,29.660509],[118.831472,29.671942],[118.805919,29.682074],[118.783946,29.693671],[118.759532,29.705186],[118.737315,29.720974],[118.717784,29.726345]]]}},{"type":"Feature","properties":{"kind":"rivers","name":"Fuchun","source":"Natural Earth 1:10m"},"geometry":{"type":"MultiLineString","coordinates":[[[117.785167,29.707302],[117.793956,29.715155],[117.813975,29.743109],[117.831065,29.756659],[117.847667,29.75495],[117.896251,29.718085],[117.976654,29.675482],[117.98642,29.673122],[117.999929,29.67414],[118.007742,29.677314],[118.030203,29.694403],[118.035818,29.697618],[118.04184,29.699408],[118.047944,29.699164],[118.054698,29.696479],[118.065522,29.681993],[118.072765,29.661933],[118.081391,29.645616],[118.095876,29.642198],[118.121349,29.644721],[118.159597,29.633979],[118.183849,29.638983],[118.274832,29.682969],[118.302013,29.700629],[118.350515,29.745185],[118.376964,29.76142],[118.404877,29.763699],[118.425955,29.749945],[118.462169,29.709093],[118.469493,29.704901],[118.498139,29.692939],[118.530284,29.683865],[118.558116,29.68769],[118.615652,29.711697],[118.666026,29.725531],[118.691987,29.728217],[118.717784,29.726345]],[[119.195567,29.50373],[119.238699,29.480007],[119.274018,29.48961],[119.308116,29.509874],[119.346934,29.518012],[119.347585,29.515937],[119.35019,29.511257],[119.354747,29.506374],[119.360606,29.50373],[119.36614,29.504218],[119.416026,29.526557],[119.42213,29.52794],[119.433523,29.532009],[119.504487,29.538438],[119.534923,29.555935],[119.56894,29.584499],[119.599701,29.617214],[119.620616,29.647081],[119.655528,29.770046],[119.675304,29.805365],[119.751069,29.869981],[119.768484,29.872504],[119.786388,29.872911],[119.805675,29.87991],[119.823009,29.895535],[119.86378,29.95246],[119.872081,29.959093],[119.890554,29.967637],[119.898448,29.973253],[119.908132,29.984198],[119.92921,30.017646],[119.945323,30.037543],[119.95989,30.045111],[120.025808,30.046902],[120.045421,30.051866],[120.122813,30.082831],[120.140391,30.093451],[120.158783,30.11046],[120.160167,30.124945],[120.128835,30.153266],[120.121023,30.168524],[120.122976,30.180243],[120.128022,30.189276],[120.136648,30.194688],[120.148936,30.195828]]]}},{"type":"Feature","properties":{"kind":"rivers","name":"Hudi","source":"Natural Earth 1:10m"},"geometry":{"type":"MultiLineString","coordinates":[[[118.741791,33.094835],[118.730235,33.09573],[118.721283,33.114569],[118.719656,33.163031],[118.711518,33.201972],[118.687022,33.222927],[118.650971,33.23432],[118.590343,33.242784],[118.559255,33.225165],[118.536794,33.199083],[118.523448,33.168158],[118.507498,33.09752],[118.49879,33.073757],[118.467784,33.023017],[118.452403,33.006456],[118.428396,32.992011],[118.388601,32.976386],[118.351003,32.968085],[118.314138,32.970974],[118.289073,32.978339],[118.259695,32.998847],[118.253429,33.004828],[118.248139,33.013292],[118.223888,33.077826],[118.217052,33.105048],[118.216238,33.117051],[118.217784,33.142849],[118.220225,33.160346],[118.22047,33.164252],[118.219005,33.174425],[118.217784,33.179796],[118.214447,33.186591],[118.208751,33.193915],[118.196544,33.204861],[118.185313,33.21015],[118.177338,33.21247],[118.169444,33.213162],[118.16627,33.212266],[118.163503,33.210557],[118.160167,33.207099],[118.156993,33.19656],[118.156505,33.188666],[118.156749,33.185126],[118.156179,33.18126],[118.154552,33.179023],[118.151134,33.177558],[118.126882,33.173407],[118.077647,33.166775],[118.061615,33.163398],[118.034109,33.161078],[118.003917,33.161973],[117.979015,33.168158],[117.947276,33.169013],[117.914236,33.162462],[117.898041,33.146593],[117.894542,33.120225],[117.897634,33.095079],[117.898855,33.075141],[117.896007,33.061957],[117.888927,33.049831],[117.869314,33.040839],[117.84669,33.037136],[117.825694,33.036078],[117.783946,33.054063],[117.763601,33.054063],[117.763113,33.053738],[117.762625,33.05329]],[[119.28419,32.718288],[119.279226,32.747016],[119.278901,32.757392],[119.277761,32.779364],[119.284597,32.801215],[119.307221,32.83572],[119.325694,32.870063],[119.327078,32.899115],[119.313487,32.939765],[119.290457,32.975165],[119.288829,32.993842],[119.311534,33.006171],[119.325613,33.018663],[119.33546,33.034288],[119.337494,33.051581],[119.327078,33.066718],[119.316824,33.091173],[119.308686,33.11876],[119.293793,33.136786],[119.269216,33.148383],[119.25587,33.161811],[119.250987,33.183661],[119.230724,33.189805],[119.185557,33.170722],[119.167898,33.162462],[119.155365,33.146796],[119.141124,33.075141],[119.13323,33.063259],[119.119884,33.055447],[119.100841,33.047471],[119.055186,33.038886],[119.038178,33.037136],[119.012787,33.044298],[118.974864,33.056912],[118.944916,33.06037],[118.917084,33.055447],[118.894786,33.06212],[118.877615,33.083604],[118.860281,33.094509],[118.845876,33.095038]]]}},{"type":"Feature","properties":{"kind":"rivers","name":"Hudi","source":"Natural Earth 1:10m"},"geometry":{"type":"MultiLineString","coordinates":[[[118.743663,33.095038],[118.845876,33.095038]],[[116.521414,32.501247],[116.526541,32.509955],[116.558116,32.533311],[116.634695,32.541815],[116.646983,32.54975],[116.655772,32.561876],[116.722748,32.605577],[116.730724,32.608995],[116.736095,32.615424],[116.736339,32.628241],[116.729991,32.638536],[116.698171,32.659288],[116.690684,32.669501],[116.691824,32.67711],[116.699636,32.681912],[116.726166,32.68537],[116.727306,32.690741],[116.723643,32.69953],[116.723399,32.711453],[116.72462,32.722724],[116.723643,32.730536],[116.725841,32.73546],[116.736339,32.738105],[116.748057,32.736111],[116.752533,32.728461],[116.755056,32.718085],[116.759858,32.707709],[116.807628,32.689765],[116.812022,32.687038],[116.854991,32.648708],[116.878917,32.635525],[116.882823,32.632676],[116.896495,32.645616],[116.918224,32.658026],[116.939952,32.661729],[116.989024,32.662421],[117.010753,32.668036],[117.050792,32.685858],[117.068126,32.689765],[117.078298,32.699083],[117.085867,32.766059],[117.096283,32.803494],[117.104421,32.822292],[117.116222,32.837755],[117.137787,32.847683],[117.156505,32.847032],[117.169688,32.851345],[117.174571,32.875922],[117.172862,32.885321],[117.16684,32.904975],[117.167735,32.916287],[117.173432,32.924669],[117.191335,32.936957],[117.195079,32.940497],[117.20753,32.943874],[117.310964,32.943549],[117.408295,32.963202],[117.508474,32.971625],[117.527192,32.971137],[117.542084,32.965399],[117.57724,32.932888],[117.597585,32.92182],[117.647472,32.903266],[117.660574,32.919867],[117.677257,32.967231],[117.688487,32.985175],[117.701427,32.994412],[117.726654,33.006212],[117.740001,33.015896],[117.746755,33.02619],[117.74879,33.035997],[117.752371,33.045274],[117.763601,33.054063]],[[119.616222,32.353949],[119.601654,32.358181],[119.591319,32.357978],[119.533783,32.347602],[119.525808,32.348212],[119.518891,32.350531],[119.514089,32.355048],[119.51116,32.361274],[119.509532,32.368109],[119.509044,32.374783],[119.512543,32.396593],[119.512218,32.403917],[119.510265,32.410956],[119.503347,32.424384],[119.47877,32.456895],[119.47047,32.475409],[119.467703,32.489081],[119.471446,32.517646],[119.47169,32.53205],[119.467052,32.545518],[119.44044,32.577338],[119.434174,32.58865],[119.429617,32.600694],[119.425792,32.62169],[119.423595,32.628363],[119.415457,32.638739],[119.402924,32.646918],[119.389171,32.652777],[119.376069,32.656277],[119.36671,32.656928],[119.339366,32.652533],[119.331065,32.652859],[119.32252,32.654649],[119.314138,32.65766],[119.306733,32.661566],[119.300955,32.667304],[119.28419,32.718288]]]}},{"type":"Feature","properties":{"kind":"rivers","name":"Huai","source":"Natural Earth 1:10m"},"geometry":{"type":"MultiLineString","coordinates":[[[113.72047,32.416042],[113.727306,32.423448],[113.738048,32.416612],[113.746674,32.417344],[113.754893,32.421169],[113.765147,32.423448],[113.772472,32.422065],[113.796153,32.409776],[113.798432,32.422146],[113.804617,32.425727],[113.823416,32.423448],[113.825776,32.421454],[113.850678,32.409776],[113.856293,32.40294],[113.876882,32.343044],[113.878673,32.330634],[113.883067,32.318874],[113.892345,32.314561],[113.901785,32.311469],[113.905935,32.303331],[113.899099,32.285956],[113.899343,32.276679],[113.930186,32.264716],[113.943126,32.249945],[113.953624,32.241319],[113.968028,32.252143],[113.98406,32.242784],[114.003998,32.241645],[114.021007,32.249945],[114.033621,32.280829],[114.057058,32.301866],[114.062429,32.310167],[114.071788,32.36579],[114.084565,32.39704],[114.104015,32.409776],[114.102957,32.426378],[114.113373,32.44245],[114.130382,32.449815],[114.148692,32.440212],[114.158783,32.426581],[114.163259,32.422146],[114.172293,32.416042],[114.182058,32.410753],[114.193614,32.406928],[114.204682,32.406033],[114.213878,32.409776],[114.237722,32.389472],[114.310069,32.360785],[114.325694,32.348415],[114.341319,32.329901],[114.354991,32.308214],[114.364757,32.286241],[114.382335,32.292426],[114.400483,32.287706],[114.419526,32.280544],[114.44044,32.278835],[114.471283,32.294216],[114.490245,32.300482],[114.5053,32.296495],[114.521902,32.287706],[114.53655,32.292426],[114.552745,32.301703],[114.573741,32.306749],[114.585704,32.30504],[114.595225,32.302558],[114.604096,32.303046],[114.614513,32.310167],[114.622651,32.312567],[114.646902,32.309678],[114.658946,32.313585],[114.659679,32.287421],[114.678233,32.292589],[114.717296,32.31977],[114.737804,32.314236],[114.762787,32.303534],[114.787608,32.29682],[114.806651,32.303331],[114.823253,32.305854],[114.880382,32.292751],[114.899018,32.286241],[114.919688,32.274115],[114.930756,32.270819],[114.94752,32.27265],[114.958018,32.277615],[114.971772,32.292589],[114.981619,32.299913],[115.004649,32.292751],[115.033376,32.29324],[115.060557,32.298774],[115.07724,32.306749],[115.096202,32.352403],[115.108897,32.368598],[115.12558,32.35456],[115.145437,32.359402],[115.165457,32.356472],[115.182628,32.34748],[115.193858,32.334052],[115.199474,32.338446],[115.205333,32.34162],[115.211436,32.341986],[115.217459,32.337755],[115.224864,32.333808],[115.231375,32.337592],[115.237804,32.343817],[115.245128,32.347113],[115.274425,32.348212],[115.288503,32.351345],[115.348643,32.3817],[115.367198,32.397569],[115.351003,32.409776],[115.351003,32.416042],[115.361095,32.421698],[115.371349,32.423285],[115.379893,32.419623],[115.385753,32.409776],[115.392589,32.409776],[115.42628,32.434394],[115.530203,32.401068],[115.564464,32.409776]],[[115.564464,32.402371],[115.585378,32.412299],[115.60906,32.416287],[115.630951,32.413275],[115.646414,32.402371],[115.687104,32.46662],[115.693614,32.491767],[115.726085,32.481147],[115.741628,32.479112],[115.754487,32.498155],[115.768484,32.490994],[115.789806,32.470649],[115.808116,32.503282],[115.843191,32.542426],[115.884288,32.571601],[115.920014,32.574286],[115.961192,32.598944],[115.989268,32.610622],[116.002045,32.604682],[116.009695,32.590928],[116.026866,32.574734],[116.057384,32.553168],[116.076427,32.543728],[116.096121,32.530382],[116.101573,32.527859],[116.107188,32.524441],[116.111908,32.51907],[116.113292,32.512966],[116.112397,32.506619],[116.112071,32.500434],[116.12672,32.478827],[116.136974,32.457587],[116.150971,32.438666],[116.174083,32.429633],[116.242931,32.46072],[116.246674,32.477729],[116.257091,32.496405],[116.271658,32.511786],[116.28948,32.51907],[116.313731,32.512763],[116.346446,32.478583],[116.362315,32.470649],[116.377615,32.465766],[116.421316,32.443142],[116.440929,32.436469],[116.481293,32.445095],[116.505382,32.475043],[116.521414,32.501247]]]}},{"type":"Feature","properties":{"kind":"rivers","name":null,"source":"Natural Earth 1:10m"},"geometry":{"type":"MultiLineString","coordinates":[[[117.955496,31.497992],[117.981456,31.452908],[118.030935,31.438544],[118.086436,31.432644],[118.147472,31.403998],[118.253184,31.393012],[118.269786,31.400214],[118.298595,31.429145]]]}},{"type":"Feature","properties":{"kind":"rivers","name":"Huang","source":"Natural Earth 1:10m"},"geometry":{"type":"MultiLineString","coordinates":[[[114.837576,35.019802],[114.84726,35.03795],[114.846772,35.081488],[114.864757,35.120469],[114.859874,35.140448],[114.851573,35.159491],[114.851329,35.178046],[114.864024,35.188585],[114.913178,35.208075],[114.930186,35.211615],[114.941417,35.218777],[114.981619,35.266872],[115.002045,35.284735],[115.008881,35.294135],[115.021495,35.324774],[115.025971,35.332343],[115.053722,35.366767],[115.067963,35.379991],[115.091563,35.390326],[115.121755,35.393866],[115.131847,35.397773],[115.13974,35.404608],[115.14446,35.410997],[115.150483,35.415798],[115.162608,35.41767],[115.205577,35.414618],[115.226329,35.416124],[115.248546,35.424506],[115.266043,35.436143],[115.306814,35.475694],[115.316742,35.479356],[115.329194,35.480984],[115.340017,35.485053],[115.344737,35.496161],[115.342377,35.505479],[115.332286,35.523261],[115.330496,35.534369],[115.341319,35.555365],[115.383311,35.55744],[115.392589,35.572211],[115.392589,35.597032],[115.394786,35.615749],[115.402843,35.630479],[115.420421,35.643581],[115.467296,35.663438],[115.491791,35.678087],[115.502452,35.69538],[115.501964,35.716498],[115.503917,35.722724],[115.53655,35.719306],[115.576182,35.722235],[115.617686,35.731147],[115.654714,35.746283],[115.680593,35.767768],[115.729747,35.83043],[115.76116,35.849148],[115.850678,35.858954],[115.873546,35.865505],[115.885916,35.87755],[115.883718,35.887519],[115.874034,35.895046],[115.863373,35.900458],[115.858002,35.904242],[115.857921,35.916327],[115.86321,35.924913],[115.919932,35.967719],[115.943777,35.979682],[115.954275,35.976589],[115.965424,35.985785],[115.990733,35.980821],[116.033295,35.965684],[116.038992,35.976182],[116.064138,36.040839],[116.078298,36.051337],[116.086925,36.059149],[116.091401,36.068142],[116.089936,36.078477],[116.080333,36.098456],[116.077729,36.109727],[116.087494,36.11225],[116.110281,36.113715],[116.119314,36.116523],[116.12851,36.125027],[116.132823,36.134548],[116.135509,36.1435],[116.13974,36.150702],[116.198822,36.172553],[116.269623,36.240058],[116.311941,36.293321],[116.327891,36.30154],[116.347179,36.303656],[116.388113,36.313056],[116.410167,36.315212],[116.41684,36.318549],[116.454275,36.345526],[116.477061,36.355902],[116.530854,36.397732],[116.566417,36.410102],[116.575043,36.414822],[116.586029,36.427598],[116.597585,36.447577],[116.598643,36.467353],[116.578624,36.4796],[116.591319,36.48664],[116.601654,36.494981],[116.605561,36.504421],[116.598562,36.514431],[116.606375,36.524441],[116.633311,36.547919],[116.651134,36.577582],[116.65683,36.582709],[116.673106,36.58869],[116.736339,36.624294],[116.749522,36.643012],[116.768077,36.684882],[116.780772,36.702745],[116.79599,36.712714],[116.858653,36.740343],[116.881114,36.742743],[116.937755,36.733507],[116.943777,36.730496],[116.952647,36.724555],[116.962576,36.720526],[116.972179,36.723253],[116.976654,36.725938],[116.981619,36.726874],[116.992442,36.726671],[116.999604,36.729438],[117.003917,36.735785],[117.006928,36.742703],[117.009939,36.747138],[117.070323,36.783311],[117.088878,36.788764],[117.105724,36.796251],[117.116791,36.813747],[117.133474,36.849555],[117.163585,36.87995],[117.176199,36.898953],[117.181407,36.922187],[117.189464,36.93419],[117.226329,36.961046],[117.235932,36.980536],[117.234386,36.991767],[117.229747,37.000271],[117.226573,37.009141],[117.229747,37.021511],[117.237804,37.031033],[117.257091,37.038275],[117.284923,37.059394],[117.302257,37.062934],[117.345795,37.062527],[117.388113,37.073188],[117.552257,37.149237],[117.570811,37.16413],[117.578624,37.181952],[117.584239,37.200303],[117.597585,37.222357],[117.613373,37.242296],[117.627045,37.254259],[117.648204,37.260118],[117.668468,37.257025],[117.689138,37.2508],[117.712332,37.247423],[117.760509,37.247423],[117.771658,37.249864],[117.805186,37.26789],[117.827403,37.272081],[117.847097,37.269395],[117.867117,37.264431],[117.890554,37.261746],[117.908214,37.26789],[117.962169,37.309516],[117.983165,37.316759],[118.029796,37.327338],[118.06544,37.352078],[118.087006,37.356147],[118.133474,37.357286],[118.182221,37.366482],[118.207042,37.375271],[118.226003,37.387722],[118.229421,37.396308],[118.222992,37.428656],[118.225515,37.438788],[118.231537,37.450222],[118.243337,37.466579],[118.256602,37.478095],[118.281749,37.495144],[118.29127,37.508124],[118.295421,37.524359],[118.299327,37.560574],[118.304779,37.576443],[118.328868,37.596381],[118.365245,37.606879],[118.519135,37.615668],[118.55421,37.626492],[118.585948,37.644639],[118.672862,37.718695],[118.68157,37.733466],[118.710053,37.749823],[118.722585,37.754503],[118.758718,37.760281],[118.78655,37.774726],[118.860362,37.796169],[118.897065,37.824327],[118.917003,37.830634],[118.938894,37.819403],[118.9546,37.808783],[118.978038,37.79975],[119.003429,37.796251],[119.033214,37.802558]],[[110.269949,34.637274],[110.297862,34.621161],[110.335134,34.615749],[110.367686,34.617499],[110.37672,34.615749],[110.387218,34.608222],[110.393321,34.599677],[110.399669,34.592475],[110.410818,34.589057],[110.42213,34.590644],[110.426524,34.595893],[110.429861,34.602729],[110.437592,34.608913],[110.44866,34.61286],[110.459076,34.614854],[110.482921,34.615749],[110.491628,34.613145],[110.500662,34.607001],[110.517019,34.592475],[110.530284,34.583604],[110.539643,34.584296],[110.548839,34.589911],[110.561697,34.595893],[110.584483,34.600857],[110.64739,34.602078],[110.708425,34.620917],[110.718761,34.626288],[110.725841,34.642442],[110.743175,34.654242],[110.765636,34.661241],[110.883474,34.666042],[110.922862,34.685736],[110.910574,34.732449],[110.933116,34.735175],[110.973155,34.716824],[110.989757,34.721869],[111.007253,34.737494],[111.025483,34.747423],[111.109304,34.768622],[111.124278,34.778632],[111.138438,34.819159],[111.157644,34.82213],[111.198416,34.808132],[111.215261,34.800076],[111.222667,34.798529],[111.232595,34.800727],[111.237641,34.806464],[111.240652,34.815701],[111.245616,34.824246],[111.256602,34.827989],[111.268972,34.82449],[111.276541,34.818427],[111.284679,34.816352],[111.307384,34.83157],[111.318858,34.837104],[111.331065,34.840847],[111.342459,34.842312],[111.352794,34.839382],[111.373057,34.825751],[111.383474,34.821804],[111.393972,34.823188],[111.421397,34.835476],[111.444591,34.83747],[111.557384,34.863308],[111.569021,34.868964],[111.572276,34.87405],[111.578298,34.890326],[111.582123,34.896918],[111.586681,34.900458],[111.597179,34.904975],[111.603282,34.909939],[111.610606,34.92121],[111.622,34.94713],[111.630463,34.958319],[111.641368,34.964382],[111.667979,34.97248],[111.678315,34.978827],[111.670339,34.997382],[111.682709,35.007839],[111.704031,35.012519],[111.723074,35.013536],[111.740652,35.018907],[111.763276,35.042344],[111.778331,35.047716],[111.796153,35.051703],[111.807628,35.061306],[111.816905,35.072821],[111.829112,35.082465],[111.845795,35.086982],[111.881847,35.089301],[111.897472,35.096137],[111.915294,35.089911],[111.957449,35.094062],[111.976166,35.085557],[111.99171,35.073757],[112.034679,35.047716],[112.058116,35.033393],[112.12558,35.023953],[112.151378,35.013536],[112.161632,35.000312],[112.178966,34.970811],[112.189138,34.965155],[112.202159,34.962958],[112.218028,34.957709],[112.232351,34.950995],[112.240733,34.944688],[112.256114,34.958035],[112.265066,34.963446],[112.274832,34.965155],[112.281505,34.961534],[112.284679,34.954535],[112.288992,34.947781],[112.299083,34.944688],[112.324474,34.941433],[112.361095,34.924669],[112.384044,34.917344],[112.466726,34.910346],[112.480235,34.906806],[112.490896,34.897976],[112.73406,34.808132],[112.779226,34.797919],[112.823253,34.800605],[112.912364,34.821804],[113.047374,34.831651],[113.089773,34.842312],[113.130382,34.860175],[113.151134,34.866523],[113.175792,34.868964],[113.19752,34.876288],[113.210134,34.893866],[113.22698,34.931667],[113.24879,34.948554],[113.270763,34.951443],[113.292491,34.951931],[113.329275,34.968777],[113.353608,34.972357],[113.497569,34.965155],[113.508718,34.968695],[113.521251,34.975287],[113.534109,34.979519],[113.545665,34.975694],[113.590017,34.944688],[113.665619,34.907538],[113.70574,34.89529],[113.74822,34.890692],[113.759044,34.89171],[113.779877,34.896186],[113.789236,34.896918],[113.800792,34.894395],[113.826915,34.883246],[113.836925,34.882148],[113.856537,34.877509],[113.867768,34.87641],[113.877208,34.878201],[113.89503,34.887152],[113.905935,34.890692],[113.918793,34.891628],[113.930919,34.89114],[113.942393,34.891954],[113.953868,34.896918],[113.963145,34.907294],[113.970795,34.930528],[113.977631,34.94127],[113.997813,34.949083],[114.02239,34.945339],[114.062429,34.931667],[114.085134,34.930772],[114.155284,34.937852],[114.179454,34.935981],[114.303233,34.898464],[114.323741,34.896918],[114.343842,34.901313],[114.378917,34.918484],[114.399425,34.92418],[114.421641,34.924669],[114.493663,34.906073],[114.501394,34.903103],[114.509288,34.901923],[114.52239,34.903673],[114.53183,34.906684],[114.546397,34.914252],[114.556407,34.917344],[114.577403,34.91767],[114.609467,34.902655],[114.631602,34.896918],[114.646007,34.897528],[114.654389,34.901679],[114.65976,34.906602],[114.665619,34.909939],[114.676362,34.910712],[114.698822,34.909247],[114.707286,34.909939],[114.729991,34.920925],[114.745128,34.936347],[114.768891,34.972602],[114.781668,34.985867],[114.83074,35.019802]]]}}]}