{"type":"FeatureCollection","features":[{"type":"Feature","properties":{"kind":"rivers","name":"Jiulong","source":"Natural Earth 1:10m"},"geometry":{"type":"MultiLineString","coordinates":[[[116.79835,25.012803],[116.841401,24.993354],[116.888927,24.988837],[116.934988,24.99962],[116.973888,25.025987],[116.991628,25.047919],[117.044444,25.135362],[117.086192,25.189724],[117.122162,25.255235],[117.133311,25.270941],[117.142589,25.278998],[117.280854,25.331366],[117.295665,25.331366],[117.30714,25.325385],[117.317475,25.31684],[117.329275,25.309394],[117.343842,25.304511],[117.450694,25.287624],[117.483328,25.277126],[117.498546,25.260565],[117.50172,25.249091],[117.511729,25.226874],[117.513194,25.215644],[117.510753,25.204454],[117.502615,25.182563],[117.499766,25.171169],[117.502615,25.145779],[117.52532,25.106065],[117.530528,25.085964],[117.528412,25.075995],[117.518077,25.058661],[117.514171,25.049425],[117.511241,25.031277],[117.510834,24.995429],[117.503184,24.959581],[117.503022,24.941107],[117.507091,24.923204],[117.516043,24.907009],[117.546804,24.873847],[117.555431,24.861192],[117.592296,24.762315],[117.597992,24.752509],[117.617198,24.73078],[117.622569,24.715766],[117.624929,24.682685],[117.628998,24.6671],[117.638601,24.654812],[117.662852,24.640692],[117.674246,24.630683],[117.682546,24.616523],[117.696788,24.584011],[117.70696,24.56977],[117.755789,24.535712],[117.768321,24.521064],[117.773692,24.504828],[117.774913,24.48961],[117.778331,24.47488],[117.790538,24.459784]]]}},{"type":"Feature","properties":{"kind":"rivers","name":"Mei","source":"Natural Earth 1:10m"},"geometry":{"type":"MultiLineString","coordinates":[[[116.102468,27.10696],[116.056163,26.942084],[116.054861,26.920925],[116.058849,26.908555],[116.072276,26.886013],[116.077647,26.874213],[116.082937,26.847724],[116.083425,26.819648],[116.070079,26.738634],[115.997,26.416856],[115.986501,26.388454],[115.98585,26.381619],[115.98642,26.367621],[115.98463,26.358466],[115.97934,26.356553],[115.97226,26.356716],[115.964854,26.353461],[115.947683,26.335232],[115.911143,26.280626],[115.886241,26.25491],[115.878429,26.244452],[115.871755,26.230536],[115.859386,26.185736],[115.846609,26.16824],[115.828054,26.167996],[115.789073,26.180284],[115.77825,26.17711],[115.761485,26.161811],[115.750499,26.158393],[115.742279,26.161322],[115.72462,26.175238],[115.716319,26.179999],[115.698741,26.17768],[115.684825,26.163357],[115.664561,26.127794],[115.631602,26.086737],[115.594493,26.064073],[115.55128,26.055243],[115.482921,26.054389],[115.465424,26.048774],[115.449474,26.039374],[115.436697,26.026557],[115.429861,26.012803],[115.424897,25.983832],[115.419688,25.970811],[115.408132,25.957546],[115.395763,25.950629],[115.361908,25.941474],[115.279307,25.901923],[115.259532,25.898749],[115.242605,25.902899],[115.204112,25.919135],[115.169932,25.924262],[115.158946,25.927069],[115.122162,25.947577],[115.107839,25.950019],[115.092703,25.942939],[115.084727,25.926215],[115.075694,25.889228]]]}},{"type":"Feature","properties":{"kind":"rivers","name":"Gan","source":"Natural Earth 1:10m"},"geometry":{"type":"MultiLineString","coordinates":[[[114.412527,24.707058],[114.43214,24.710639],[114.448822,24.707709],[114.465424,24.702826],[114.484874,24.700222],[114.501964,24.708767],[114.521983,24.746365],[114.539643,24.754828],[114.559825,24.758246],[114.575287,24.766872],[114.587494,24.778144],[114.602794,24.796576],[114.61378,24.815538],[114.619151,24.824164],[114.625662,24.830878],[114.635265,24.835232],[114.648936,24.836778],[114.665538,24.845242],[114.685476,24.862128],[114.70696,24.875067],[114.727794,24.871527],[114.734386,24.89171],[114.739513,24.902899],[114.748953,24.912543],[114.768891,24.904079],[114.771088,24.921942],[114.766368,24.948025],[114.765391,24.963975],[114.776296,24.980496],[114.782481,24.999091],[114.784597,25.018134],[114.779307,25.055528],[114.776134,25.060574],[114.768891,25.069525],[114.760265,25.076239],[114.751231,25.080593],[114.744314,25.087104],[114.741466,25.100531],[114.751964,25.103949],[114.817149,25.138454],[114.828298,25.141547],[114.857514,25.14529],[114.86142,25.148464],[114.87379,25.154731],[114.886811,25.157091],[114.894949,25.145575],[114.899425,25.144558],[114.903901,25.145575],[114.905854,25.148708],[114.904796,25.154608],[114.902436,25.157904],[114.900076,25.15998],[114.899018,25.162624],[114.897634,25.190619],[114.899018,25.193671],[114.892507,25.201768],[114.87794,25.211982],[114.871755,25.220323],[114.869151,25.2296],[114.865001,25.265692],[114.868744,25.273017],[114.896007,25.29267],[114.898529,25.30447],[114.891043,25.316474],[114.881602,25.327826],[114.878673,25.337673],[114.885671,25.34394],[114.911632,25.353827],[114.919688,25.358181],[114.922293,25.367743],[114.921886,25.378974],[114.924734,25.388373],[114.937022,25.392279],[114.955658,25.401557],[114.964366,25.422634],[114.96339,25.445828],[114.953705,25.461208],[114.969005,25.47545],[114.990489,25.488837],[115.003917,25.505439],[114.995209,25.529486],[115.007335,25.551866],[115.008474,25.57099],[115.002615,25.621934],[115.009288,25.642686],[115.024669,25.657782],[115.042735,25.671332],[115.057384,25.68712],[115.073253,25.686632],[115.083914,25.706488],[115.089773,25.732978],[115.091563,25.752265],[115.089692,25.761786],[115.086355,25.768378],[115.086681,25.775336],[115.103119,25.798407],[115.10255,25.807725],[115.098888,25.81745],[115.098399,25.830512],[115.110932,25.850857],[115.111908,25.858425],[115.106619,25.865831],[115.088634,25.881863],[115.084727,25.888861],[115.079845,25.892198],[115.033783,25.893907],[115.027761,25.895616],[115.023448,25.893907],[115.015717,25.885118],[115.011241,25.875515],[115.010346,25.866645],[115.007091,25.85871],[114.995209,25.85163],[114.983653,25.850857],[114.967784,25.853217],[114.953543,25.857367],[114.94752,25.862128],[114.944347,25.867296],[114.937266,25.874538],[114.930186,25.88406],[114.927013,25.896023],[114.930431,25.906358],[114.937266,25.91706],[114.942393,25.928331],[114.940684,25.940375],[114.932628,25.945258],[114.908132,25.947292],[114.899018,25.954047],[114.897472,25.966254],[114.902436,25.977729],[114.909272,25.988471],[114.917898,26.020616],[114.929779,26.034125],[114.943451,26.044379],[114.953705,26.057074],[114.959483,26.077501],[114.95753,26.091335],[114.949636,26.099962],[114.937999,26.105414],[114.909679,26.113959],[114.898529,26.120795],[114.892833,26.132148],[114.895274,26.140489],[114.918224,26.19599],[114.924571,26.207343],[114.935069,26.213894],[114.953705,26.214708],[114.919688,26.27615],[114.923839,26.305609],[114.901378,26.340644],[114.792491,26.439887],[114.786143,26.447455],[114.771251,26.45246],[114.703624,26.502143],[114.684255,26.520331],[114.671967,26.540635],[114.67628,26.560411],[114.80364,26.675564],[114.809825,26.691107],[114.81129,26.710883],[114.816417,26.736599],[114.825206,26.760932],[114.837576,26.776435],[114.854747,26.782091],[114.92335,26.790066],[114.940847,26.794216],[114.989675,26.815456],[115.002615,26.824815],[115.009939,26.862494],[114.972179,26.920681],[114.981619,26.955146],[114.995128,26.964952],[115.013601,26.975043],[115.029877,26.987901],[115.036794,27.006415],[115.03004,27.028428],[115.014171,27.040798],[114.995616,27.05036],[114.981619,27.063788],[114.974701,27.108507],[114.998139,27.142198],[115.089936,27.200507],[115.102631,27.212429],[115.109874,27.228298],[115.111908,27.252794],[115.110932,27.274482],[115.111827,27.285753],[115.115326,27.294053],[115.115245,27.302029],[115.098399,27.338731],[115.095307,27.367011],[115.091563,27.379706],[115.073416,27.412136],[115.067963,27.433173],[115.063569,27.443386],[115.063487,27.451483],[115.074148,27.454861],[115.086436,27.455146],[115.095714,27.456814],[115.10377,27.460883],[115.111908,27.468533],[115.121104,27.487657],[115.135509,27.534857],[115.149506,27.544216],[115.166515,27.550849],[115.180675,27.566474],[115.214936,27.626044],[115.220632,27.632921],[115.229015,27.637274],[115.249278,27.643581],[115.276134,27.662462],[115.314382,27.680772],[115.330496,27.695095],[115.331554,27.699286],[115.329682,27.710476],[115.330496,27.714911],[115.333018,27.71662],[115.342214,27.720567],[115.344737,27.722357],[115.368337,27.753852],[115.372081,27.759874],[115.375418,27.780788],[115.383881,27.804389],[115.425304,27.874945],[115.431733,27.893012],[115.436127,27.959011],[115.440115,27.977403],[115.447765,27.996039],[115.483165,28.056016],[115.492198,28.065009],[115.51588,28.069159],[115.532725,28.080186],[115.557058,28.11282],[115.583018,28.13699],[115.622081,28.159206],[115.666515,28.176947],[115.707937,28.187852],[115.757742,28.189887],[115.772634,28.198432],[115.783376,28.21369],[115.789236,28.228135],[115.798757,28.238878],[115.820811,28.243109],[115.833018,28.247504],[115.846609,28.258246],[115.858409,28.271755],[115.865489,28.284044],[115.868175,28.300482],[115.864838,28.3133],[115.851736,28.339301],[115.841726,28.392524],[115.834483,28.400743],[115.824474,28.40587],[115.819591,28.418728],[115.8178,28.451687],[115.820323,28.468695],[115.825287,28.481391],[115.828054,28.493923],[115.823985,28.510606],[115.796641,28.565253],[115.803233,28.581],[115.807384,28.606147],[115.815929,28.629462],[115.834483,28.639716],[115.885916,28.71544],[115.901134,28.751247],[115.911143,28.769151],[115.938569,28.787543],[115.981537,28.853298],[115.98642,28.879014],[115.989024,28.886786],[116.001475,28.902045],[116.007091,28.911648],[116.01295,28.938015],[116.027354,28.974189],[116.029877,28.996649],[116.023204,29.037624],[116.018565,29.046454],[116.004893,29.066352],[116.002045,29.075466],[116.001069,29.085964],[115.996755,29.106391],[115.997162,29.180243],[115.995942,29.188422],[116.002208,29.208523],[115.998953,29.230007],[115.981944,29.279161]]]}},{"type":"Feature","properties":{"kind":"rivers","name":"Min","source":"Natural Earth 1:10m"},"geometry":{"type":"MultiLineString","coordinates":[[[117.489187,27.866319],[117.455089,27.791287],[117.44752,27.724433],[117.441417,27.708075],[117.430919,27.699246],[117.423839,27.700141],[117.417003,27.703315],[117.407319,27.701239],[117.39796,27.693956],[117.343435,27.618516],[117.338959,27.60224],[117.33546,27.558051],[117.337901,27.538642],[117.349213,27.530585],[117.357921,27.52265],[117.370372,27.504014],[117.381358,27.482286],[117.393647,27.444037],[117.426524,27.412055],[117.434011,27.396796],[117.437266,27.380561],[117.445811,27.361599],[117.458995,27.348944],[117.475597,27.351833],[117.565359,27.2803],[117.578624,27.263007],[117.586192,27.249945],[117.587006,27.243028],[117.578624,27.222113],[117.576671,27.206],[117.576752,27.182888],[117.580333,27.162177],[117.588878,27.153144],[117.61085,27.142646],[117.627533,27.117947],[117.6421,27.089382],[117.657481,27.067206],[117.675548,27.055609],[117.678152,27.049872],[117.671153,27.040554],[117.667735,27.032538],[117.668875,27.022325],[117.672862,27.013536],[117.691742,27.001573],[117.729503,26.947781],[117.720714,26.934638],[117.729096,26.926581],[117.742768,26.919704],[117.750011,26.910224],[117.750011,26.875759],[117.753429,26.867703],[117.768158,26.853095],[117.771576,26.848456],[117.780854,26.815212],[117.804291,26.791042],[117.835134,26.777533],[117.867198,26.776435],[117.884776,26.788031],[117.894216,26.790066],[117.905528,26.78795],[117.923106,26.778591],[117.946788,26.773383],[117.965912,26.765815],[117.982432,26.755927],[117.989513,26.746039],[117.991954,26.729844],[118.00172,26.707628],[118.003184,26.694525],[117.996674,26.675808],[117.971283,26.648708],[117.962169,26.633083],[117.969168,26.629096],[117.988373,26.623114],[117.996349,26.61876],[118.013438,26.595771],[118.013682,26.591417],[118.071544,26.586859],[118.092459,26.591417],[118.108328,26.600124],[118.143484,26.628241],[118.157725,26.642646],[118.16627,26.638007],[118.236501,26.625596],[118.245372,26.619493],[118.257498,26.60456],[118.264415,26.598253],[118.294688,26.585517],[118.310069,26.575954],[118.329112,26.569607],[118.332774,26.565009],[118.336925,26.558417],[118.358328,26.552558],[118.366791,26.547634],[118.370616,26.539862],[118.37672,26.516669],[118.380463,26.50727],[118.398367,26.487657],[118.401134,26.482733],[118.403738,26.479356],[118.408295,26.468858],[118.410248,26.457831],[118.404796,26.452663],[118.399425,26.44892],[118.392507,26.439805],[118.387299,26.428494],[118.387299,26.417914],[118.408783,26.404079],[118.446788,26.402655],[118.65797,26.417914],[118.671804,26.409369],[118.668549,26.371853],[118.678233,26.363308],[118.6928,26.362738],[118.703868,26.360297],[118.714285,26.355007],[118.726166,26.345893],[118.754893,26.317898],[118.770518,26.306464],[118.799734,26.29918],[118.840424,26.283515],[118.853526,26.273871],[118.842052,26.248725],[118.849132,26.23196],[118.866954,26.220771],[118.887706,26.21247],[118.898204,26.219062],[118.912527,26.219672],[118.942312,26.21247],[118.959727,26.200303],[118.966807,26.198188],[118.993744,26.1942],[119.000987,26.195502],[119.015717,26.200629],[119.024832,26.201036],[119.032481,26.19831],[119.044526,26.188829],[119.057384,26.181179],[119.078868,26.154486],[119.093761,26.145819]]]}},{"type":"Feature","properties":{"kind":"rivers","name":"Ou","source":"Natural Earth 1:10m"},"geometry":{"type":"MultiLineString","coordinates":[[[119.041108,27.788194],[119.000092,27.794298],[118.974539,27.818793],[118.967784,27.853583],[118.983816,27.890489],[119.067475,27.990505],[119.097341,28.047309],[119.112315,28.062201],[119.127371,28.069403],[119.174327,28.079454],[119.190929,28.091091],[119.220225,28.12169],[119.23878,28.130927],[119.277192,28.130072],[119.355235,28.106716],[119.39267,28.107204],[119.402192,28.111192],[119.410655,28.117214],[119.474294,28.182318],[119.501394,28.202704],[119.533783,28.213813],[119.549571,28.213446],[119.591319,28.201443],[119.613048,28.204942],[119.629812,28.217312],[119.658132,28.249823],[119.752452,28.320746],[119.772634,28.34044],[119.832042,28.428534],[119.848725,28.441107],[119.868337,28.44477],[119.891531,28.437201],[119.915294,28.415107],[119.938975,28.361151],[119.958507,28.338446],[119.976085,28.330675],[120.033783,28.32746],[120.065929,28.31977],[120.096121,28.306464],[120.106293,28.297675],[120.123139,28.274441],[120.13323,28.266628],[120.146251,28.262803],[120.15797,28.261339],[120.169688,28.258653],[120.182221,28.251166],[120.192149,28.242051],[120.198822,28.233181],[120.214773,28.202094],[120.22047,28.194648],[120.233653,28.182929],[120.266124,28.156602],[120.276541,28.14997],[120.289561,28.144965],[120.318126,28.140692],[120.333507,28.140937],[120.34669,28.143744],[120.379242,28.160183],[120.391694,28.161811],[120.404389,28.159247],[120.44337,28.1435],[120.460134,28.141059],[120.511648,28.141221],[120.526378,28.138048],[120.569591,28.113389]]]}}]}