{"type":"FeatureCollection","features":[{"type":"Feature","properties":{"kind":"lakes","name":null,"source":"Natural Earth 1:10m"},"geometry":{"type":"Polygon","coordinates":[[[114.433617,30.066171],[114.435972,30.067054],[114.436855,30.067054],[114.435677,30.066466],[114.433617,30.066171]]]}},{"type":"Feature","properties":{"kind":"lakes","name":null,"source":"Natural Earth 1:10m"},"geometry":{"type":"Polygon","coordinates":[[[114.440093,30.067349],[114.436855,30.067054],[114.440976,30.068526],[114.440093,30.067349]]]}},{"type":"Feature","properties":{"kind":"lakes","name":"鄱阳湖","source":"Natural Earth 1:10m"},"geometry":{"type":"Polygon","coordinates":[[[116.677555,29.173365],[116.688446,29.168066],[116.715233,29.137158],[116.715233,29.097125],[116.70758,29.082995],[116.688446,29.07858],[116.690801,29.091826],[116.689918,29.112137],[116.684325,29.127739],[116.656655,29.12715],[116.645763,29.112726],[116.637227,29.091826],[116.6334,29.072398],[116.625747,29.074164],[116.622803,29.075636],[116.618976,29.07858],[116.623686,29.086233],[116.62663,29.094475],[116.627513,29.103601],[116.626335,29.113315],[116.623686,29.120968],[116.619271,29.130682],[116.615444,29.135686],[116.607202,29.117436],[116.593072,29.12244],[116.576588,29.13392],[116.564519,29.140691],[116.556865,29.137158],[116.543325,29.12244],[116.537143,29.119496],[116.529784,29.123617],[116.523308,29.132154],[116.518598,29.142457],[116.516537,29.151288],[116.506823,29.160707],[116.48769,29.159824],[116.47621,29.152171],[116.488573,29.140691],[116.483274,29.124501],[116.492694,29.112137],[116.508295,29.103601],[116.523308,29.099774],[116.516537,29.085939],[116.53155,29.079757],[116.537143,29.07858],[116.537143,29.072398],[116.512416,29.069749],[116.485629,29.0462],[116.461197,29.051204],[116.459725,29.036486],[116.461197,29.024417],[116.468556,29.017058],[116.482391,29.017058],[116.480036,28.998807],[116.48975,28.983794],[116.504174,28.970254],[116.516537,28.95583],[116.52213,28.940523],[116.522425,28.924627],[116.518009,28.909026],[116.509178,28.894308],[116.52478,28.890481],[116.535377,28.895485],[116.544796,28.898135],[116.558043,28.886654],[116.550684,28.880473],[116.558043,28.873702],[116.541264,28.866049],[116.533905,28.861045],[116.530961,28.856335],[116.533022,28.845738],[116.541264,28.830725],[116.543325,28.825427],[116.54097,28.812769],[116.535082,28.796579],[116.526546,28.782449],[116.516537,28.776856],[116.523308,28.790692],[116.518892,28.791575],[116.515654,28.792752],[116.513005,28.794518],[116.509178,28.798051],[116.481508,28.79128],[116.472088,28.790692],[116.46208,28.794224],[116.456487,28.803055],[116.453249,28.814535],[116.448245,28.825427],[116.438531,28.836024],[116.429994,28.842794],[116.423224,28.850153],[116.420869,28.862811],[116.424107,28.874291],[116.432349,28.882828],[116.454721,28.894308],[116.426168,28.899606],[116.404973,28.874291],[116.388489,28.840145],[116.372593,28.818362],[116.365823,28.825427],[116.371416,28.83308],[116.39261,28.877823],[116.419103,28.917563],[116.424696,28.929926],[116.427934,28.943172],[116.427345,28.95583],[116.420575,28.966133],[116.413804,28.961423],[116.4088,28.948765],[116.40674,28.935224],[116.397614,28.940523],[116.393199,28.938462],[116.386134,28.921389],[116.3879,28.919623],[116.39261,28.906082],[116.393199,28.900489],[116.39055,28.898723],[116.381424,28.894013],[116.379658,28.890481],[116.373182,28.87017],[116.358464,28.850153],[116.342274,28.841322],[116.331088,28.853391],[116.333737,28.863988],[116.354637,28.883122],[116.359053,28.894308],[116.353754,28.904611],[116.344334,28.907554],[116.335209,28.908143],[116.331088,28.911381],[116.333149,28.925216],[116.338742,28.941112],[116.359053,28.976141],[116.344334,28.980851],[116.329911,28.982911],[116.2678,28.980262],[116.260735,28.985855],[116.269566,29.004106],[116.264267,29.007932],[116.259558,29.012642],[116.256614,29.019118],[116.255142,29.027655],[116.252198,29.031481],[116.206572,29.033248],[116.19833,29.037957],[116.194503,29.051204],[116.187733,29.051204],[116.174192,29.038841],[116.155647,29.047083],[116.142989,29.066216],[116.145933,29.085939],[116.131509,29.082701],[116.115908,29.077108],[116.10325,29.078285],[116.093536,29.114492],[116.08235,29.125678],[116.057329,29.140691],[116.042317,29.165417],[116.035841,29.181313],[116.040256,29.188378],[116.074991,29.183668],[116.084117,29.186906],[116.077935,29.202213],[116.140046,29.197208],[116.158885,29.203096],[116.14505,29.212515],[116.123856,29.220758],[116.102661,29.223996],[116.088238,29.219874],[116.077641,29.223996],[116.005816,29.239891],[115.997573,29.254315],[115.98992,29.272271],[115.980795,29.280219],[115.967843,29.264029],[115.967548,29.249017],[115.974907,29.232827],[115.980795,29.215459],[115.975202,29.195737],[115.929281,29.203979],[115.907498,29.216931],[115.922216,29.250194],[115.924277,29.262852],[115.927809,29.273449],[115.97844,29.294643],[115.984916,29.299353],[116.009642,29.311127],[116.01759,29.319075],[116.024066,29.327906],[116.028187,29.338798],[116.029954,29.352927],[116.02701,29.361169],[116.00405,29.410328],[115.998751,29.417393],[115.990509,29.42122],[115.975202,29.42122],[115.975202,29.428579],[115.991392,29.433583],[116.001695,29.440059],[116.01082,29.447712],[116.023183,29.455955],[116.046144,29.448007],[116.060862,29.463314],[116.070576,29.485391],[116.077935,29.49746],[116.077935,29.503642],[116.063217,29.509529],[116.070576,29.51836],[116.086471,29.528957],[116.098246,29.538376],[116.097069,29.544558],[116.092653,29.553683],[116.090298,29.56222],[116.112081,29.579587],[116.116497,29.593717],[116.12886,29.65936],[116.126211,29.66878],[116.116497,29.674667],[116.098246,29.681732],[116.100895,29.685853],[116.105605,29.695567],[116.092653,29.694389],[116.069398,29.688797],[116.060862,29.692035],[116.092947,29.724415],[116.102073,29.730302],[116.150054,29.727947],[116.173603,29.73354],[116.187733,29.750907],[116.229238,29.743843],[116.210399,29.735012],[116.193326,29.718527],[116.188027,29.702632],[116.204806,29.695567],[116.238658,29.708225],[116.256908,29.709696],[116.269566,29.695567],[116.247783,29.691151],[116.243073,29.683792],[116.244839,29.673784],[116.243073,29.661421],[116.232182,29.651412],[116.217758,29.670252],[116.204806,29.664953],[116.202451,29.650235],[116.205983,29.630807],[116.205689,29.613439],[116.190971,29.60608],[116.187733,29.598427],[116.195386,29.581059],[116.207161,29.562809],[116.215697,29.552212],[116.195681,29.556627],[116.186261,29.564869],[116.179491,29.574878],[116.167127,29.585769],[116.152115,29.554272],[116.145639,29.533667],[116.14976,29.524247],[116.157119,29.521303],[116.162417,29.514533],[116.166244,29.506585],[116.17066,29.500698],[116.168893,29.495694],[116.152115,29.477737],[116.145933,29.469495],[116.151232,29.460959],[116.152998,29.452422],[116.150937,29.443591],[116.145933,29.43476],[116.115614,29.443886],[116.08029,29.418276],[116.061745,29.383835],[116.081467,29.366468],[116.114142,29.367645],[116.150643,29.373533],[116.184789,29.387956],[116.208044,29.415038],[116.223056,29.380892],[116.225706,29.363819],[116.221879,29.346157],[116.214225,29.358226],[116.206572,29.356459],[116.198035,29.347923],[116.187733,29.339386],[116.145639,29.342036],[116.132981,29.339386],[116.120323,29.324962],[116.123561,29.312305],[116.145933,29.290816],[116.161829,29.27963],[116.166244,29.273743],[116.130626,29.264029],[116.126211,29.264029],[116.12415,29.24725],[116.140046,29.244012],[116.174192,29.250488],[116.181845,29.248722],[116.189205,29.244601],[116.196858,29.242246],[116.204806,29.246662],[116.217169,29.258436],[116.22394,29.262852],[116.229238,29.264029],[116.236008,29.258436],[116.246017,29.234593],[116.255142,29.223112],[116.266328,29.215753],[116.280752,29.210455],[116.296059,29.209572],[116.310483,29.216342],[116.306656,29.220758],[116.305478,29.22429],[116.305478,29.228705],[116.303712,29.236948],[116.316664,29.232238],[116.325495,29.236065],[116.331971,29.241657],[116.338447,29.243129],[116.346101,29.23577],[116.346395,29.228411],[116.347867,29.221641],[116.359053,29.216342],[116.366412,29.232827],[116.372299,29.238714],[116.379658,29.229294],[116.378775,29.221641],[116.369944,29.196325],[116.365823,29.188378],[116.338153,29.171304],[116.324023,29.156881],[116.324906,29.140691],[116.33933,29.139807],[116.364646,29.166889],[116.365823,29.147461],[116.372888,29.15011],[116.379658,29.15482],[116.393199,29.140691],[116.397909,29.152171],[116.39732,29.163357],[116.394671,29.175131],[116.393199,29.188378],[116.399381,29.188378],[116.407917,29.176603],[116.422047,29.176014],[116.434999,29.183962],[116.440886,29.198975],[116.442358,29.207806],[116.445596,29.215165],[116.447068,29.221346],[116.444713,29.226351],[116.438237,29.234593],[116.435587,29.244307],[116.43647,29.254609],[116.440886,29.264029],[116.437059,29.266973],[116.432055,29.273449],[116.427345,29.277864],[116.445596,29.280808],[116.463552,29.269622],[116.477093,29.249311],[116.488573,29.202507],[116.500053,29.204568],[116.50594,29.223112],[116.495638,29.250488],[116.510356,29.24519],[116.514477,29.231355],[116.516243,29.216636],[116.523308,29.208983],[116.536554,29.213987],[116.541853,29.229294],[116.541264,29.246073],[116.537143,29.257259],[116.543325,29.257259],[116.550389,29.251371],[116.555394,29.252255],[116.558337,29.259025],[116.558043,29.271094],[116.570406,29.248133],[116.588362,29.245484],[116.606613,29.24725],[116.618976,29.236948],[116.605435,29.236948],[116.618976,29.202213],[116.629573,29.232238],[116.630751,29.246367],[116.626335,29.264029],[116.641053,29.257847],[116.65636,29.249017],[116.665191,29.239303],[116.660776,29.229294],[116.688446,29.216342],[116.684031,29.212221],[116.678438,29.2081],[116.667546,29.202213],[116.65636,29.209277],[116.651356,29.207511],[116.648413,29.200741],[116.643703,29.192204],[116.618976,29.168066],[116.623686,29.150405],[116.638404,29.152465],[116.664014,29.168066],[116.67255,29.169833],[116.674611,29.172776],[116.677555,29.173365]]]}},{"type":"Feature","properties":{"kind":"lakes","name":"大官湖","source":"Natural Earth 1:10m"},"geometry":{"type":"Polygon","coordinates":[[[116.461197,30.093547],[116.459725,30.08089],[116.443241,30.0647],[116.436765,30.050864],[116.494755,30.038795],[116.50859,30.023194],[116.517126,30.003177],[116.530961,29.983455],[116.509178,29.96285],[116.477976,29.950781],[116.442358,29.948131],[116.40674,29.956079],[116.395259,29.96491],[116.376126,29.986987],[116.365823,29.989637],[116.354932,29.981983],[116.353754,29.970503],[116.349339,29.958434],[116.331088,29.94872],[116.309011,29.963733],[116.302829,29.973152],[116.303712,29.989637],[116.291349,29.986693],[116.281635,29.989637],[116.27457,29.995818],[116.269566,30.004061],[116.276042,30.007887],[116.284284,30.014952],[116.289288,30.017601],[116.270155,30.0229],[116.258674,30.014952],[116.257203,30.010831],[116.247194,30.036441],[116.25632,30.042622],[116.255142,30.066171],[116.240424,30.05999],[116.234831,30.072059],[116.236597,30.091192],[116.243073,30.107088],[116.245722,30.102378],[116.251021,30.097963],[116.255142,30.093547],[116.254259,30.105616],[116.245134,30.120629],[116.243073,30.130637],[116.2469,30.139174],[116.255731,30.135053],[116.264856,30.126516],[116.269566,30.120629],[116.278397,30.078535],[116.286639,30.059695],[116.303712,30.058812],[116.289288,30.099435],[116.291938,30.117391],[116.310483,30.12681],[116.315487,30.095313],[116.320491,30.081184],[116.331088,30.072942],[116.33462,30.086188],[116.339625,30.085305],[116.345512,30.07824],[116.351399,30.072942],[116.386134,30.058812],[116.380836,30.051453],[116.38113,30.044683],[116.387606,30.039973],[116.399381,30.038207],[116.401147,30.050864],[116.407328,30.058224],[116.420869,30.058812],[116.420869,30.066171],[116.410861,30.076474],[116.424107,30.087954],[116.444124,30.101201],[116.461197,30.093547]]]}},{"type":"Feature","properties":{"kind":"lakes","name":"龙感湖","source":"Natural Earth 1:10m"},"geometry":{"type":"Polygon","coordinates":[[[116.257203,30.010831],[116.252493,29.999645],[116.24896,29.983455],[116.254259,29.983749],[116.264562,29.983161],[116.269566,29.983455],[116.265445,29.961672],[116.266328,29.941655],[116.263384,29.927526],[116.246017,29.921933],[116.233065,29.915163],[116.218052,29.901622],[116.200685,29.89338],[116.180962,29.901622],[116.158885,29.893674],[116.11738,29.90486],[116.091476,29.901622],[116.051148,29.871597],[116.040256,29.866887],[116.029365,29.870125],[116.001989,29.893968],[115.997573,29.904565],[115.995807,29.915457],[115.995807,29.939006],[115.992275,29.953136],[115.983444,29.9602],[115.961661,29.969914],[115.954302,29.983455],[115.949003,29.986399],[115.942233,29.989048],[115.936346,29.993169],[115.933991,30.000528],[115.933991,30.044977],[115.939878,30.035557],[115.97373,29.996701],[115.981678,29.993463],[115.985799,29.987576],[115.995807,29.983455],[116.007288,29.983455],[116.016413,29.989637],[116.014941,29.996113],[115.999634,30.011714],[115.995807,30.021134],[115.996396,30.031436],[115.998751,30.038795],[116.003755,30.043505],[116.01288,30.044977],[116.021123,30.041739],[116.024655,30.03438],[116.026421,30.025255],[116.029954,30.017601],[116.054091,29.993758],[116.057329,29.986693],[116.061156,29.973741],[116.070576,29.969914],[116.081467,29.973741],[116.091476,29.983455],[116.077052,29.988459],[116.071459,29.989637],[116.085883,29.996996],[116.092653,29.991697],[116.097952,29.981983],[116.108843,29.976685],[116.13563,29.977273],[116.148288,29.979334],[116.160357,29.983455],[116.152703,29.996113],[116.143284,29.99523],[116.132392,29.989931],[116.11944,29.989637],[116.10796,29.996996],[116.113553,30.002],[116.125328,30.006121],[116.132981,30.01142],[116.133275,30.06205],[116.141223,30.085011],[116.163889,30.076474],[116.173309,30.069998],[116.180962,30.067643],[116.185967,30.062639],[116.189793,30.027315],[116.193031,30.016129],[116.198035,30.007887],[116.2051,30.000823],[116.218052,29.990814],[116.230416,29.987576],[116.236008,30.000528],[116.234242,30.01348],[116.228944,30.023194],[116.222468,30.032614],[116.215697,30.044977],[116.247194,30.036441],[116.257203,30.010831]]]}},{"type":"Feature","properties":{"kind":"lakes","name":"梁子湖","source":"Natural Earth 1:10m"},"geometry":{"type":"Polygon","coordinates":[[[114.382692,30.182151],[114.366796,30.188627],[114.345602,30.191276],[114.330589,30.188921],[114.334711,30.202756],[114.342953,30.208349],[114.351784,30.212765],[114.357965,30.223656],[114.364736,30.223656],[114.373272,30.207466],[114.383281,30.205994],[114.3927,30.214825],[114.399471,30.229838],[114.412423,30.223656],[114.412423,30.229838],[114.406241,30.236314],[114.401531,30.242495],[114.39535,30.247794],[114.385636,30.250443],[114.391228,30.263395],[114.389462,30.274876],[114.382692,30.28459],[114.371506,30.29136],[114.41154,30.270166],[114.428613,30.264278],[114.440387,30.271343],[114.447452,30.267811],[114.453339,30.266339],[114.467469,30.264867],[114.467469,30.271343],[114.453928,30.27517],[114.443037,30.282823],[114.435972,30.29342],[114.433617,30.305784],[114.447158,30.29136],[114.453928,30.298719],[114.485719,30.282529],[114.501615,30.278702],[114.515156,30.299602],[114.546064,30.294304],[114.556367,30.305784],[114.542826,30.306961],[114.527225,30.310494],[114.513978,30.315792],[114.502498,30.329922],[114.487486,30.330216],[114.453928,30.326095],[114.44127,30.328155],[114.429496,30.334043],[114.421254,30.342579],[114.419782,30.354059],[114.42773,30.366128],[114.438327,30.366423],[114.448335,30.358475],[114.453928,30.3467],[114.458049,30.369955],[114.46011,30.374665],[114.464525,30.372899],[114.47159,30.368778],[114.47836,30.366717],[114.481598,30.371133],[114.485131,30.374665],[114.494256,30.375548],[114.522809,30.374371],[114.526636,30.372604],[114.529285,30.368483],[114.536056,30.360241],[114.538116,30.354648],[114.539294,30.339636],[114.543415,30.332277],[114.594045,30.322857],[114.608764,30.315203],[114.631724,30.298719],[114.631724,30.29136],[114.613179,30.285767],[114.604348,30.278408],[114.604642,30.268105],[114.614651,30.25427],[114.632313,30.238374],[114.639083,30.229838],[114.643793,30.221596],[114.652624,30.195692],[114.627014,30.210704],[114.613179,30.215414],[114.597578,30.216297],[114.597578,30.209527],[114.617006,30.200696],[114.62201,30.158013],[114.635256,30.148005],[114.643793,30.140057],[114.650269,30.121217],[114.653507,30.098551],[114.652624,30.079712],[114.643204,30.061756],[114.631724,30.064405],[114.62201,30.078829],[114.612885,30.113858],[114.577561,30.17538],[114.548713,30.134758],[114.537822,30.133875],[114.529874,30.16184],[114.531346,30.168904],[114.540177,30.187449],[114.543415,30.195692],[114.546358,30.219829],[114.550185,30.229838],[114.529285,30.226894],[114.515744,30.218652],[114.504559,30.213648],[114.491901,30.220124],[114.472767,30.232487],[114.471295,30.219535],[114.481598,30.185389],[114.476888,30.119451],[114.464819,30.087954],[114.440976,30.068526],[114.440976,30.069409],[114.440387,30.072942],[114.422137,30.082067],[114.440093,30.114741],[114.426258,30.12681],[114.438915,30.140351],[114.439504,30.158602],[114.42979,30.173026],[114.412423,30.17538],[114.401531,30.165078],[114.371506,30.107088],[114.364736,30.107088],[114.367385,30.113564],[114.367091,30.118274],[114.365619,30.122395],[114.364736,30.12681],[114.364736,30.120629],[114.36032,30.134464],[114.362381,30.147121],[114.36974,30.159485],[114.382103,30.171848],[114.382692,30.182151]]]}},{"type":"Feature","properties":{"kind":"lakes","name":"鄱湖","source":"Natural Earth 1:10m"},"geometry":{"type":"Polygon","coordinates":[[[116.444124,30.101201],[116.454721,30.117391],[116.445596,30.124161],[116.425579,30.115036],[116.393199,30.093547],[116.393199,30.099435],[116.398497,30.10856],[116.394082,30.11327],[116.384074,30.112975],[116.396437,30.122984],[116.40674,30.12681],[116.40674,30.134464],[116.394376,30.137113],[116.383779,30.141234],[116.374654,30.147121],[116.365823,30.154775],[116.370238,30.155364],[116.373182,30.15713],[116.375831,30.15919],[116.379658,30.16184],[116.393199,30.154775],[116.384662,30.168021],[116.371122,30.17538],[116.354932,30.175675],[116.338447,30.16861],[116.319608,30.177441],[116.317547,30.182151],[116.317253,30.192454],[116.321668,30.214531],[116.316075,30.223656],[116.296942,30.223656],[116.31166,30.235431],[116.325789,30.240729],[116.33727,30.237491],[116.344629,30.223656],[116.351399,30.229838],[116.348161,30.235431],[116.346689,30.239552],[116.344629,30.250443],[116.359053,30.244262],[116.358464,30.255153],[116.360524,30.261629],[116.365234,30.266339],[116.372593,30.271343],[116.369061,30.223656],[116.377892,30.219535],[116.387606,30.212176],[116.39732,30.210704],[116.40674,30.223656],[116.411744,30.21041],[116.413216,30.194514],[116.418809,30.181268],[116.434704,30.17538],[116.432938,30.193337],[116.430877,30.201284],[116.427345,30.209527],[116.436176,30.204817],[116.445596,30.203934],[116.454427,30.203934],[116.461197,30.203345],[116.46002,30.205406],[116.464435,30.207761],[116.470911,30.209232],[116.475621,30.209527],[116.476504,30.199224],[116.478859,30.192159],[116.485629,30.188921],[116.50388,30.195692],[116.527135,30.226894],[116.543325,30.236608],[116.542736,30.220418],[116.536849,30.183034],[116.530961,30.16861],[116.535671,30.165372],[116.538026,30.162428],[116.540087,30.158896],[116.543325,30.154775],[116.532727,30.153892],[116.519481,30.150065],[116.508295,30.144472],[116.503585,30.137407],[116.506529,30.125044],[116.514183,30.122689],[116.52478,30.123867],[116.537143,30.120629],[116.549801,30.111209],[116.555394,30.102378],[116.551272,30.095902],[116.533905,30.093547],[116.52007,30.08972],[116.495932,30.072059],[116.482391,30.066171],[116.48298,30.076474],[116.486807,30.084716],[116.493577,30.090604],[116.503585,30.093547],[116.503585,30.099435],[116.4924,30.100318],[116.481508,30.099729],[116.470911,30.097668],[116.461197,30.093547],[116.444124,30.101201]]]}},{"type":"Feature","properties":{"kind":"lakes","name":"黄塘湖","source":"Natural Earth 1:10m"},"geometry":{"type":"Polygon","coordinates":[[[114.294088,30.033791],[114.305274,30.036441],[114.309984,30.038207],[114.30969,30.024666],[114.306452,30.012303],[114.302036,30.004061],[114.296443,30.004061],[114.28879,29.989342],[114.275543,29.983749],[114.241691,29.983455],[114.246401,29.975507],[114.244929,29.968442],[114.238159,29.965499],[114.227562,29.969914],[114.201364,29.951958],[114.218142,29.940478],[114.2517,29.931353],[114.275838,29.921933],[114.265829,29.904565],[114.25641,29.893968],[114.242869,29.890436],[114.220792,29.893968],[114.199597,29.900739],[114.179581,29.90957],[114.162802,29.92105],[114.15191,29.935179],[114.158681,29.928998],[114.147201,29.953136],[114.140136,29.980511],[114.137192,30.008182],[114.138075,30.032025],[114.139841,30.031436],[114.143963,30.03438],[114.148672,30.039384],[114.15191,30.044977],[114.151616,30.049393],[114.147201,30.059401],[114.145729,30.066171],[114.145434,30.092958],[114.147495,30.104733],[114.15191,30.113858],[114.158681,30.099435],[114.177814,30.122689],[114.201658,30.144767],[114.229623,30.154481],[114.261708,30.140645],[114.249934,30.126516],[114.234627,30.116213],[114.22403,30.102673],[114.227562,30.079712],[114.243163,30.075297],[114.248756,30.052336],[114.250817,30.034674],[114.255527,30.044977],[114.25641,30.039384],[114.261708,30.024372],[114.270834,30.030553],[114.278193,30.038501],[114.28408,30.047921],[114.289673,30.058812],[114.2935,30.050276],[114.294971,30.045272],[114.294088,30.040562],[114.289673,30.032025],[114.294088,30.033791]]]}},{"type":"Feature","properties":{"kind":"lakes","name":null,"source":"Natural Earth 1:10m"},"geometry":{"type":"Polygon","coordinates":[[[114.131305,29.926937],[114.157798,29.886904],[114.165746,29.861588],[114.160741,29.85158],[114.138075,29.873657],[114.135132,29.863354],[114.130716,29.855701],[114.125123,29.849814],[114.117764,29.846281],[114.11276,29.858939],[114.113054,29.869242],[114.115998,29.87925],[114.117764,29.89073],[114.115998,29.905743],[114.111583,29.911336],[114.105107,29.914279],[114.097159,29.921933],[114.084795,29.95549],[114.075081,29.969914],[114.056242,29.976685],[114.069194,29.951075],[114.070077,29.934296],[114.060658,29.921639],[114.042113,29.907803],[114.039463,29.903094],[114.040641,29.898678],[114.039758,29.89544],[114.032104,29.893968],[114.026511,29.892202],[114.014148,29.883077],[114.008261,29.879839],[113.998252,29.878367],[113.989421,29.878661],[113.980002,29.876306],[113.967933,29.866887],[113.964106,29.871597],[113.961751,29.877484],[113.960574,29.884843],[113.960574,29.887492],[113.959102,29.891025],[113.958808,29.894557],[113.957336,29.898089],[113.953803,29.901622],[113.988538,29.910747],[114.002962,29.916929],[114.015031,29.928998],[114.000019,29.969914],[113.992071,29.976685],[113.976764,29.972269],[113.960279,29.952841],[113.947033,29.94872],[113.949094,29.95343],[113.953803,29.969914],[113.940557,29.970503],[113.932904,29.976979],[113.929077,29.986987],[113.926427,29.99729],[113.938202,29.991697],[113.954981,29.987282],[113.985006,29.983455],[113.99001,29.986104],[113.995897,29.991697],[114.000313,29.997585],[114.002079,30.000528],[114.006495,30.005827],[114.015325,30.001411],[114.024745,29.993758],[114.028277,29.989637],[114.039463,29.996701],[114.058597,30.019662],[114.06625,30.024372],[114.088328,30.034674],[114.098042,30.035852],[114.090388,30.024372],[114.099514,30.009948],[114.117764,29.99052],[114.12424,29.976685],[114.127773,29.958728],[114.128067,29.942538],[114.131305,29.926937]]]}},{"type":"Feature","properties":{"kind":"lakes","name":null,"source":"Natural Earth 1:10m"},"geometry":{"type":"Polygon","coordinates":[[[115.176592,30.146238],[115.2075,30.137996],[115.220452,30.107088],[115.214271,30.108265],[115.190721,30.109443],[115.181007,30.107088],[115.17306,30.100318],[115.161874,30.082067],[115.153043,30.072942],[115.136558,30.067054],[115.11507,30.06676],[115.095642,30.070881],[115.08475,30.079712],[115.072976,30.072942],[115.0665,30.075591],[115.060318,30.082361],[115.050604,30.086482],[115.041479,30.086188],[115.009099,30.079712],[115.005272,30.08089],[114.994381,30.085894],[114.988493,30.086482],[114.983195,30.084128],[114.974069,30.075002],[114.967593,30.072942],[114.943161,30.084128],[114.933153,30.086482],[114.919023,30.085011],[114.905188,30.087071],[114.895474,30.093842],[114.892825,30.107088],[114.898418,30.112681],[114.908721,30.117391],[114.917846,30.125044],[114.919612,30.140645],[114.947577,30.140645],[114.947282,30.117391],[114.954936,30.108854],[114.965827,30.114741],[114.974953,30.134464],[114.977896,30.128871],[114.98555,30.119157],[114.988493,30.113858],[115.012925,30.135347],[115.046483,30.137996],[115.081512,30.133581],[115.112126,30.134464],[115.14068,30.141823],[115.176592,30.146238]]]}},{"type":"Feature","properties":{"kind":"lakes","name":null,"source":"Natural Earth 1:10m"},"geometry":{"type":"Polygon","coordinates":[[[116.280163,28.566386],[116.277219,28.563442],[116.269566,28.55785],[116.271626,28.604948],[116.27928,28.620549],[116.30018,28.626731],[116.326084,28.621727],[116.336092,28.607597],[116.338447,28.55785],[116.344923,28.560499],[116.351399,28.565209],[116.35817,28.558144],[116.365823,28.551668],[116.369061,28.563442],[116.37436,28.57139],[116.382013,28.578161],[116.393199,28.585225],[116.388489,28.565209],[116.386134,28.544014],[116.393199,28.544014],[116.410272,28.553434],[116.434704,28.5343],[116.45531,28.501332],[116.461197,28.468952],[116.449422,28.47219],[116.442358,28.479254],[116.439414,28.489851],[116.440886,28.503098],[116.43647,28.501332],[116.425285,28.498388],[116.420869,28.496327],[116.417042,28.513401],[116.404679,28.522526],[116.388195,28.523703],[116.372593,28.516933],[116.352282,28.530179],[116.342863,28.521348],[116.342568,28.505158],[116.347867,28.496327],[116.36023,28.494267],[116.377598,28.488085],[116.389667,28.477194],[116.386134,28.462181],[116.372299,28.467774],[116.359347,28.464536],[116.349339,28.455116],[116.344629,28.441576],[116.347278,28.429801],[116.354932,28.419793],[116.364646,28.412139],[116.372593,28.406841],[116.362879,28.403897],[116.353165,28.403603],[116.331088,28.406841],[116.331088,28.414494],[116.313721,28.421265],[116.314898,28.435688],[116.331088,28.462181],[116.314309,28.464242],[116.30018,28.46954],[116.289583,28.479549],[116.283107,28.496327],[116.280457,28.492206],[116.276336,28.489557],[116.27251,28.508102],[116.275748,28.528413],[116.289288,28.571979],[116.283107,28.571979],[116.280163,28.566386]]]}},{"type":"Feature","properties":{"kind":"lakes","name":null,"source":"Natural Earth 1:10m"},"geometry":{"type":"Polygon","coordinates":[[[116.107077,28.451584],[116.130332,28.500743],[116.132981,28.523703],[116.12209,28.535478],[116.109432,28.522232],[116.097952,28.497211],[116.091476,28.475133],[116.091181,28.501332],[116.094419,28.528413],[116.105605,28.549313],[116.129743,28.55785],[116.147699,28.561088],[116.169482,28.56933],[116.190676,28.580516],[116.208044,28.592585],[116.216286,28.582871],[116.226,28.579927],[116.235714,28.578161],[116.243073,28.571979],[116.244839,28.561971],[116.243073,28.523703],[116.219524,28.548724],[116.202451,28.560793],[116.194503,28.554612],[116.189793,28.544014],[116.167127,28.531062],[116.160357,28.523703],[116.160651,28.512812],[116.171248,28.49515],[116.194503,28.434805],[116.201568,28.43245],[116.23277,28.434805],[116.235714,28.43039],[116.24896,28.400659],[116.231299,28.402131],[116.215697,28.408901],[116.201273,28.413317],[116.187733,28.406841],[116.154175,28.454822],[116.145933,28.462181],[116.12886,28.45806],[116.129449,28.443048],[116.136808,28.423914],[116.139751,28.406841],[116.133275,28.413611],[116.11738,28.42568],[116.112081,28.428624],[116.107077,28.451584]]]}},{"type":"Feature","properties":{"kind":"rivers","name":"Jiulong","source":"Natural Earth 1:10m"},"geometry":{"type":"MultiLineString","coordinates":[[[116.79835,25.012803],[116.841401,24.993354],[116.888927,24.988837],[116.934988,24.99962],[116.973888,25.025987],[116.991628,25.047919],[117.044444,25.135362],[117.086192,25.189724],[117.122162,25.255235],[117.133311,25.270941],[117.142589,25.278998],[117.280854,25.331366],[117.295665,25.331366],[117.30714,25.325385],[117.317475,25.31684],[117.329275,25.309394],[117.343842,25.304511],[117.450694,25.287624],[117.483328,25.277126],[117.498546,25.260565],[117.50172,25.249091],[117.511729,25.226874],[117.513194,25.215644],[117.510753,25.204454],[117.502615,25.182563],[117.499766,25.171169],[117.502615,25.145779],[117.52532,25.106065],[117.530528,25.085964],[117.528412,25.075995],[117.518077,25.058661],[117.514171,25.049425],[117.511241,25.031277],[117.510834,24.995429],[117.503184,24.959581],[117.503022,24.941107],[117.507091,24.923204],[117.516043,24.907009],[117.546804,24.873847],[117.555431,24.861192],[117.592296,24.762315],[117.597992,24.752509],[117.617198,24.73078],[117.622569,24.715766],[117.624929,24.682685],[117.628998,24.6671],[117.638601,24.654812],[117.662852,24.640692],[117.674246,24.630683],[117.682546,24.616523],[117.696788,24.584011],[117.70696,24.56977],[117.755789,24.535712],[117.768321,24.521064],[117.773692,24.504828],[117.774913,24.48961],[117.778331,24.47488],[117.790538,24.459784]]]}},{"type":"Feature","properties":{"kind":"rivers","name":"Mei","source":"Natural Earth 1:10m"},"geometry":{"type":"MultiLineString","coordinates":[[[116.102468,27.10696],[116.056163,26.942084],[116.054861,26.920925],[116.058849,26.908555],[116.072276,26.886013],[116.077647,26.874213],[116.082937,26.847724],[116.083425,26.819648],[116.070079,26.738634],[115.997,26.416856],[115.986501,26.388454],[115.98585,26.381619],[115.98642,26.367621],[115.98463,26.358466],[115.97934,26.356553],[115.97226,26.356716],[115.964854,26.353461],[115.947683,26.335232],[115.911143,26.280626],[115.886241,26.25491],[115.878429,26.244452],[115.871755,26.230536],[115.859386,26.185736],[115.846609,26.16824],[115.828054,26.167996],[115.789073,26.180284],[115.77825,26.17711],[115.761485,26.161811],[115.750499,26.158393],[115.742279,26.161322],[115.72462,26.175238],[115.716319,26.179999],[115.698741,26.17768],[115.684825,26.163357],[115.664561,26.127794],[115.631602,26.086737],[115.594493,26.064073],[115.55128,26.055243],[115.482921,26.054389],[115.465424,26.048774],[115.449474,26.039374],[115.436697,26.026557],[115.429861,26.012803],[115.424897,25.983832],[115.419688,25.970811],[115.408132,25.957546],[115.395763,25.950629],[115.361908,25.941474],[115.279307,25.901923],[115.259532,25.898749],[115.242605,25.902899],[115.204112,25.919135],[115.169932,25.924262],[115.158946,25.927069],[115.122162,25.947577],[115.107839,25.950019],[115.092703,25.942939],[115.084727,25.926215],[115.075694,25.889228]]]}},{"type":"Feature","properties":{"kind":"rivers","name":"Yangtze","source":"Natural Earth 1:10m"},"geometry":{"type":"MultiLineString","coordinates":[[[119.606375,32.196885],[119.58782,32.19245],[119.572358,32.191759],[119.557384,32.200141],[119.54005,32.222113],[119.530365,32.231716],[119.517345,32.238064],[119.504812,32.239529],[119.452566,32.233466],[119.385753,32.237413],[119.365326,32.234402],[119.346202,32.226752],[119.324474,32.214626],[119.303722,32.206163],[119.278331,32.20128],[119.252208,32.200019],[119.229421,32.202663],[119.129242,32.228542],[119.078705,32.232733],[119.027843,32.2213],[118.96339,32.187771],[118.927745,32.176825],[118.909679,32.173896],[118.883474,32.173204],[118.820404,32.188992],[118.793224,32.192816],[118.78655,32.192694],[118.780284,32.191107],[118.774343,32.187079],[118.769054,32.18122],[118.764659,32.174506],[118.761485,32.168036],[118.759532,32.162909],[118.758474,32.160997],[118.747488,32.147244],[118.73406,32.124864],[118.706391,32.09337],[118.689464,32.062445],[118.668956,32.039496],[118.658376,32.030585],[118.645925,32.016181],[118.614838,31.990017],[118.586355,31.949571],[118.553315,31.916287],[118.540538,31.892442],[118.53476,31.884467],[118.504812,31.859198],[118.498627,31.851264],[118.448009,31.756415],[118.426199,31.724473],[118.41505,31.699774],[118.403819,31.623236],[118.379649,31.556179],[118.347992,31.507595],[118.31601,31.4713],[118.309825,31.460069],[118.305186,31.448798],[118.302175,31.438341],[118.301768,31.427802],[118.304861,31.416449],[118.31544,31.400824],[118.318614,31.394965],[118.322358,31.383165],[118.324474,31.371039],[118.32545,31.356391],[118.324474,31.338324],[118.3213,31.320828],[118.315115,31.308051],[118.306163,31.300401],[118.296641,31.29739],[118.220144,31.291124],[118.210053,31.287787],[118.173839,31.265896],[118.155935,31.259141],[118.112722,31.252509],[118.060557,31.233222],[118.040457,31.233344],[118.027843,31.243679],[118.014171,31.237616],[118.002371,31.223253],[117.995942,31.208604],[117.993582,31.19127],[117.992931,31.138983],[117.988699,31.122829],[117.980398,31.109971],[117.968272,31.100287],[117.952729,31.093573],[117.937266,31.088935],[117.921886,31.086005],[117.907156,31.087673],[117.894542,31.096788],[117.879242,31.12226],[117.870372,31.133328],[117.856863,31.140937],[117.839366,31.143663],[117.822765,31.141181],[117.807546,31.134385],[117.793386,31.124457],[117.781505,31.113959],[117.77239,31.103868],[117.766531,31.092108],[117.763276,31.076483],[117.763682,31.058702],[117.768891,31.023749],[117.768077,31.006659],[117.747162,30.943468],[117.732026,30.874457],[117.697276,30.803738],[117.687429,30.796658],[117.642589,30.789496],[117.608653,30.780137],[117.593354,30.773708],[117.552338,30.747829],[117.53712,30.740831],[117.466075,30.726264],[117.457937,30.722235],[117.436534,30.706366],[117.42921,30.70246],[117.421641,30.700507],[117.345876,30.698757],[117.326671,30.69477],[117.276947,30.673367],[117.260753,30.669623],[117.252371,30.670681],[117.234304,30.674913],[117.226003,30.673367],[117.2199,30.6671],[117.217703,30.658474],[117.217784,30.648953],[117.218842,30.640245],[117.220714,30.634304],[117.225678,30.623074],[117.22755,30.617377],[117.228038,30.611762],[117.224132,30.597235],[117.22405,30.586208],[117.232839,30.555121],[117.231293,30.543484],[117.225678,30.532497],[117.217865,30.522528],[117.209565,30.514024],[117.183116,30.499376],[117.150645,30.494249],[117.033295,30.490587],[117.007498,30.48371],[116.984386,30.471747],[116.94866,30.443427],[116.936127,30.435858],[116.925222,30.432929],[116.913259,30.431952],[116.901866,30.429755],[116.89267,30.423285],[116.888276,30.402615],[116.899099,30.380683],[116.913992,30.358588],[116.921397,30.33747],[116.920014,30.32453],[116.90683,30.270697],[116.896902,30.244208],[116.822276,30.115424],[116.808523,30.102078],[116.790538,30.090888],[116.716075,30.05976],[116.690522,30.0539],[116.662608,30.052761],[116.650076,30.050605],[116.636485,30.043321],[116.605072,30.017686],[116.593761,30.010565],[116.591726,30.005683],[116.587901,30.00198],[116.579112,29.995225],[116.575206,29.99079],[116.567149,29.976752],[116.548839,29.954128],[116.536632,29.923204],[116.526947,29.906684],[116.51295,29.89411],[116.492198,29.88463],[116.466563,29.880316],[116.414236,29.880561],[116.389171,29.876003],[116.356537,29.858262],[116.297537,29.808702],[116.265229,29.788886],[116.235932,29.781277],[116.206554,29.781317],[116.146983,29.788682],[116.110281,29.786444],[116.077647,29.776394],[116.012787,29.748155],[115.99879,29.744005],[115.888682,29.731757],[115.855724,29.738471],[115.743337,29.808783],[115.73642,29.816352],[115.72519,29.842637],[115.718191,29.854071],[115.704845,29.860704],[115.621104,29.862372],[115.534923,29.85456],[115.50644,29.857611],[115.46339,29.871283],[115.450043,29.87755],[115.437511,29.885362],[115.426687,29.895331],[115.417247,29.909369],[115.396088,29.956081],[115.386729,29.969672],[115.375906,29.980496],[115.338471,30.008002],[115.330496,30.018175],[115.301524,30.06741],[115.283376,30.10932],[115.275401,30.120958],[115.189952,30.208767],[115.164561,30.221055],[115.145518,30.222357],[115.106944,30.21955],[115.087983,30.224148],[115.072032,30.236029],[115.063569,30.25198],[115.061453,30.270453],[115.064138,30.289862],[115.072846,30.324246],[115.072765,30.341132],[115.064952,30.357367],[115.052989,30.369005],[114.987397,30.407416],[114.966075,30.41352],[114.94394,30.416042],[114.8803,30.414984],[114.860769,30.418891],[114.842703,30.428046],[114.829275,30.441107],[114.820567,30.457139],[114.810802,30.493191],[114.808035,30.511054],[114.808523,30.526313],[114.814057,30.539903],[114.826589,30.552802],[114.839936,30.563788],[114.851573,30.576931],[114.855398,30.591132],[114.844737,30.605658],[114.826671,30.613796],[114.806082,30.616278],[114.731456,30.609442],[114.714854,30.605414],[114.688487,30.590766],[114.67685,30.58629],[114.613048,30.573594],[114.600841,30.574286],[114.58017,30.581651],[114.56601,30.593329],[114.502371,30.673163],[114.484386,30.684353],[114.45753,30.690741],[114.429128,30.690294],[114.401378,30.683905],[114.375987,30.672675],[114.354015,30.656521],[114.311127,30.609646],[114.296397,30.586859]],[[116.19752,29.75141],[116.20753,29.779486]],[[113.127615,29.462755],[113.145437,29.471991],[113.16212,29.493109],[113.186046,29.531684],[113.415538,29.764472],[113.445974,29.780056],[113.497325,29.819403],[113.519216,29.84162],[113.590017,29.87991],[113.607026,29.890204],[113.629975,29.9088],[113.65032,29.929389],[113.664236,29.954617],[113.675955,29.961127],[113.687755,29.963446],[113.693126,29.959581],[113.703624,29.934149],[113.706716,29.9289],[113.748627,29.919989],[113.79241,29.933417],[113.831065,29.958279],[113.889659,30.013007],[113.92335,30.033555],[114.043956,30.07921],[114.062266,30.088935],[114.069835,30.103339],[114.064382,30.124376],[114.050873,30.136339],[114.015147,30.154853],[113.983409,30.185167],[113.964285,30.197943],[113.940115,30.203233],[113.918061,30.198065],[113.895274,30.188747],[113.874441,30.184841],[113.858165,30.195828],[113.857595,30.231065],[113.885509,30.265204],[113.927175,30.28852],[113.968028,30.291368],[113.983409,30.282579],[113.996755,30.268622],[114.018565,30.240505],[114.039073,30.2296],[114.053966,30.24018],[114.086029,30.31741],[114.106619,30.352322],[114.24171,30.497423],[114.287364,30.575995],[114.303233,30.593044]]]}},{"type":"Feature","properties":{"kind":"rivers","name":"Gan","source":"Natural Earth 1:10m"},"geometry":{"type":"MultiLineString","coordinates":[[[115.981944,29.279161],[115.981375,29.290229],[116.000011,29.302598],[116.041515,29.312445],[116.05185,29.332546],[116.051199,29.365424],[116.040945,29.403103],[116.045828,29.423651],[116.07073,29.44538],[116.091401,29.468858],[116.114675,29.492458],[116.127371,29.51793],[116.127045,29.545762],[116.134532,29.58043],[116.149099,29.616319],[116.161794,29.651435],[116.156993,29.680691],[116.160655,29.703192],[116.177257,29.719835],[116.192393,29.735867],[116.19752,29.75141]]]}},{"type":"Feature","properties":{"kind":"rivers","name":"Gan","source":"Natural Earth 1:10m"},"geometry":{"type":"MultiLineString","coordinates":[[[114.412527,24.707058],[114.43214,24.710639],[114.448822,24.707709],[114.465424,24.702826],[114.484874,24.700222],[114.501964,24.708767],[114.521983,24.746365],[114.539643,24.754828],[114.559825,24.758246],[114.575287,24.766872],[114.587494,24.778144],[114.602794,24.796576],[114.61378,24.815538],[114.619151,24.824164],[114.625662,24.830878],[114.635265,24.835232],[114.648936,24.836778],[114.665538,24.845242],[114.685476,24.862128],[114.70696,24.875067],[114.727794,24.871527],[114.734386,24.89171],[114.739513,24.902899],[114.748953,24.912543],[114.768891,24.904079],[114.771088,24.921942],[114.766368,24.948025],[114.765391,24.963975],[114.776296,24.980496],[114.782481,24.999091],[114.784597,25.018134],[114.779307,25.055528],[114.776134,25.060574],[114.768891,25.069525],[114.760265,25.076239],[114.751231,25.080593],[114.744314,25.087104],[114.741466,25.100531],[114.751964,25.103949],[114.817149,25.138454],[114.828298,25.141547],[114.857514,25.14529],[114.86142,25.148464],[114.87379,25.154731],[114.886811,25.157091],[114.894949,25.145575],[114.899425,25.144558],[114.903901,25.145575],[114.905854,25.148708],[114.904796,25.154608],[114.902436,25.157904],[114.900076,25.15998],[114.899018,25.162624],[114.897634,25.190619],[114.899018,25.193671],[114.892507,25.201768],[114.87794,25.211982],[114.871755,25.220323],[114.869151,25.2296],[114.865001,25.265692],[114.868744,25.273017],[114.896007,25.29267],[114.898529,25.30447],[114.891043,25.316474],[114.881602,25.327826],[114.878673,25.337673],[114.885671,25.34394],[114.911632,25.353827],[114.919688,25.358181],[114.922293,25.367743],[114.921886,25.378974],[114.924734,25.388373],[114.937022,25.392279],[114.955658,25.401557],[114.964366,25.422634],[114.96339,25.445828],[114.953705,25.461208],[114.969005,25.47545],[114.990489,25.488837],[115.003917,25.505439],[114.995209,25.529486],[115.007335,25.551866],[115.008474,25.57099],[115.002615,25.621934],[115.009288,25.642686],[115.024669,25.657782],[115.042735,25.671332],[115.057384,25.68712],[115.073253,25.686632],[115.083914,25.706488],[115.089773,25.732978],[115.091563,25.752265],[115.089692,25.761786],[115.086355,25.768378],[115.086681,25.775336],[115.103119,25.798407],[115.10255,25.807725],[115.098888,25.81745],[115.098399,25.830512],[115.110932,25.850857],[115.111908,25.858425],[115.106619,25.865831],[115.088634,25.881863],[115.084727,25.888861],[115.079845,25.892198],[115.033783,25.893907],[115.027761,25.895616],[115.023448,25.893907],[115.015717,25.885118],[115.011241,25.875515],[115.010346,25.866645],[115.007091,25.85871],[114.995209,25.85163],[114.983653,25.850857],[114.967784,25.853217],[114.953543,25.857367],[114.94752,25.862128],[114.944347,25.867296],[114.937266,25.874538],[114.930186,25.88406],[114.927013,25.896023],[114.930431,25.906358],[114.937266,25.91706],[114.942393,25.928331],[114.940684,25.940375],[114.932628,25.945258],[114.908132,25.947292],[114.899018,25.954047],[114.897472,25.966254],[114.902436,25.977729],[114.909272,25.988471],[114.917898,26.020616],[114.929779,26.034125],[114.943451,26.044379],[114.953705,26.057074],[114.959483,26.077501],[114.95753,26.091335],[114.949636,26.099962],[114.937999,26.105414],[114.909679,26.113959],[114.898529,26.120795],[114.892833,26.132148],[114.895274,26.140489],[114.918224,26.19599],[114.924571,26.207343],[114.935069,26.213894],[114.953705,26.214708],[114.919688,26.27615],[114.923839,26.305609],[114.901378,26.340644],[114.792491,26.439887],[114.786143,26.447455],[114.771251,26.45246],[114.703624,26.502143],[114.684255,26.520331],[114.671967,26.540635],[114.67628,26.560411],[114.80364,26.675564],[114.809825,26.691107],[114.81129,26.710883],[114.816417,26.736599],[114.825206,26.760932],[114.837576,26.776435],[114.854747,26.782091],[114.92335,26.790066],[114.940847,26.794216],[114.989675,26.815456],[115.002615,26.824815],[115.009939,26.862494],[114.972179,26.920681],[114.981619,26.955146],[114.995128,26.964952],[115.013601,26.975043],[115.029877,26.987901],[115.036794,27.006415],[115.03004,27.028428],[115.014171,27.040798],[114.995616,27.05036],[114.981619,27.063788],[114.974701,27.108507],[114.998139,27.142198],[115.089936,27.200507],[115.102631,27.212429],[115.109874,27.228298],[115.111908,27.252794],[115.110932,27.274482],[115.111827,27.285753],[115.115326,27.294053],[115.115245,27.302029],[115.098399,27.338731],[115.095307,27.367011],[115.091563,27.379706],[115.073416,27.412136],[115.067963,27.433173],[115.063569,27.443386],[115.063487,27.451483],[115.074148,27.454861],[115.086436,27.455146],[115.095714,27.456814],[115.10377,27.460883],[115.111908,27.468533],[115.121104,27.487657],[115.135509,27.534857],[115.149506,27.544216],[115.166515,27.550849],[115.180675,27.566474],[115.214936,27.626044],[115.220632,27.632921],[115.229015,27.637274],[115.249278,27.643581],[115.276134,27.662462],[115.314382,27.680772],[115.330496,27.695095],[115.331554,27.699286],[115.329682,27.710476],[115.330496,27.714911],[115.333018,27.71662],[115.342214,27.720567],[115.344737,27.722357],[115.368337,27.753852],[115.372081,27.759874],[115.375418,27.780788],[115.383881,27.804389],[115.425304,27.874945],[115.431733,27.893012],[115.436127,27.959011],[115.440115,27.977403],[115.447765,27.996039],[115.483165,28.056016],[115.492198,28.065009],[115.51588,28.069159],[115.532725,28.080186],[115.557058,28.11282],[115.583018,28.13699],[115.622081,28.159206],[115.666515,28.176947],[115.707937,28.187852],[115.757742,28.189887],[115.772634,28.198432],[115.783376,28.21369],[115.789236,28.228135],[115.798757,28.238878],[115.820811,28.243109],[115.833018,28.247504],[115.846609,28.258246],[115.858409,28.271755],[115.865489,28.284044],[115.868175,28.300482],[115.864838,28.3133],[115.851736,28.339301],[115.841726,28.392524],[115.834483,28.400743],[115.824474,28.40587],[115.819591,28.418728],[115.8178,28.451687],[115.820323,28.468695],[115.825287,28.481391],[115.828054,28.493923],[115.823985,28.510606],[115.796641,28.565253],[115.803233,28.581],[115.807384,28.606147],[115.815929,28.629462],[115.834483,28.639716],[115.885916,28.71544],[115.901134,28.751247],[115.911143,28.769151],[115.938569,28.787543],[115.981537,28.853298],[115.98642,28.879014],[115.989024,28.886786],[116.001475,28.902045],[116.007091,28.911648],[116.01295,28.938015],[116.027354,28.974189],[116.029877,28.996649],[116.023204,29.037624],[116.018565,29.046454],[116.004893,29.066352],[116.002045,29.075466],[116.001069,29.085964],[115.996755,29.106391],[115.997162,29.180243],[115.995942,29.188422],[116.002208,29.208523],[115.998953,29.230007],[115.981944,29.279161]]]}},{"type":"Feature","properties":{"kind":"rivers","name":"Fuchun","source":"Natural Earth 1:10m"},"geometry":{"type":"MultiLineString","coordinates":[[[117.785167,29.707302],[117.793956,29.715155],[117.813975,29.743109],[117.831065,29.756659],[117.847667,29.75495],[117.896251,29.718085],[117.976654,29.675482],[117.98642,29.673122],[117.999929,29.67414],[118.007742,29.677314],[118.030203,29.694403],[118.035818,29.697618],[118.04184,29.699408],[118.047944,29.699164],[118.054698,29.696479],[118.065522,29.681993],[118.072765,29.661933],[118.081391,29.645616],[118.095876,29.642198],[118.121349,29.644721],[118.159597,29.633979],[118.183849,29.638983],[118.274832,29.682969],[118.302013,29.700629],[118.350515,29.745185],[118.376964,29.76142],[118.404877,29.763699],[118.425955,29.749945],[118.462169,29.709093],[118.469493,29.704901],[118.498139,29.692939],[118.530284,29.683865],[118.558116,29.68769],[118.615652,29.711697],[118.666026,29.725531],[118.691987,29.728217],[118.717784,29.726345]],[[119.195567,29.50373],[119.238699,29.480007],[119.274018,29.48961],[119.308116,29.509874],[119.346934,29.518012],[119.347585,29.515937],[119.35019,29.511257],[119.354747,29.506374],[119.360606,29.50373],[119.36614,29.504218],[119.416026,29.526557],[119.42213,29.52794],[119.433523,29.532009],[119.504487,29.538438],[119.534923,29.555935],[119.56894,29.584499],[119.599701,29.617214],[119.620616,29.647081],[119.655528,29.770046],[119.675304,29.805365],[119.751069,29.869981],[119.768484,29.872504],[119.786388,29.872911],[119.805675,29.87991],[119.823009,29.895535],[119.86378,29.95246],[119.872081,29.959093],[119.890554,29.967637],[119.898448,29.973253],[119.908132,29.984198],[119.92921,30.017646],[119.945323,30.037543],[119.95989,30.045111],[120.025808,30.046902],[120.045421,30.051866],[120.122813,30.082831],[120.140391,30.093451],[120.158783,30.11046],[120.160167,30.124945],[120.128835,30.153266],[120.121023,30.168524],[120.122976,30.180243],[120.128022,30.189276],[120.136648,30.194688],[120.148936,30.195828]]]}},{"type":"Feature","properties":{"kind":"rivers","name":"Min","source":"Natural Earth 1:10m"},"geometry":{"type":"MultiLineString","coordinates":[[[117.489187,27.866319],[117.455089,27.791287],[117.44752,27.724433],[117.441417,27.708075],[117.430919,27.699246],[117.423839,27.700141],[117.417003,27.703315],[117.407319,27.701239],[117.39796,27.693956],[117.343435,27.618516],[117.338959,27.60224],[117.33546,27.558051],[117.337901,27.538642],[117.349213,27.530585],[117.357921,27.52265],[117.370372,27.504014],[117.381358,27.482286],[117.393647,27.444037],[117.426524,27.412055],[117.434011,27.396796],[117.437266,27.380561],[117.445811,27.361599],[117.458995,27.348944],[117.475597,27.351833],[117.565359,27.2803],[117.578624,27.263007],[117.586192,27.249945],[117.587006,27.243028],[117.578624,27.222113],[117.576671,27.206],[117.576752,27.182888],[117.580333,27.162177],[117.588878,27.153144],[117.61085,27.142646],[117.627533,27.117947],[117.6421,27.089382],[117.657481,27.067206],[117.675548,27.055609],[117.678152,27.049872],[117.671153,27.040554],[117.667735,27.032538],[117.668875,27.022325],[117.672862,27.013536],[117.691742,27.001573],[117.729503,26.947781],[117.720714,26.934638],[117.729096,26.926581],[117.742768,26.919704],[117.750011,26.910224],[117.750011,26.875759],[117.753429,26.867703],[117.768158,26.853095],[117.771576,26.848456],[117.780854,26.815212],[117.804291,26.791042],[117.835134,26.777533],[117.867198,26.776435],[117.884776,26.788031],[117.894216,26.790066],[117.905528,26.78795],[117.923106,26.778591],[117.946788,26.773383],[117.965912,26.765815],[117.982432,26.755927],[117.989513,26.746039],[117.991954,26.729844],[118.00172,26.707628],[118.003184,26.694525],[117.996674,26.675808],[117.971283,26.648708],[117.962169,26.633083],[117.969168,26.629096],[117.988373,26.623114],[117.996349,26.61876],[118.013438,26.595771],[118.013682,26.591417],[118.071544,26.586859],[118.092459,26.591417],[118.108328,26.600124],[118.143484,26.628241],[118.157725,26.642646],[118.16627,26.638007],[118.236501,26.625596],[118.245372,26.619493],[118.257498,26.60456],[118.264415,26.598253],[118.294688,26.585517],[118.310069,26.575954],[118.329112,26.569607],[118.332774,26.565009],[118.336925,26.558417],[118.358328,26.552558],[118.366791,26.547634],[118.370616,26.539862],[118.37672,26.516669],[118.380463,26.50727],[118.398367,26.487657],[118.401134,26.482733],[118.403738,26.479356],[118.408295,26.468858],[118.410248,26.457831],[118.404796,26.452663],[118.399425,26.44892],[118.392507,26.439805],[118.387299,26.428494],[118.387299,26.417914],[118.408783,26.404079],[118.446788,26.402655],[118.65797,26.417914],[118.671804,26.409369],[118.668549,26.371853],[118.678233,26.363308],[118.6928,26.362738],[118.703868,26.360297],[118.714285,26.355007],[118.726166,26.345893],[118.754893,26.317898],[118.770518,26.306464],[118.799734,26.29918],[118.840424,26.283515],[118.853526,26.273871],[118.842052,26.248725],[118.849132,26.23196],[118.866954,26.220771],[118.887706,26.21247],[118.898204,26.219062],[118.912527,26.219672],[118.942312,26.21247],[118.959727,26.200303],[118.966807,26.198188],[118.993744,26.1942],[119.000987,26.195502],[119.015717,26.200629],[119.024832,26.201036],[119.032481,26.19831],[119.044526,26.188829],[119.057384,26.181179],[119.078868,26.154486],[119.093761,26.145819]]]}},{"type":"Feature","properties":{"kind":"rivers","name":"Dong","source":"Natural Earth 1:10m"},"geometry":{"type":"MultiLineString","coordinates":[[[115.707937,25.056505],[115.714936,25.044704],[115.731944,25.002794],[115.735037,24.984483],[115.736257,24.981879],[115.738455,24.979844],[115.740815,24.976752],[115.741954,24.970811],[115.739757,24.964911],[115.729991,24.955756],[115.727794,24.950059],[115.724213,24.943305],[115.716319,24.93948],[115.707449,24.936632],[115.700857,24.932969],[115.689382,24.913275],[115.680593,24.892035],[115.680756,24.886094],[115.687266,24.877387],[115.687999,24.871527],[115.684825,24.865017],[115.67571,24.853542],[115.673757,24.847276],[115.673106,24.838894],[115.665294,24.810818],[115.624522,24.730007],[115.595225,24.689724],[115.569347,24.662869],[115.556651,24.654364],[115.517589,24.636501],[115.50587,24.628445],[115.497488,24.616807],[115.48878,24.597764],[115.492686,24.588813],[115.47877,24.56741],[115.474294,24.552802],[115.471283,24.506619],[115.474294,24.494167],[115.428233,24.459418],[115.420421,24.450059],[115.412201,24.444932],[115.394054,24.451524],[115.365245,24.467475],[115.372569,24.430447],[115.36907,24.414862],[115.351003,24.419053],[115.344249,24.41295],[115.322846,24.402208],[115.317393,24.398546],[115.317556,24.389228],[115.328705,24.369412],[115.327403,24.361029],[115.312511,24.35102],[115.268158,24.333523],[115.197032,24.290391],[115.183686,24.278144],[115.177257,24.258897],[115.192556,24.246039],[115.216401,24.234971],[115.235444,24.221055],[115.241954,24.206651],[115.246023,24.187771],[115.248546,24.148464],[115.24407,24.126247],[115.232514,24.109687],[115.200694,24.083279],[115.178152,24.059678],[115.163585,24.047553],[115.149506,24.042304],[115.123546,24.039415],[115.107432,24.031277],[115.096121,24.018337],[115.084727,24.001329],[115.069835,23.989081],[115.065929,23.982204],[115.070974,23.973985],[115.057058,23.957709],[115.00172,23.919704],[114.985281,23.900255],[114.976329,23.890326],[114.96575,23.884223],[114.951915,23.883857],[114.933197,23.891466],[114.912527,23.872382],[114.88323,23.857489],[114.780528,23.821153],[114.747488,23.798448],[114.720225,23.76907],[114.70045,23.733832],[114.676768,23.67536],[114.673106,23.661811],[114.670665,23.641221],[114.652599,23.590399],[114.650076,23.572089],[114.650645,23.554226],[114.656261,23.540595],[114.669444,23.535183],[114.674246,23.527371],[114.686697,23.47309],[114.666515,23.462999],[114.631928,23.42654],[114.607595,23.418524],[114.601736,23.41531],[114.580658,23.394884],[114.57073,23.389472],[114.559825,23.391466],[114.543468,23.398627],[114.522634,23.396348],[114.507823,23.389024],[114.498627,23.375312],[114.495616,23.353624],[114.502208,23.33336],[114.552826,23.272569],[114.556733,23.269884],[114.560964,23.266303],[114.563894,23.26085],[114.552175,23.244412],[114.550304,23.240343],[114.555675,23.232733],[114.564545,23.226142],[114.573985,23.221544],[114.580658,23.219835],[114.587332,23.211697],[114.59433,23.192694],[114.595307,23.171902],[114.583914,23.157782],[114.5831,23.161404],[114.572846,23.165961],[114.559825,23.169949],[114.550304,23.171454],[114.52825,23.160264],[114.514659,23.156073],[114.504812,23.164415],[114.478038,23.181993],[114.466075,23.186306],[114.457286,23.179023],[114.433523,23.125922],[114.426199,23.117499],[114.415619,23.109442],[114.408946,23.108588],[114.296397,23.157782],[114.28419,23.153428],[114.249034,23.15644],[114.233165,23.13642],[114.195079,23.116156],[114.179779,23.099392],[114.138194,23.075873],[114.122813,23.064276],[114.111501,23.057725],[114.098399,23.060329],[114.07724,23.075873],[114.058116,23.09394],[114.047374,23.095486],[114.031993,23.086453],[114.01588,23.080268],[113.996755,23.081895],[113.980886,23.089219],[113.974213,23.100409],[113.905935,23.110663],[113.872,23.101915],[113.856293,23.103217],[113.843516,23.110256]],[[114.636485,23.735948],[114.639089,23.733832],[114.657237,23.723822],[114.671397,23.73017],[114.686534,23.741563],[114.707286,23.746853]],[[113.844005,23.110663],[113.843516,23.110256]],[[113.843516,23.110256],[113.830333,23.117499]],[[113.843516,23.110256],[113.832286,23.100857],[113.812022,23.089382],[113.78948,23.079861],[113.756847,23.07156],[113.617768,22.949286]]]}},{"type":"Feature","properties":{"kind":"rivers","name":"Bei","source":"Natural Earth 1:10m"},"geometry":{"type":"MultiLineString","coordinates":[[[112.528819,25.317247],[112.577729,25.322048],[112.673432,25.358832],[112.721609,25.367133],[112.733165,25.364814],[112.755382,25.354356],[112.766775,25.350938],[112.790457,25.348171],[112.798839,25.344916],[112.837332,25.320258],[112.869721,25.306098],[113.016775,25.281562],[113.051768,25.259548],[113.115815,25.234076],[113.150645,25.225124],[113.182709,25.222602],[113.202078,25.23017],[113.234955,25.256863],[113.254893,25.258409],[113.273448,25.246039],[113.28297,25.226182],[113.29241,25.162218],[113.296479,25.153998],[113.316905,25.137071],[113.330333,25.121772],[113.356456,25.075385],[113.366954,25.062567],[113.378184,25.052273],[113.404307,25.038113],[113.414236,25.030056],[113.42099,25.015408],[113.423269,24.996446],[113.422862,24.981024],[113.426362,24.966661],[113.440115,24.950751],[113.44752,24.94599],[113.461436,24.940985],[113.467865,24.937567],[113.491222,24.914618],[113.519542,24.899726],[113.531749,24.891466],[113.54184,24.877875],[113.545909,24.865505],[113.554617,24.825263],[113.559255,24.817328],[113.564138,24.811632],[113.568614,24.805121],[113.5713,24.794867],[113.57073,24.772895],[113.563975,24.751817],[113.550955,24.736436],[113.518077,24.727891],[113.516205,24.71662],[113.521414,24.691026],[113.520112,24.661933],[113.523367,24.631619],[113.53419,24.604031],[113.555756,24.583197],[113.580577,24.543402],[113.56129,24.494981],[113.497325,24.412462],[113.474294,24.370551],[113.461518,24.352729],[113.41448,24.30036],[113.406749,24.280219],[113.413666,24.260769],[113.42213,24.257148],[113.444021,24.256903],[113.451671,24.252631],[113.451671,24.238552],[113.399669,24.113593],[113.387543,24.092963],[113.357432,24.067979],[113.322032,24.053168],[113.292003,24.033026],[113.277354,23.992133],[113.281749,23.947089],[113.280528,23.93183],[113.274913,23.914903],[113.249766,23.868598],[113.247162,23.854071],[113.246755,23.822943],[113.244151,23.807969],[113.228119,23.77265],[113.203298,23.736599],[113.170909,23.711778],[113.119721,23.71129],[113.11142,23.705634],[113.10434,23.697618],[113.094819,23.691759],[113.084076,23.689236],[113.076101,23.688788],[113.035655,23.694159],[113.017182,23.69363],[113.00058,23.687201],[112.984793,23.672227],[112.973888,23.647732],[112.976329,23.625515],[112.982432,23.602729],[112.981619,23.576687],[112.970714,23.549425],[112.953705,23.524237],[112.895437,23.457831],[112.889252,23.439399],[112.887136,23.390204],[112.875011,23.339382],[112.865164,23.314073],[112.810557,23.226345],[112.803966,23.192735],[112.819347,23.152859]]]}}]}