{"type":"FeatureCollection","features":[{"type":"Feature","properties":{"kind":"lakes","name":"微山湖","source":"Natural Earth 1:10m"},"geometry":{"type":"Polygon","coordinates":[[[117.327511,34.627344],[117.338991,34.612331],[117.342818,34.591431],[117.340463,34.579951],[117.318385,34.569943],[117.306316,34.559051],[117.261867,34.505477],[117.260101,34.499589],[117.2445,34.49694],[117.229193,34.49017],[117.201817,34.472508],[117.196519,34.486343],[117.201523,34.512836],[117.195047,34.527554],[117.180329,34.524022],[117.169143,34.536091],[117.129109,34.637352],[117.126166,34.660018],[117.134113,34.702701],[117.134113,34.723601],[117.122928,34.732432],[117.117923,34.738024],[117.124694,34.748916],[117.134996,34.755981],[117.140295,34.749799],[117.142356,34.740379],[117.147654,34.734492],[117.156191,34.732137],[117.160312,34.732432],[117.185333,34.718302],[117.234197,34.69858],[117.256569,34.68445],[117.327511,34.627344]]]}},{"type":"Feature","properties":{"kind":"lakes","name":"东平湖","source":"Natural Earth 1:10m"},"geometry":{"type":"Polygon","coordinates":[[[116.156236,35.997903],[116.145933,36.020863],[116.165655,36.036465],[116.177724,36.064135],[116.187733,36.116532],[116.196269,36.110939],[116.200979,36.102991],[116.207749,36.082974],[116.204511,36.034698],[116.208044,36.020863],[116.23277,36.000847],[116.240718,35.989366],[116.229238,35.979947],[116.24896,35.95051],[116.244839,35.920779],[116.225411,35.904589],[116.170071,35.926667],[116.13563,35.931671],[116.109432,35.944623],[116.105605,35.979947],[116.122678,35.972588],[116.143872,35.980241],[116.156236,35.997903]]]}},{"type":"Feature","properties":{"kind":"rivers","name":"Yi","source":"Natural Earth 1:10m"},"geometry":{"type":"MultiLineString","coordinates":[[[118.503429,36.103542],[118.531749,36.121202],[118.547862,36.128038],[118.561697,36.130805],[118.57073,36.126247],[118.590343,36.104031],[118.59962,36.096055],[118.590831,36.06863],[118.606619,36.059109],[118.629242,36.055203],[118.640636,36.044542],[118.649669,36.035834],[118.709483,36.006659],[118.739838,35.9831],[118.752208,35.968044],[118.757335,35.949001],[118.760916,35.923041],[118.771251,35.904812],[118.786632,35.890733],[118.825206,35.862901],[118.835378,35.849392],[118.839122,35.831814],[118.839854,35.804958],[118.845876,35.79324],[118.859386,35.783962],[118.871349,35.770453],[118.874034,35.745958],[118.871023,35.736396],[118.862641,35.722235],[118.860362,35.71247],[118.860932,35.702745],[118.865896,35.686835],[118.868175,35.663682],[118.872813,35.64407],[118.874034,35.611518],[118.85849,35.557685],[118.853526,35.548041],[118.845307,35.542182],[118.833914,35.536689],[118.823741,35.52912],[118.819347,35.516954],[118.814545,35.507921],[118.784679,35.479071],[118.781749,35.474229],[118.779714,35.468044],[118.77825,35.461371],[118.777843,35.455186],[118.774506,35.451931],[118.767589,35.450995],[118.760346,35.448676],[118.757335,35.44123],[118.75294,35.433661],[118.743663,35.427924],[118.734304,35.420437],[118.729991,35.407416],[118.72877,35.392442],[118.725027,35.384345],[118.709483,35.3699],[118.678315,35.332099],[118.665701,35.30919],[118.667979,35.294135],[118.658132,35.280707],[118.649343,35.260565],[118.643077,35.239285],[118.640636,35.22248],[118.646414,35.19835],[118.647472,35.188015],[118.644786,35.177598],[118.616222,35.122911],[118.57545,35.071601],[118.566742,35.066433],[118.556407,35.063585],[118.547862,35.059638],[118.542491,35.045437],[118.537852,35.042589],[118.532156,35.040798],[118.527354,35.037787],[118.523448,35.030341],[118.525076,35.024522],[118.528738,35.019232],[118.530772,35.013536],[118.537608,34.849066],[118.535167,34.840277],[118.531749,34.832872],[118.529389,34.825141],[118.530772,34.815009],[118.536632,34.807481],[118.554291,34.797471],[118.567556,34.770819],[118.590587,34.767361],[118.640636,34.773383],[118.661388,34.76199],[118.667979,34.759711],[118.670909,34.760688],[118.680186,34.765448],[118.684988,34.766547],[118.784679,34.766547],[118.800548,34.769721],[118.818777,34.768907],[118.837169,34.765245],[118.858897,34.757392],[118.863455,34.754747],[118.868256,34.751288],[118.874034,34.746039],[118.878184,34.739529],[118.887706,34.718126],[118.911632,34.707139],[118.94044,34.701239],[119.017019,34.697862],[119.054861,34.68891],[119.141124,34.683173],[119.154552,34.684597],[119.169037,34.688503],[119.17864,34.693223],[119.200287,34.713813]]]}},{"type":"Feature","properties":{"kind":"rivers","name":"Zhang","source":"Natural Earth 1:10m"},"geometry":{"type":"MultiLineString","coordinates":[[[112.948416,37.069037],[112.937999,36.987413],[112.91505,36.908515],[112.89088,36.861762],[112.881358,36.834418],[112.88795,36.822292],[112.921153,36.823798],[112.936534,36.822781],[112.963634,36.814521],[112.972341,36.812934],[113.011485,36.811957],[113.023448,36.804958],[113.03004,36.791815],[113.034679,36.768988],[113.039561,36.758979],[113.04127,36.754706],[113.042003,36.750556],[113.045502,36.739285],[113.053396,36.731065],[113.069347,36.719835],[113.084483,36.694403],[113.090424,36.687079],[113.096934,36.682888],[113.103119,36.68122],[113.109793,36.680365],[113.116954,36.678249],[113.12851,36.669745],[113.137299,36.656684],[113.142996,36.64171],[113.14503,36.627387],[113.148936,36.621121],[113.17921,36.609971],[113.214447,36.582302],[113.233165,36.562283],[113.241222,36.544501],[113.247162,36.52379],[113.261485,36.509467],[113.295909,36.487128],[113.305105,36.477891],[113.315359,36.465196],[113.323171,36.459174],[113.356456,36.4442],[113.368175,36.435574],[113.379324,36.42182],[113.395437,36.389472],[113.405203,36.374457],[113.421804,36.363349],[113.443858,36.357856],[113.48878,36.355577],[113.507498,36.357937],[113.544932,36.36933],[113.564057,36.37226],[113.578217,36.37169],[113.584565,36.370307],[113.591075,36.367703],[113.596283,36.363471],[113.607514,36.352362],[113.61378,36.349392],[113.621023,36.349677],[113.634044,36.354193],[113.641775,36.353705],[113.648367,36.35045],[113.65919,36.342393],[113.66684,36.340847],[113.674083,36.342312],[113.679861,36.346015],[113.69101,36.35517],[113.697765,36.358913],[113.702729,36.360175],[113.78948,36.340359],[113.808035,36.339301],[113.825125,36.345038],[113.858653,36.362657],[113.867117,36.365261],[113.873057,36.364569],[113.878429,36.361396],[113.892019,36.350409],[113.899099,36.346137],[113.90683,36.344062],[113.915701,36.344997],[113.927989,36.348009],[113.933604,36.348456],[113.953868,36.346544],[113.959727,36.347683],[113.965831,36.350775],[113.975515,36.358262],[113.980886,36.35989],[113.989024,36.358913],[114.004242,36.353217],[114.016694,36.344672],[114.027436,36.333808],[114.037364,36.321479],[114.047781,36.311835],[114.059255,36.308661],[114.072032,36.310411],[114.085948,36.315456],[114.097667,36.32449],[114.108653,36.336127],[114.120535,36.344265],[114.135753,36.342475],[114.146576,36.331814],[114.156993,36.304796],[114.168793,36.296251],[114.200125,36.291083],[114.208914,36.285468],[114.214366,36.278428],[114.223888,36.26321],[114.229991,36.256781],[114.237397,36.253038],[114.261729,36.252021],[114.304291,36.240587],[114.313731,36.240587],[114.332449,36.244005],[114.350597,36.245063],[114.36321,36.251532],[114.371593,36.25434],[114.384369,36.255886],[114.442312,36.253689],[114.449474,36.250556],[114.468028,36.235378],[114.478282,36.233751],[114.489024,36.234402],[114.501882,36.232611],[114.524099,36.222764],[114.541515,36.211778],[114.559581,36.202826],[114.584076,36.199083],[114.596202,36.200141],[114.617442,36.204861],[114.628184,36.205919],[114.639171,36.203803],[114.661225,36.194119],[114.673106,36.191677],[114.693614,36.193305],[114.747162,36.206732],[114.785085,36.229519],[115.091726,36.292751],[115.111908,36.30154],[115.146251,36.328884],[115.180675,36.345974],[115.190115,36.353054],[115.200043,36.358588],[115.221609,36.36164],[115.231619,36.366645],[115.23878,36.373847],[115.245942,36.386746],[115.263276,36.411078],[115.2706,36.432725],[115.274506,36.45657],[115.27589,36.4796],[115.282725,36.487128],[115.288992,36.498806],[115.308849,36.517401],[115.317393,36.528022],[115.320242,36.536729],[115.322765,36.556342],[115.327403,36.565294],[115.343354,36.57453],[115.347748,36.58161],[115.341319,36.592882],[115.341401,36.599677],[115.348399,36.608588],[115.365245,36.624294],[115.399832,36.671576],[115.409679,36.6789],[115.423839,36.686306],[115.44337,36.703396],[115.460867,36.722846],[115.47755,36.753485],[115.499278,36.761583],[115.543956,36.767646],[115.626069,36.793524],[115.664073,36.815212],[115.680593,36.8428]]]}},{"type":"Feature","properties":{"kind":"rivers","name":"Huang","source":"Natural Earth 1:10m"},"geometry":{"type":"MultiLineString","coordinates":[[[114.837576,35.019802],[114.84726,35.03795],[114.846772,35.081488],[114.864757,35.120469],[114.859874,35.140448],[114.851573,35.159491],[114.851329,35.178046],[114.864024,35.188585],[114.913178,35.208075],[114.930186,35.211615],[114.941417,35.218777],[114.981619,35.266872],[115.002045,35.284735],[115.008881,35.294135],[115.021495,35.324774],[115.025971,35.332343],[115.053722,35.366767],[115.067963,35.379991],[115.091563,35.390326],[115.121755,35.393866],[115.131847,35.397773],[115.13974,35.404608],[115.14446,35.410997],[115.150483,35.415798],[115.162608,35.41767],[115.205577,35.414618],[115.226329,35.416124],[115.248546,35.424506],[115.266043,35.436143],[115.306814,35.475694],[115.316742,35.479356],[115.329194,35.480984],[115.340017,35.485053],[115.344737,35.496161],[115.342377,35.505479],[115.332286,35.523261],[115.330496,35.534369],[115.341319,35.555365],[115.383311,35.55744],[115.392589,35.572211],[115.392589,35.597032],[115.394786,35.615749],[115.402843,35.630479],[115.420421,35.643581],[115.467296,35.663438],[115.491791,35.678087],[115.502452,35.69538],[115.501964,35.716498],[115.503917,35.722724],[115.53655,35.719306],[115.576182,35.722235],[115.617686,35.731147],[115.654714,35.746283],[115.680593,35.767768],[115.729747,35.83043],[115.76116,35.849148],[115.850678,35.858954],[115.873546,35.865505],[115.885916,35.87755],[115.883718,35.887519],[115.874034,35.895046],[115.863373,35.900458],[115.858002,35.904242],[115.857921,35.916327],[115.86321,35.924913],[115.919932,35.967719],[115.943777,35.979682],[115.954275,35.976589],[115.965424,35.985785],[115.990733,35.980821],[116.033295,35.965684],[116.038992,35.976182],[116.064138,36.040839],[116.078298,36.051337],[116.086925,36.059149],[116.091401,36.068142],[116.089936,36.078477],[116.080333,36.098456],[116.077729,36.109727],[116.087494,36.11225],[116.110281,36.113715],[116.119314,36.116523],[116.12851,36.125027],[116.132823,36.134548],[116.135509,36.1435],[116.13974,36.150702],[116.198822,36.172553],[116.269623,36.240058],[116.311941,36.293321],[116.327891,36.30154],[116.347179,36.303656],[116.388113,36.313056],[116.410167,36.315212],[116.41684,36.318549],[116.454275,36.345526],[116.477061,36.355902],[116.530854,36.397732],[116.566417,36.410102],[116.575043,36.414822],[116.586029,36.427598],[116.597585,36.447577],[116.598643,36.467353],[116.578624,36.4796],[116.591319,36.48664],[116.601654,36.494981],[116.605561,36.504421],[116.598562,36.514431],[116.606375,36.524441],[116.633311,36.547919],[116.651134,36.577582],[116.65683,36.582709],[116.673106,36.58869],[116.736339,36.624294],[116.749522,36.643012],[116.768077,36.684882],[116.780772,36.702745],[116.79599,36.712714],[116.858653,36.740343],[116.881114,36.742743],[116.937755,36.733507],[116.943777,36.730496],[116.952647,36.724555],[116.962576,36.720526],[116.972179,36.723253],[116.976654,36.725938],[116.981619,36.726874],[116.992442,36.726671],[116.999604,36.729438],[117.003917,36.735785],[117.006928,36.742703],[117.009939,36.747138],[117.070323,36.783311],[117.088878,36.788764],[117.105724,36.796251],[117.116791,36.813747],[117.133474,36.849555],[117.163585,36.87995],[117.176199,36.898953],[117.181407,36.922187],[117.189464,36.93419],[117.226329,36.961046],[117.235932,36.980536],[117.234386,36.991767],[117.229747,37.000271],[117.226573,37.009141],[117.229747,37.021511],[117.237804,37.031033],[117.257091,37.038275],[117.284923,37.059394],[117.302257,37.062934],[117.345795,37.062527],[117.388113,37.073188],[117.552257,37.149237],[117.570811,37.16413],[117.578624,37.181952],[117.584239,37.200303],[117.597585,37.222357],[117.613373,37.242296],[117.627045,37.254259],[117.648204,37.260118],[117.668468,37.257025],[117.689138,37.2508],[117.712332,37.247423],[117.760509,37.247423],[117.771658,37.249864],[117.805186,37.26789],[117.827403,37.272081],[117.847097,37.269395],[117.867117,37.264431],[117.890554,37.261746],[117.908214,37.26789],[117.962169,37.309516],[117.983165,37.316759],[118.029796,37.327338],[118.06544,37.352078],[118.087006,37.356147],[118.133474,37.357286],[118.182221,37.366482],[118.207042,37.375271],[118.226003,37.387722],[118.229421,37.396308],[118.222992,37.428656],[118.225515,37.438788],[118.231537,37.450222],[118.243337,37.466579],[118.256602,37.478095],[118.281749,37.495144],[118.29127,37.508124],[118.295421,37.524359],[118.299327,37.560574],[118.304779,37.576443],[118.328868,37.596381],[118.365245,37.606879],[118.519135,37.615668],[118.55421,37.626492],[118.585948,37.644639],[118.672862,37.718695],[118.68157,37.733466],[118.710053,37.749823],[118.722585,37.754503],[118.758718,37.760281],[118.78655,37.774726],[118.860362,37.796169],[118.897065,37.824327],[118.917003,37.830634],[118.938894,37.819403],[118.9546,37.808783],[118.978038,37.79975],[119.003429,37.796251],[119.033214,37.802558]],[[110.269949,34.637274],[110.297862,34.621161],[110.335134,34.615749],[110.367686,34.617499],[110.37672,34.615749],[110.387218,34.608222],[110.393321,34.599677],[110.399669,34.592475],[110.410818,34.589057],[110.42213,34.590644],[110.426524,34.595893],[110.429861,34.602729],[110.437592,34.608913],[110.44866,34.61286],[110.459076,34.614854],[110.482921,34.615749],[110.491628,34.613145],[110.500662,34.607001],[110.517019,34.592475],[110.530284,34.583604],[110.539643,34.584296],[110.548839,34.589911],[110.561697,34.595893],[110.584483,34.600857],[110.64739,34.602078],[110.708425,34.620917],[110.718761,34.626288],[110.725841,34.642442],[110.743175,34.654242],[110.765636,34.661241],[110.883474,34.666042],[110.922862,34.685736],[110.910574,34.732449],[110.933116,34.735175],[110.973155,34.716824],[110.989757,34.721869],[111.007253,34.737494],[111.025483,34.747423],[111.109304,34.768622],[111.124278,34.778632],[111.138438,34.819159],[111.157644,34.82213],[111.198416,34.808132],[111.215261,34.800076],[111.222667,34.798529],[111.232595,34.800727],[111.237641,34.806464],[111.240652,34.815701],[111.245616,34.824246],[111.256602,34.827989],[111.268972,34.82449],[111.276541,34.818427],[111.284679,34.816352],[111.307384,34.83157],[111.318858,34.837104],[111.331065,34.840847],[111.342459,34.842312],[111.352794,34.839382],[111.373057,34.825751],[111.383474,34.821804],[111.393972,34.823188],[111.421397,34.835476],[111.444591,34.83747],[111.557384,34.863308],[111.569021,34.868964],[111.572276,34.87405],[111.578298,34.890326],[111.582123,34.896918],[111.586681,34.900458],[111.597179,34.904975],[111.603282,34.909939],[111.610606,34.92121],[111.622,34.94713],[111.630463,34.958319],[111.641368,34.964382],[111.667979,34.97248],[111.678315,34.978827],[111.670339,34.997382],[111.682709,35.007839],[111.704031,35.012519],[111.723074,35.013536],[111.740652,35.018907],[111.763276,35.042344],[111.778331,35.047716],[111.796153,35.051703],[111.807628,35.061306],[111.816905,35.072821],[111.829112,35.082465],[111.845795,35.086982],[111.881847,35.089301],[111.897472,35.096137],[111.915294,35.089911],[111.957449,35.094062],[111.976166,35.085557],[111.99171,35.073757],[112.034679,35.047716],[112.058116,35.033393],[112.12558,35.023953],[112.151378,35.013536],[112.161632,35.000312],[112.178966,34.970811],[112.189138,34.965155],[112.202159,34.962958],[112.218028,34.957709],[112.232351,34.950995],[112.240733,34.944688],[112.256114,34.958035],[112.265066,34.963446],[112.274832,34.965155],[112.281505,34.961534],[112.284679,34.954535],[112.288992,34.947781],[112.299083,34.944688],[112.324474,34.941433],[112.361095,34.924669],[112.384044,34.917344],[112.466726,34.910346],[112.480235,34.906806],[112.490896,34.897976],[112.73406,34.808132],[112.779226,34.797919],[112.823253,34.800605],[112.912364,34.821804],[113.047374,34.831651],[113.089773,34.842312],[113.130382,34.860175],[113.151134,34.866523],[113.175792,34.868964],[113.19752,34.876288],[113.210134,34.893866],[113.22698,34.931667],[113.24879,34.948554],[113.270763,34.951443],[113.292491,34.951931],[113.329275,34.968777],[113.353608,34.972357],[113.497569,34.965155],[113.508718,34.968695],[113.521251,34.975287],[113.534109,34.979519],[113.545665,34.975694],[113.590017,34.944688],[113.665619,34.907538],[113.70574,34.89529],[113.74822,34.890692],[113.759044,34.89171],[113.779877,34.896186],[113.789236,34.896918],[113.800792,34.894395],[113.826915,34.883246],[113.836925,34.882148],[113.856537,34.877509],[113.867768,34.87641],[113.877208,34.878201],[113.89503,34.887152],[113.905935,34.890692],[113.918793,34.891628],[113.930919,34.89114],[113.942393,34.891954],[113.953868,34.896918],[113.963145,34.907294],[113.970795,34.930528],[113.977631,34.94127],[113.997813,34.949083],[114.02239,34.945339],[114.062429,34.931667],[114.085134,34.930772],[114.155284,34.937852],[114.179454,34.935981],[114.303233,34.898464],[114.323741,34.896918],[114.343842,34.901313],[114.378917,34.918484],[114.399425,34.92418],[114.421641,34.924669],[114.493663,34.906073],[114.501394,34.903103],[114.509288,34.901923],[114.52239,34.903673],[114.53183,34.906684],[114.546397,34.914252],[114.556407,34.917344],[114.577403,34.91767],[114.609467,34.902655],[114.631602,34.896918],[114.646007,34.897528],[114.654389,34.901679],[114.65976,34.906602],[114.665619,34.909939],[114.676362,34.910712],[114.698822,34.909247],[114.707286,34.909939],[114.729991,34.920925],[114.745128,34.936347],[114.768891,34.972602],[114.781668,34.985867],[114.83074,35.019802]]]}}]}