{"type":"FeatureCollection","features":[{"type":"Feature","properties":{"kind":"lakes","name":"梁子湖","source":"Natural Earth 1:10m"},"geometry":{"type":"Polygon","coordinates":[[[114.382692,30.182151],[114.366796,30.188627],[114.345602,30.191276],[114.330589,30.188921],[114.334711,30.202756],[114.342953,30.208349],[114.351784,30.212765],[114.357965,30.223656],[114.364736,30.223656],[114.373272,30.207466],[114.383281,30.205994],[114.3927,30.214825],[114.399471,30.229838],[114.412423,30.223656],[114.412423,30.229838],[114.406241,30.236314],[114.401531,30.242495],[114.39535,30.247794],[114.385636,30.250443],[114.391228,30.263395],[114.389462,30.274876],[114.382692,30.28459],[114.371506,30.29136],[114.41154,30.270166],[114.428613,30.264278],[114.440387,30.271343],[114.447452,30.267811],[114.453339,30.266339],[114.467469,30.264867],[114.467469,30.271343],[114.453928,30.27517],[114.443037,30.282823],[114.435972,30.29342],[114.433617,30.305784],[114.447158,30.29136],[114.453928,30.298719],[114.485719,30.282529],[114.501615,30.278702],[114.515156,30.299602],[114.546064,30.294304],[114.556367,30.305784],[114.542826,30.306961],[114.527225,30.310494],[114.513978,30.315792],[114.502498,30.329922],[114.487486,30.330216],[114.453928,30.326095],[114.44127,30.328155],[114.429496,30.334043],[114.421254,30.342579],[114.419782,30.354059],[114.42773,30.366128],[114.438327,30.366423],[114.448335,30.358475],[114.453928,30.3467],[114.458049,30.369955],[114.46011,30.374665],[114.464525,30.372899],[114.47159,30.368778],[114.47836,30.366717],[114.481598,30.371133],[114.485131,30.374665],[114.494256,30.375548],[114.522809,30.374371],[114.526636,30.372604],[114.529285,30.368483],[114.536056,30.360241],[114.538116,30.354648],[114.539294,30.339636],[114.543415,30.332277],[114.594045,30.322857],[114.608764,30.315203],[114.631724,30.298719],[114.631724,30.29136],[114.613179,30.285767],[114.604348,30.278408],[114.604642,30.268105],[114.614651,30.25427],[114.632313,30.238374],[114.639083,30.229838],[114.643793,30.221596],[114.652624,30.195692],[114.627014,30.210704],[114.613179,30.215414],[114.597578,30.216297],[114.597578,30.209527],[114.617006,30.200696],[114.62201,30.158013],[114.635256,30.148005],[114.643793,30.140057],[114.650269,30.121217],[114.653507,30.098551],[114.652624,30.079712],[114.643204,30.061756],[114.631724,30.064405],[114.62201,30.078829],[114.612885,30.113858],[114.577561,30.17538],[114.548713,30.134758],[114.537822,30.133875],[114.529874,30.16184],[114.531346,30.168904],[114.540177,30.187449],[114.543415,30.195692],[114.546358,30.219829],[114.550185,30.229838],[114.529285,30.226894],[114.515744,30.218652],[114.504559,30.213648],[114.491901,30.220124],[114.472767,30.232487],[114.471295,30.219535],[114.481598,30.185389],[114.476888,30.119451],[114.464819,30.087954],[114.440976,30.068526],[114.440976,30.069409],[114.440387,30.072942],[114.422137,30.082067],[114.440093,30.114741],[114.426258,30.12681],[114.438915,30.140351],[114.439504,30.158602],[114.42979,30.173026],[114.412423,30.17538],[114.401531,30.165078],[114.371506,30.107088],[114.364736,30.107088],[114.367385,30.113564],[114.367091,30.118274],[114.365619,30.122395],[114.364736,30.12681],[114.364736,30.120629],[114.36032,30.134464],[114.362381,30.147121],[114.36974,30.159485],[114.382103,30.171848],[114.382692,30.182151]]]}},{"type":"Feature","properties":{"kind":"lakes","name":"洪湖","source":"Natural Earth 1:10m"},"geometry":{"type":"Polygon","coordinates":[[[113.436311,29.949014],[113.453384,29.956079],[113.466336,29.931353],[113.461921,29.899856],[113.445731,29.872185],[113.42277,29.860705],[113.415706,29.859528],[113.409524,29.854524],[113.39039,29.851286],[113.38833,29.846281],[113.390685,29.839805],[113.394512,29.815079],[113.392157,29.803304],[113.368607,29.79153],[113.356244,29.763271],[113.347413,29.757089],[113.339465,29.753851],[113.327396,29.739722],[113.320037,29.736484],[113.279415,29.760621],[113.273822,29.767392],[113.275294,29.788292],[113.269995,29.799772],[113.246152,29.810663],[113.241148,29.82597],[113.231139,29.839805],[113.22172,29.861294],[113.218187,29.886021],[113.227018,29.907803],[113.245563,29.916634],[113.271173,29.91634],[113.295311,29.906626],[113.30944,29.887492],[113.2959,29.887492],[113.305614,29.87454],[113.335344,29.861294],[113.343587,29.846281],[113.35124,29.846281],[113.357127,29.866887],[113.342409,29.870125],[113.337699,29.880722],[113.340937,29.894557],[113.35124,29.907803],[113.345647,29.925171],[113.353301,29.943127],[113.368019,29.957257],[113.381559,29.963144],[113.402165,29.959317],[113.419532,29.952252],[113.436311,29.949014]]]}},{"type":"Feature","properties":{"kind":"lakes","name":"黄塘湖","source":"Natural Earth 1:10m"},"geometry":{"type":"Polygon","coordinates":[[[114.294088,30.033791],[114.305274,30.036441],[114.309984,30.038207],[114.30969,30.024666],[114.306452,30.012303],[114.302036,30.004061],[114.296443,30.004061],[114.28879,29.989342],[114.275543,29.983749],[114.241691,29.983455],[114.246401,29.975507],[114.244929,29.968442],[114.238159,29.965499],[114.227562,29.969914],[114.201364,29.951958],[114.218142,29.940478],[114.2517,29.931353],[114.275838,29.921933],[114.265829,29.904565],[114.25641,29.893968],[114.242869,29.890436],[114.220792,29.893968],[114.199597,29.900739],[114.179581,29.90957],[114.162802,29.92105],[114.15191,29.935179],[114.158681,29.928998],[114.147201,29.953136],[114.140136,29.980511],[114.137192,30.008182],[114.138075,30.032025],[114.139841,30.031436],[114.143963,30.03438],[114.148672,30.039384],[114.15191,30.044977],[114.151616,30.049393],[114.147201,30.059401],[114.145729,30.066171],[114.145434,30.092958],[114.147495,30.104733],[114.15191,30.113858],[114.158681,30.099435],[114.177814,30.122689],[114.201658,30.144767],[114.229623,30.154481],[114.261708,30.140645],[114.249934,30.126516],[114.234627,30.116213],[114.22403,30.102673],[114.227562,30.079712],[114.243163,30.075297],[114.248756,30.052336],[114.250817,30.034674],[114.255527,30.044977],[114.25641,30.039384],[114.261708,30.024372],[114.270834,30.030553],[114.278193,30.038501],[114.28408,30.047921],[114.289673,30.058812],[114.2935,30.050276],[114.294971,30.045272],[114.294088,30.040562],[114.289673,30.032025],[114.294088,30.033791]]]}},{"type":"Feature","properties":{"kind":"lakes","name":null,"source":"Natural Earth 1:10m"},"geometry":{"type":"Polygon","coordinates":[[[114.131305,29.926937],[114.157798,29.886904],[114.165746,29.861588],[114.160741,29.85158],[114.138075,29.873657],[114.135132,29.863354],[114.130716,29.855701],[114.125123,29.849814],[114.117764,29.846281],[114.11276,29.858939],[114.113054,29.869242],[114.115998,29.87925],[114.117764,29.89073],[114.115998,29.905743],[114.111583,29.911336],[114.105107,29.914279],[114.097159,29.921933],[114.084795,29.95549],[114.075081,29.969914],[114.056242,29.976685],[114.069194,29.951075],[114.070077,29.934296],[114.060658,29.921639],[114.042113,29.907803],[114.039463,29.903094],[114.040641,29.898678],[114.039758,29.89544],[114.032104,29.893968],[114.026511,29.892202],[114.014148,29.883077],[114.008261,29.879839],[113.998252,29.878367],[113.989421,29.878661],[113.980002,29.876306],[113.967933,29.866887],[113.964106,29.871597],[113.961751,29.877484],[113.960574,29.884843],[113.960574,29.887492],[113.959102,29.891025],[113.958808,29.894557],[113.957336,29.898089],[113.953803,29.901622],[113.988538,29.910747],[114.002962,29.916929],[114.015031,29.928998],[114.000019,29.969914],[113.992071,29.976685],[113.976764,29.972269],[113.960279,29.952841],[113.947033,29.94872],[113.949094,29.95343],[113.953803,29.969914],[113.940557,29.970503],[113.932904,29.976979],[113.929077,29.986987],[113.926427,29.99729],[113.938202,29.991697],[113.954981,29.987282],[113.985006,29.983455],[113.99001,29.986104],[113.995897,29.991697],[114.000313,29.997585],[114.002079,30.000528],[114.006495,30.005827],[114.015325,30.001411],[114.024745,29.993758],[114.028277,29.989637],[114.039463,29.996701],[114.058597,30.019662],[114.06625,30.024372],[114.088328,30.034674],[114.098042,30.035852],[114.090388,30.024372],[114.099514,30.009948],[114.117764,29.99052],[114.12424,29.976685],[114.127773,29.958728],[114.128067,29.942538],[114.131305,29.926937]]]}},{"type":"Feature","properties":{"kind":"lakes","name":null,"source":"Natural Earth 1:10m"},"geometry":{"type":"Polygon","coordinates":[[[113.061586,29.396493],[113.069239,29.393844],[113.071594,29.386485],[113.069239,29.377948],[113.065118,29.369411],[113.063058,29.36323],[113.055698,29.284635],[113.049222,29.267856],[113.029206,29.232827],[113.017725,29.219874],[113.008895,29.205156],[113.000358,29.1663],[112.993588,29.147461],[112.986228,29.170421],[112.987406,29.254021],[112.992704,29.262557],[113.004479,29.269033],[113.016254,29.278159],[113.021552,29.294643],[113.02008,29.307301],[113.015665,29.322019],[113.008011,29.334088],[112.997414,29.339386],[112.970922,29.333499],[112.944429,29.31937],[112.898802,29.284635],[112.83522,29.215459],[112.816086,29.202213],[112.816086,29.229294],[112.822268,29.250194],[112.832865,29.271977],[112.88379,29.3491],[112.886145,29.365585],[112.87437,29.383835],[112.861124,29.394727],[112.854942,29.394727],[112.851704,29.390606],[112.846994,29.387662],[112.852293,29.380303],[112.845522,29.367057],[112.83522,29.359403],[112.829627,29.370295],[112.827272,29.396199],[112.827861,29.409445],[112.833453,29.415038],[112.842284,29.417393],[112.853765,29.423869],[112.864362,29.4327],[112.870543,29.442414],[112.858769,29.444474],[112.852293,29.45095],[112.846994,29.459781],[112.83728,29.469495],[112.826094,29.475088],[112.804311,29.479798],[112.795775,29.483919],[112.791359,29.480092],[112.787827,29.478621],[112.774286,29.477149],[112.774286,29.483919],[112.795481,29.491278],[112.811376,29.495105],[112.826389,29.493044],[112.844051,29.483919],[112.912343,29.431817],[112.92294,29.427401],[112.979752,29.374121],[112.994176,29.364407],[113.015076,29.357637],[113.033915,29.361169],[113.042158,29.383835],[113.045101,29.387956],[113.05246,29.393255],[113.061586,29.396493]]]}},{"type":"Feature","properties":{"kind":"lakes","name":"洞庭湖","source":"Natural Earth 1:10m"},"geometry":{"type":"Polygon","coordinates":[[[112.877314,28.997924],[112.885262,29.016175],[112.90469,29.031481],[112.903807,29.013525],[112.883201,28.987916],[112.878197,28.966133],[112.857297,28.915796],[112.859358,28.904316],[112.863184,28.891953],[112.864362,28.880473],[112.858769,28.860162],[112.846994,28.8425],[112.831099,28.830136],[112.804017,28.823072],[112.792537,28.818656],[112.781351,28.817184],[112.771343,28.821894],[112.766338,28.832786],[112.768988,28.841911],[112.775758,28.848976],[112.78194,28.853391],[112.801662,28.859278],[112.824328,28.861045],[112.842579,28.866638],[112.850232,28.883711],[112.842284,28.908732],[112.823151,28.90932],[112.78194,28.886654],[112.711292,28.867226],[112.700695,28.856335],[112.696869,28.848093],[112.688038,28.847798],[112.669198,28.853391],[112.659779,28.848093],[112.658012,28.836318],[112.659484,28.822483],[112.658307,28.811591],[112.650653,28.804527],[112.619156,28.781272],[112.61062,28.776856],[112.605321,28.780683],[112.603261,28.785982],[112.603849,28.801289],[112.600317,28.81012],[112.593252,28.811591],[112.585893,28.811591],[112.582655,28.815124],[112.575591,28.838379],[112.558223,28.820717],[112.536734,28.793047],[112.517306,28.787454],[112.504354,28.791575],[112.473446,28.781272],[112.456079,28.787454],[112.411335,28.825427],[112.380721,28.863694],[112.360116,28.881356],[112.336861,28.886654],[112.34216,28.867521],[112.338333,28.832197],[112.343043,28.811591],[112.331563,28.815713],[112.32597,28.825427],[112.32332,28.835141],[112.319494,28.839556],[112.312429,28.836024],[112.307719,28.828076],[112.302715,28.811591],[112.324204,28.783921],[112.329208,28.770675],[112.322437,28.770675],[112.312723,28.785982],[112.302715,28.798051],[112.296828,28.789514],[112.295062,28.780683],[112.296828,28.772147],[112.302715,28.763904],[112.29094,28.769792],[112.280343,28.773618],[112.272395,28.770969],[112.26798,28.756545],[112.26121,28.756545],[112.26327,28.773324],[112.27269,28.785099],[112.283581,28.795401],[112.288291,28.808353],[112.288291,28.816007],[112.287408,28.824543],[112.283287,28.825721],[112.27475,28.811591],[112.26798,28.811591],[112.266508,28.815418],[112.26121,28.825427],[112.248552,28.807765],[112.240604,28.790692],[112.233245,28.790692],[112.230301,28.804527],[112.233539,28.817773],[112.240604,28.832197],[112.227358,28.840145],[112.214111,28.835141],[112.202042,28.823366],[112.192917,28.811591],[112.188796,28.824249],[112.185264,28.853391],[112.186441,28.858395],[112.193212,28.861339],[112.192917,28.866343],[112.189385,28.871936],[112.185852,28.872819],[112.181143,28.873114],[112.17555,28.877235],[112.167602,28.884888],[112.159065,28.890187],[112.149351,28.89313],[112.123742,28.896663],[112.089301,28.914619],[112.001875,28.931398],[111.96243,28.950826],[111.966257,28.982911],[111.978326,28.987916],[111.996871,28.983794],[112.013649,28.975258],[112.029545,28.954358],[112.049562,28.949943],[112.089301,28.948765],[112.142287,28.934636],[112.151412,28.938168],[112.157593,28.956124],[112.172017,28.963483],[112.187913,28.967604],[112.199099,28.976141],[112.201159,29.007049],[112.1938,29.042667],[112.194389,29.072398],[112.220293,29.085939],[112.252673,29.076814],[112.263859,29.052087],[112.268274,29.024122],[112.281521,29.004106],[112.269746,28.973492],[112.26798,28.963189],[112.26798,28.951709],[112.282993,28.865754],[112.294178,28.860162],[112.31655,28.873702],[112.31655,28.880473],[112.303892,28.889598],[112.307425,28.908732],[112.319199,28.924627],[112.333329,28.924922],[112.351874,28.913441],[112.394262,28.89578],[112.411335,28.880473],[112.413985,28.873114],[112.415162,28.854569],[112.418106,28.845738],[112.425465,28.835729],[112.428997,28.834552],[112.433118,28.837495],[112.466381,28.844855],[112.476684,28.845738],[112.479333,28.849859],[112.473741,28.870759],[112.472857,28.880473],[112.483455,28.896368],[112.503177,28.906965],[112.525843,28.912853],[112.586482,28.914619],[112.597079,28.911087],[112.612975,28.89313],[112.624161,28.886654],[112.634463,28.886654],[112.65448,28.89313],[112.665666,28.894308],[112.675969,28.891658],[112.691276,28.882533],[112.703345,28.880473],[112.725127,28.882828],[112.745733,28.889304],[112.78194,28.907849],[112.816086,28.935224],[112.847289,28.947882],[112.857591,28.95583],[112.871426,28.977318],[112.877314,28.997924]]]}},{"type":"Feature","properties":{"kind":"lakes","name":null,"source":"Natural Earth 1:10m"},"geometry":{"type":"Polygon","coordinates":[[[112.522311,29.271683],[112.548509,29.271094],[112.557929,29.255493],[112.557046,29.235181],[112.548509,29.198975],[112.547037,29.179252],[112.54115,29.172776],[112.511125,29.174837],[112.500822,29.168655],[112.505237,29.155114],[112.520544,29.13392],[112.523194,29.118025],[112.519661,29.103306],[112.509653,29.091826],[112.494052,29.085939],[112.505532,29.114198],[112.497878,29.125972],[112.479628,29.130977],[112.459905,29.140691],[112.44872,29.147755],[112.432235,29.153348],[112.417811,29.160119],[112.411335,29.171304],[112.442244,29.223112],[112.462555,29.233415],[112.491402,29.254609],[112.522311,29.271683]]]}},{"type":"Feature","properties":{"kind":"lakes","name":null,"source":"Natural Earth 1:10m"},"geometry":{"type":"Polygon","coordinates":[[[114.172222,30.177147],[114.132482,30.188921],[114.111288,30.208349],[114.115409,30.225717],[114.126595,30.234842],[114.158681,30.250443],[114.160741,30.254859],[114.176048,30.277819],[114.179581,30.281352],[114.181641,30.286944],[114.19371,30.306078],[114.200186,30.313143],[114.219909,30.322857],[114.226679,30.317558],[114.225501,30.30284],[114.220792,30.285178],[114.216671,30.278702],[114.210783,30.271049],[114.206957,30.262512],[114.210195,30.25427],[114.219614,30.247205],[114.228151,30.243673],[114.23551,30.239257],[114.241691,30.229838],[114.227562,30.229838],[114.227562,30.223656],[114.235804,30.224245],[114.253172,30.223067],[114.261708,30.223656],[114.261708,30.216297],[114.244341,30.20099],[114.234038,30.195986],[114.220792,30.195692],[114.220792,30.188921],[114.229328,30.187155],[114.232566,30.185094],[114.23551,30.181562],[114.241691,30.17538],[114.214021,30.173026],[114.172222,30.177147]]]}},{"type":"Feature","properties":{"kind":"lakes","name":null,"source":"Natural Earth 1:10m"},"geometry":{"type":"Polygon","coordinates":[[[114.110994,30.208938],[114.111288,30.208349],[114.110699,30.204817],[114.110699,30.209232],[114.110994,30.208938]]]}},{"type":"Feature","properties":{"kind":"rivers","name":"Hongshui","source":"Natural Earth 1:10m"},"geometry":{"type":"MultiLineString","coordinates":[[[106.97047,25.241482],[106.977306,25.223212],[106.979096,25.200629],[106.977306,25.155829],[106.981944,25.134304],[107.018158,25.069525],[107.027843,25.042507],[107.03183,25.035997],[107.067556,25.018907],[107.085704,24.997341],[107.113048,24.998114],[107.155935,25.008734],[107.168224,24.995144],[107.195079,24.9442],[107.20753,24.932969],[107.21282,24.930732],[107.217459,24.925849],[107.223888,24.920966],[107.246186,24.915351],[107.253673,24.907009],[107.26588,24.885199],[107.310313,24.840155],[107.316824,24.830024],[107.317312,24.82099],[107.313731,24.806708],[107.315115,24.795437],[107.332042,24.759101],[107.334565,24.751085],[107.334076,24.741156],[107.328868,24.732733],[107.31129,24.716335],[107.306895,24.707058],[107.309988,24.695624],[107.334076,24.651801],[107.3449,24.622585],[107.353038,24.611192],[107.367686,24.597764],[107.404714,24.572821],[107.415538,24.562445],[107.456065,24.509101],[107.514171,24.395575],[107.521983,24.362006],[107.519786,24.323513],[107.531505,24.332953],[107.540294,24.341742],[107.549571,24.348253],[107.563243,24.350775],[107.5796,24.345811],[107.592459,24.333604],[107.60198,24.317979],[107.608409,24.303005],[107.610281,24.277452],[107.601329,24.225531],[107.608409,24.21365],[107.589936,24.194159],[107.576101,24.174262],[107.5595,24.163886],[107.532725,24.172634],[107.502208,24.138373],[107.485606,24.114569],[107.488048,24.103787],[107.492931,24.100613],[107.509288,24.086453],[107.515717,24.083279],[107.521088,24.078396],[107.514171,24.067979],[107.503673,24.058417],[107.498546,24.055976],[107.50172,24.043077],[107.520763,24.002509],[107.529063,23.993923],[107.536632,23.990261],[107.556407,23.963446],[107.566905,23.957139],[107.578217,23.955837],[107.589936,23.955837],[107.601573,23.953559],[107.614675,23.946234],[107.621023,23.940294],[107.62794,23.937445],[107.642589,23.939276],[107.653901,23.942979],[107.65919,23.947618],[107.663829,23.954169],[107.673106,23.963446],[107.689057,23.969428],[107.699474,23.959581],[107.717703,23.925605],[107.758556,23.877224],[107.782319,23.861843],[107.793061,23.840888],[107.80714,23.802069],[107.841238,23.739691],[107.864838,23.711249],[107.885265,23.709906],[107.894054,23.722357],[107.899669,23.733018],[107.907481,23.7414],[107.922455,23.746853],[107.956472,23.740912],[107.976003,23.740831],[107.98821,23.754828],[108.005382,23.753119],[108.011974,23.754259],[108.016775,23.76203],[108.018321,23.778591],[108.022472,23.785346],[108.034434,23.797797],[108.042003,23.808295],[108.050792,23.816718],[108.066498,23.823188],[108.098888,23.825466],[108.110362,23.830878],[108.121023,23.863349],[108.134776,23.859198],[108.16269,23.836249],[108.171804,23.846991],[108.190115,23.878445],[108.197276,23.88585],[108.212494,23.894599],[108.221446,23.901719],[108.231293,23.905382],[108.259776,23.910468],[108.265717,23.915635],[108.267345,23.926703],[108.275645,23.956163],[108.28004,23.966579],[108.286225,23.966579],[108.301524,23.958441],[108.310557,23.972235],[108.320404,24.007514],[108.352794,24.004828],[108.402843,24.048163],[108.434093,24.038886],[108.449311,24.028754],[108.474213,24.022284],[108.488292,24.011257],[108.503429,24.005439],[108.567393,24.007514],[108.585053,24.001532],[108.601573,23.993923],[108.605235,23.989569],[108.612071,23.977851],[108.615245,23.973985],[108.650401,23.950629],[108.664154,23.935614],[108.669932,23.915635],[108.700613,23.870958],[108.712576,23.861111],[108.721202,23.856879],[108.728608,23.863227],[108.751882,23.878445],[108.764415,23.851752],[108.796641,23.835761],[108.835704,23.828803],[108.869721,23.829413],[108.859304,23.815131],[108.857026,23.79914],[108.864513,23.784695],[108.882823,23.774766],[108.882823,23.768581],[108.862071,23.760362],[108.853038,23.754706],[108.848643,23.746853],[108.850108,23.734565],[108.857026,23.723822],[108.867279,23.716173],[108.879405,23.713324],[108.891368,23.706488],[108.898367,23.690456],[108.903412,23.672187],[108.910085,23.658718],[108.922455,23.648953],[108.942393,23.638373],[108.963959,23.633653],[108.982432,23.641303],[109.000255,23.657782],[109.0171,23.666856],[109.077159,23.685085],[109.132498,23.709906],[109.151134,23.726671],[109.168549,23.736274],[109.187755,23.737128],[109.211192,23.727607],[109.212576,23.724148],[109.216726,23.710476],[109.218435,23.706488],[109.222667,23.705512],[109.234793,23.707343],[109.239024,23.706488],[109.252208,23.689154],[109.261241,23.681342],[109.269786,23.682644],[109.285818,23.692898],[109.342052,23.706488],[109.398448,23.747667],[109.418956,23.757025],[109.424897,23.763699],[109.428722,23.771593],[109.427419,23.77851],[109.42213,23.790147],[109.42628,23.799343],[109.433686,23.8074],[109.438243,23.815741],[109.437022,23.826483],[109.429779,23.842475],[109.430919,23.850531],[109.437918,23.857856],[109.449474,23.864203],[109.460134,23.864447],[109.464936,23.853583],[109.467296,23.835557],[109.474294,23.817654],[109.487234,23.803087],[109.50644,23.795233],[109.528575,23.796413]]]}},{"type":"Feature","properties":{"kind":"rivers","name":"Chang Jiang","source":"Natural Earth 1:10m"},"geometry":{"type":"MultiLineString","coordinates":[[[112.78183,29.743964],[112.816905,29.753974],[112.852957,29.779079],[112.885834,29.791693],[112.912364,29.764431],[112.914806,29.754218],[112.916515,29.733954],[112.918468,29.723456],[112.929291,29.701361],[112.936046,29.693223],[112.945323,29.709255],[112.987315,29.743964],[113.012706,29.772895],[113.019216,29.77086],[113.021495,29.747382],[113.017182,29.724555],[113.005951,29.706122],[112.990652,29.691962],[112.935069,29.659532],[112.913503,29.634467],[112.908214,29.600694],[112.927664,29.495185],[112.935557,29.480496],[112.953136,29.476589],[112.972097,29.489325],[112.990815,29.507025],[113.007823,29.518012],[113.032644,29.518988],[113.044526,29.508368],[113.048595,29.48961],[113.048595,29.454169],[113.049815,29.446885],[113.054698,29.443223],[113.066173,29.442247],[113.07545,29.447455],[113.076427,29.459581],[113.074718,29.473456],[113.076182,29.483832],[113.084727,29.494656],[113.089936,29.496039],[113.112885,29.474189],[113.115245,29.467637],[113.117768,29.463935],[113.127615,29.462755]],[[103.850678,28.668036],[103.866303,28.675116],[103.870209,28.666205],[103.872569,28.657172],[103.87379,28.636583],[103.87794,28.630439],[103.887706,28.630683],[103.899099,28.633083],[103.908376,28.63349],[103.927826,28.626288],[103.939952,28.619696],[103.952403,28.614854],[103.972748,28.613064],[103.992279,28.616238],[104.029063,28.630316],[104.047537,28.63349],[104.05657,28.630398],[104.078624,28.613064],[104.091807,28.612616],[104.101085,28.615994],[104.11964,28.626736],[104.139903,28.633368],[104.178722,28.638536],[104.232188,28.639594],[104.239675,28.643419],[104.246511,28.654893],[104.248057,28.661933],[104.25058,28.661485],[104.260509,28.65058],[104.275076,28.638861],[104.292491,28.632148],[104.311697,28.630439],[104.33253,28.63349],[104.341401,28.637478],[104.34669,28.641913],[104.352306,28.645697],[104.36321,28.647162],[104.456472,28.6435],[104.483002,28.657579],[104.507823,28.678412],[104.563731,28.707546],[104.588634,28.728339],[104.603526,28.754747],[104.599294,28.784369],[104.622,28.79031],[104.66269,28.782253],[104.685069,28.794257],[104.699718,28.799587],[104.740001,28.795233],[104.757091,28.798041],[104.7671,28.80504],[104.783295,28.82038],[104.791108,28.825303],[104.803803,28.828477],[104.835948,28.825303],[104.858409,28.817735],[104.902436,28.784369],[104.92213,28.776923],[104.939952,28.784857],[104.95696,28.803005],[104.980235,28.835883],[104.991628,28.841498],[105.002045,28.837022],[105.011974,28.829413],[105.021495,28.825303],[105.029877,28.81977],[105.03004,28.807563],[105.026541,28.795518],[105.020763,28.782538],[105.015391,28.775214],[105.013113,28.767035],[105.018321,28.756415],[105.028575,28.750434],[105.05185,28.750434],[105.062755,28.746446],[105.095714,28.719184],[105.115733,28.71369],[105.140636,28.722927],[105.14796,28.728135],[105.15089,28.732245],[105.154307,28.749579],[105.155284,28.763495],[105.153331,28.770046],[105.154714,28.775824],[105.164806,28.787462],[105.176199,28.783881],[105.219493,28.7567],[105.236257,28.749579],[105.259939,28.752712],[105.2942,28.772244],[105.339936,28.783515],[105.351573,28.799872],[105.360362,28.839626],[105.36964,28.856798],[105.384044,28.869696],[105.402843,28.877753],[105.425222,28.880561],[105.435557,28.883816],[105.443858,28.891913],[105.459565,28.911241],[105.470714,28.913153],[105.481619,28.904486],[105.497569,28.886786],[105.518158,28.888292],[105.542735,28.899197],[105.559174,28.915107],[105.555919,28.931749],[105.545909,28.95128],[105.560069,28.961127],[105.585378,28.962266],[105.607432,28.955675],[105.622325,28.942165],[105.62794,28.927354],[105.62794,28.890489],[105.639252,28.887478],[105.692475,28.891059],[105.709076,28.894232],[105.752859,28.921698],[105.77532,28.928249],[105.784923,28.911241],[105.786632,28.887234],[105.79184,28.868679],[105.800548,28.853461],[105.812755,28.839626],[105.84547,28.825385],[105.877208,28.836127],[105.897227,28.863715],[105.894786,28.900458],[105.878184,28.910102],[105.873627,28.914659],[105.87322,28.919623],[105.874766,28.925971],[105.877452,28.930121],[105.881114,28.928331],[105.874034,28.939887],[105.86907,28.946072],[105.860769,28.948432],[105.843272,28.948798],[105.818858,28.957546],[105.823741,28.977078],[105.880626,29.047309],[105.897227,29.058621],[105.928803,29.064887],[105.97698,29.062445],[105.990896,29.064887],[106.001231,29.071804],[106.025076,29.106513],[106.089854,29.081244],[106.117931,29.078559],[106.14088,29.090522],[106.135753,29.117621],[106.121593,29.146674],[106.117931,29.164496],[106.155365,29.202094],[106.157725,29.208686],[106.156993,29.21544],[106.157237,29.222439],[106.162364,29.229356],[106.170828,29.233466],[106.177826,29.232611],[106.184011,29.23017],[106.189545,29.229356],[106.213471,29.235622],[106.237315,29.246527],[106.250987,29.264268],[106.244151,29.290839],[106.259369,29.290391],[106.308686,29.276394],[106.324311,29.283515],[106.348888,29.289578],[106.370128,29.29206],[106.374766,29.295925],[106.376475,29.302273],[106.385509,29.319932],[106.388438,29.32807],[106.392996,29.336493],[106.401866,29.346055],[106.411632,29.35281],[106.429779,29.362006],[106.439464,29.370307],[106.455089,29.389431],[106.463878,29.397406],[106.473562,29.400702],[106.501964,29.399522],[106.516205,29.401435],[106.524832,29.408149],[106.522472,29.415351],[106.504405,29.442247],[106.499522,29.455024],[106.497813,29.464952],[106.498057,29.480496],[106.500987,29.488471],[106.508311,29.491034],[106.528575,29.490058],[106.536062,29.494452],[106.536388,29.504584],[106.532237,29.524237],[106.534434,29.544989],[106.537608,29.551134],[106.545909,29.558946],[106.556082,29.562771],[106.569591,29.565009],[106.581635,29.568427],[106.586843,29.575751],[106.585704,29.591742],[106.586843,29.610378],[106.596446,29.624538],[106.621023,29.627265],[106.619884,29.624376],[106.665701,29.588406],[106.672293,29.577012],[106.680756,29.572618],[106.69101,29.571479],[106.70045,29.575751],[106.704275,29.57864],[106.716401,29.58454],[106.720795,29.585639],[106.724294,29.588446],[106.728526,29.601752],[106.730886,29.606147],[106.775076,29.617377],[106.810802,29.600409],[106.842214,29.593329],[106.908132,29.686713],[106.929698,29.70421],[106.963634,29.756944],[107.017345,29.787136],[107.025645,29.794786],[107.033132,29.809434],[107.050385,29.819892],[107.070893,29.82392],[107.087169,29.819648],[107.095876,29.804999],[107.107351,29.759589],[107.117768,29.740261],[107.149425,29.710639],[107.167572,29.696967],[107.183442,29.688747],[107.221121,29.691718],[107.295421,29.740058],[107.334076,29.7508],[107.375662,29.733222],[107.399018,29.728217],[107.409272,29.740261],[107.414073,29.763617],[107.425955,29.780463],[107.457042,29.805365],[107.473888,29.824164],[107.479747,29.841905],[107.47519,29.859198],[107.46046,29.876776],[107.458751,29.884711],[107.466563,29.892768],[107.478038,29.899034],[107.488048,29.901557],[107.501394,29.900499],[107.508311,29.897488],[107.519786,29.887315],[107.55714,29.867011],[107.596121,29.855333],[107.635916,29.853054],[107.676768,29.860663],[107.68629,29.864691],[107.744395,29.903754],[107.836681,29.987006],[107.84962,30.004706],[107.865896,30.048163],[107.865245,30.055528],[107.861501,30.063585],[107.860362,30.07628],[107.861827,30.099555],[107.868256,30.113227],[107.881277,30.129218],[107.897065,30.142442],[107.912608,30.148017],[107.928233,30.155544],[107.934581,30.173204],[107.937592,30.193671],[107.943614,30.209418],[107.961029,30.222032],[107.977794,30.226671],[107.992931,30.233018],[108.005056,30.250434],[108.014578,30.286322],[108.02003,30.299913],[108.032319,30.313096],[108.046886,30.320868],[108.064952,30.327582],[108.069347,30.329942],[108.074311,30.331977],[108.08074,30.332343],[108.085378,30.329047],[108.090261,30.322455],[108.093761,30.315985],[108.094493,30.313096],[108.118337,30.317572],[108.117198,30.331366],[108.102957,30.347846],[108.087576,30.360297],[108.152843,30.408067],[108.174327,30.411973],[108.196869,30.422146],[108.217214,30.435614],[108.231619,30.449652],[108.308116,30.579535],[108.314138,30.586859],[108.348725,30.638983],[108.358328,30.648261],[108.369558,30.65705],[108.409923,30.709744],[108.418956,30.729315],[108.422293,30.739814],[108.424083,30.750678],[108.422455,30.763943],[108.412201,30.784776],[108.409923,30.795722],[108.410818,30.820746],[108.416596,30.833808],[108.431163,30.840644],[108.480561,30.853298],[108.497569,30.862413],[108.508393,30.876776],[108.512218,30.898464],[108.522227,30.911933],[108.545909,30.918769],[108.573334,30.922919],[108.594737,30.928819],[108.624278,30.943671],[108.6421,30.948269],[108.666515,30.949978],[108.687511,30.945421],[108.722179,30.926296],[108.745616,30.922634],[108.790538,30.931586],[108.877208,30.95954],[108.924327,30.956814],[108.96933,30.94892],[109.012543,30.949408],[109.17685,30.97663],[109.199229,30.975694],[109.258881,30.963568],[109.296641,30.965847],[109.430105,30.996202],[109.4463,31.00255],[109.459972,31.010037],[109.486339,31.028876],[109.497813,31.034125],[109.573985,31.04267],[109.591807,31.040554],[109.608328,31.031846],[109.617198,31.016913],[109.623953,31.008328],[109.632823,31.004584],[109.653087,31.00434],[109.661713,31.002224],[109.670421,30.997097],[109.731456,31.021267],[109.765636,31.047553],[109.784679,31.053656],[109.871755,31.067572],[109.896658,31.068549],[109.923106,31.060492],[109.933849,31.064561],[109.944753,31.070421],[109.955007,31.073432],[109.965343,31.071967],[109.976085,31.068427],[109.985769,31.06391],[109.992605,31.059841],[110.02589,31.032904],[110.042735,31.026923],[110.071707,31.02501],[110.089854,31.027126],[110.12794,31.036322],[110.149506,31.038682],[110.281749,31.021023],[110.321544,31.031846],[110.328868,31.037909],[110.334972,31.044623],[110.342784,31.049994],[110.355724,31.052314],[110.366791,31.05032],[110.384288,31.040839],[110.427338,31.031277],[110.44394,31.02558],[110.511729,31.033271],[110.532807,31.031846],[110.550548,31.026231],[110.565115,31.015082],[110.583751,31.004991],[110.657319,30.997097],[110.720876,30.967719],[110.7588,30.960476],[110.801524,30.943874],[110.814952,30.936306],[110.827647,30.921698],[110.837494,30.906073],[110.850678,30.893622],[110.87322,30.888495],[110.921886,30.886827],[110.945242,30.882636],[110.965831,30.874213],[110.995209,30.844835],[111.006928,30.83808],[111.011974,30.833564],[111.018647,30.829047],[111.027599,30.827012],[111.036062,30.827989],[111.05128,30.832302],[111.058197,30.833279],[111.076182,30.838813],[111.098643,30.8487],[111.124034,30.852566],[111.150808,30.840115],[111.161225,30.826768],[111.162852,30.815538],[111.158214,30.788601],[111.166433,30.783718],[111.204275,30.778835],[111.216319,30.775214],[111.238292,30.764268],[111.263276,30.756537],[111.277599,30.741807],[111.267507,30.709744],[111.386974,30.593044],[111.391205,30.58572],[111.39739,30.553249],[111.40089,30.545844],[111.412364,30.533149],[111.432546,30.503526],[111.448822,30.47016],[111.448741,30.445909],[111.444428,30.423204],[111.470714,30.413845],[111.505626,30.409247],[111.527436,30.401231],[111.507253,30.358507],[111.499522,30.333686],[111.503673,30.31623],[111.533132,30.282538],[111.55071,30.271674],[111.575857,30.271511],[111.592052,30.281277],[111.607432,30.299506],[111.619151,30.319851],[111.629324,30.356024],[111.643158,30.371894],[111.678315,30.395046],[111.711029,30.41059],[111.751964,30.422187],[111.797293,30.428534],[111.842784,30.428534],[111.881358,30.41828],[111.908295,30.39765],[111.980968,30.304551],[111.997813,30.291815],[112.021007,30.285183],[112.063894,30.287299],[112.087413,30.291938],[112.103526,30.298855],[112.103526,30.291368],[112.146658,30.304877],[112.195323,30.307481],[112.239024,30.295478],[112.268077,30.264716],[112.270518,30.223578],[112.246023,30.196357],[112.213634,30.1706],[112.192882,30.134345],[112.196544,30.092353],[112.223155,30.076728],[112.309011,30.072862],[112.352468,30.05919],[112.391205,30.031684],[112.417898,29.99372],[112.425141,29.948798],[112.400645,29.884141],[112.394216,29.873643],[112.384369,29.863064],[112.379812,29.838487],[112.376557,29.791693],[112.36671,29.747504],[112.368663,29.726589],[112.387543,29.733425],[112.423839,29.761542],[112.443858,29.77204],[112.466075,29.778673],[112.53297,29.774359],[112.54184,29.781806],[112.543386,29.802069],[112.548839,29.823065],[112.559255,29.839626],[112.575857,29.8463],[112.600352,29.839219],[112.602631,29.821357],[112.590017,29.77497],[112.593435,29.742377],[112.59962,29.721991],[112.610606,29.709784],[112.636241,29.71369],[112.6421,29.743679],[112.63795,29.805365],[112.654307,29.822333],[112.682872,29.82685],[112.714773,29.822292],[112.740326,29.812201],[112.764171,29.789984],[112.748464,29.779812],[112.716807,29.77379],[112.692556,29.764431],[112.693126,29.747382],[112.721772,29.738593],[112.760183,29.737616],[112.788829,29.743964]]]}},{"type":"Feature","properties":{"kind":"rivers","name":"Yangtze","source":"Natural Earth 1:10m"},"geometry":{"type":"MultiLineString","coordinates":[[[119.606375,32.196885],[119.58782,32.19245],[119.572358,32.191759],[119.557384,32.200141],[119.54005,32.222113],[119.530365,32.231716],[119.517345,32.238064],[119.504812,32.239529],[119.452566,32.233466],[119.385753,32.237413],[119.365326,32.234402],[119.346202,32.226752],[119.324474,32.214626],[119.303722,32.206163],[119.278331,32.20128],[119.252208,32.200019],[119.229421,32.202663],[119.129242,32.228542],[119.078705,32.232733],[119.027843,32.2213],[118.96339,32.187771],[118.927745,32.176825],[118.909679,32.173896],[118.883474,32.173204],[118.820404,32.188992],[118.793224,32.192816],[118.78655,32.192694],[118.780284,32.191107],[118.774343,32.187079],[118.769054,32.18122],[118.764659,32.174506],[118.761485,32.168036],[118.759532,32.162909],[118.758474,32.160997],[118.747488,32.147244],[118.73406,32.124864],[118.706391,32.09337],[118.689464,32.062445],[118.668956,32.039496],[118.658376,32.030585],[118.645925,32.016181],[118.614838,31.990017],[118.586355,31.949571],[118.553315,31.916287],[118.540538,31.892442],[118.53476,31.884467],[118.504812,31.859198],[118.498627,31.851264],[118.448009,31.756415],[118.426199,31.724473],[118.41505,31.699774],[118.403819,31.623236],[118.379649,31.556179],[118.347992,31.507595],[118.31601,31.4713],[118.309825,31.460069],[118.305186,31.448798],[118.302175,31.438341],[118.301768,31.427802],[118.304861,31.416449],[118.31544,31.400824],[118.318614,31.394965],[118.322358,31.383165],[118.324474,31.371039],[118.32545,31.356391],[118.324474,31.338324],[118.3213,31.320828],[118.315115,31.308051],[118.306163,31.300401],[118.296641,31.29739],[118.220144,31.291124],[118.210053,31.287787],[118.173839,31.265896],[118.155935,31.259141],[118.112722,31.252509],[118.060557,31.233222],[118.040457,31.233344],[118.027843,31.243679],[118.014171,31.237616],[118.002371,31.223253],[117.995942,31.208604],[117.993582,31.19127],[117.992931,31.138983],[117.988699,31.122829],[117.980398,31.109971],[117.968272,31.100287],[117.952729,31.093573],[117.937266,31.088935],[117.921886,31.086005],[117.907156,31.087673],[117.894542,31.096788],[117.879242,31.12226],[117.870372,31.133328],[117.856863,31.140937],[117.839366,31.143663],[117.822765,31.141181],[117.807546,31.134385],[117.793386,31.124457],[117.781505,31.113959],[117.77239,31.103868],[117.766531,31.092108],[117.763276,31.076483],[117.763682,31.058702],[117.768891,31.023749],[117.768077,31.006659],[117.747162,30.943468],[117.732026,30.874457],[117.697276,30.803738],[117.687429,30.796658],[117.642589,30.789496],[117.608653,30.780137],[117.593354,30.773708],[117.552338,30.747829],[117.53712,30.740831],[117.466075,30.726264],[117.457937,30.722235],[117.436534,30.706366],[117.42921,30.70246],[117.421641,30.700507],[117.345876,30.698757],[117.326671,30.69477],[117.276947,30.673367],[117.260753,30.669623],[117.252371,30.670681],[117.234304,30.674913],[117.226003,30.673367],[117.2199,30.6671],[117.217703,30.658474],[117.217784,30.648953],[117.218842,30.640245],[117.220714,30.634304],[117.225678,30.623074],[117.22755,30.617377],[117.228038,30.611762],[117.224132,30.597235],[117.22405,30.586208],[117.232839,30.555121],[117.231293,30.543484],[117.225678,30.532497],[117.217865,30.522528],[117.209565,30.514024],[117.183116,30.499376],[117.150645,30.494249],[117.033295,30.490587],[117.007498,30.48371],[116.984386,30.471747],[116.94866,30.443427],[116.936127,30.435858],[116.925222,30.432929],[116.913259,30.431952],[116.901866,30.429755],[116.89267,30.423285],[116.888276,30.402615],[116.899099,30.380683],[116.913992,30.358588],[116.921397,30.33747],[116.920014,30.32453],[116.90683,30.270697],[116.896902,30.244208],[116.822276,30.115424],[116.808523,30.102078],[116.790538,30.090888],[116.716075,30.05976],[116.690522,30.0539],[116.662608,30.052761],[116.650076,30.050605],[116.636485,30.043321],[116.605072,30.017686],[116.593761,30.010565],[116.591726,30.005683],[116.587901,30.00198],[116.579112,29.995225],[116.575206,29.99079],[116.567149,29.976752],[116.548839,29.954128],[116.536632,29.923204],[116.526947,29.906684],[116.51295,29.89411],[116.492198,29.88463],[116.466563,29.880316],[116.414236,29.880561],[116.389171,29.876003],[116.356537,29.858262],[116.297537,29.808702],[116.265229,29.788886],[116.235932,29.781277],[116.206554,29.781317],[116.146983,29.788682],[116.110281,29.786444],[116.077647,29.776394],[116.012787,29.748155],[115.99879,29.744005],[115.888682,29.731757],[115.855724,29.738471],[115.743337,29.808783],[115.73642,29.816352],[115.72519,29.842637],[115.718191,29.854071],[115.704845,29.860704],[115.621104,29.862372],[115.534923,29.85456],[115.50644,29.857611],[115.46339,29.871283],[115.450043,29.87755],[115.437511,29.885362],[115.426687,29.895331],[115.417247,29.909369],[115.396088,29.956081],[115.386729,29.969672],[115.375906,29.980496],[115.338471,30.008002],[115.330496,30.018175],[115.301524,30.06741],[115.283376,30.10932],[115.275401,30.120958],[115.189952,30.208767],[115.164561,30.221055],[115.145518,30.222357],[115.106944,30.21955],[115.087983,30.224148],[115.072032,30.236029],[115.063569,30.25198],[115.061453,30.270453],[115.064138,30.289862],[115.072846,30.324246],[115.072765,30.341132],[115.064952,30.357367],[115.052989,30.369005],[114.987397,30.407416],[114.966075,30.41352],[114.94394,30.416042],[114.8803,30.414984],[114.860769,30.418891],[114.842703,30.428046],[114.829275,30.441107],[114.820567,30.457139],[114.810802,30.493191],[114.808035,30.511054],[114.808523,30.526313],[114.814057,30.539903],[114.826589,30.552802],[114.839936,30.563788],[114.851573,30.576931],[114.855398,30.591132],[114.844737,30.605658],[114.826671,30.613796],[114.806082,30.616278],[114.731456,30.609442],[114.714854,30.605414],[114.688487,30.590766],[114.67685,30.58629],[114.613048,30.573594],[114.600841,30.574286],[114.58017,30.581651],[114.56601,30.593329],[114.502371,30.673163],[114.484386,30.684353],[114.45753,30.690741],[114.429128,30.690294],[114.401378,30.683905],[114.375987,30.672675],[114.354015,30.656521],[114.311127,30.609646],[114.296397,30.586859]],[[116.19752,29.75141],[116.20753,29.779486]],[[113.127615,29.462755],[113.145437,29.471991],[113.16212,29.493109],[113.186046,29.531684],[113.415538,29.764472],[113.445974,29.780056],[113.497325,29.819403],[113.519216,29.84162],[113.590017,29.87991],[113.607026,29.890204],[113.629975,29.9088],[113.65032,29.929389],[113.664236,29.954617],[113.675955,29.961127],[113.687755,29.963446],[113.693126,29.959581],[113.703624,29.934149],[113.706716,29.9289],[113.748627,29.919989],[113.79241,29.933417],[113.831065,29.958279],[113.889659,30.013007],[113.92335,30.033555],[114.043956,30.07921],[114.062266,30.088935],[114.069835,30.103339],[114.064382,30.124376],[114.050873,30.136339],[114.015147,30.154853],[113.983409,30.185167],[113.964285,30.197943],[113.940115,30.203233],[113.918061,30.198065],[113.895274,30.188747],[113.874441,30.184841],[113.858165,30.195828],[113.857595,30.231065],[113.885509,30.265204],[113.927175,30.28852],[113.968028,30.291368],[113.983409,30.282579],[113.996755,30.268622],[114.018565,30.240505],[114.039073,30.2296],[114.053966,30.24018],[114.086029,30.31741],[114.106619,30.352322],[114.24171,30.497423],[114.287364,30.575995],[114.303233,30.593044]]]}},{"type":"Feature","properties":{"kind":"rivers","name":"Yuan","source":"Natural Earth 1:10m"},"geometry":{"type":"MultiLineString","coordinates":[[[112.993582,29.147488],[112.992442,29.164984],[112.995372,29.188992],[113.000011,29.216091],[113.034597,29.288113],[113.047944,29.363227],[113.069347,29.387641],[113.070811,29.389187]],[[112.904796,29.031358],[112.900076,29.017442],[112.881847,28.991523],[112.873057,28.974921],[112.862804,28.952704],[112.843272,28.931464],[112.766612,28.892524],[112.699718,28.870917],[112.669444,28.866889],[112.642589,28.861762],[112.611095,28.859442],[112.574718,28.874213],[112.539073,28.865668],[112.507823,28.831488],[112.470714,28.81977],[112.435557,28.820665],[112.412527,28.838324],[112.387625,28.871161],[112.361501,28.89171],[112.3331,28.900743],[112.324311,28.89293],[112.327566,28.870469],[112.320567,28.858222],[112.307628,28.843207],[112.272065,28.849555],[112.228445,28.891547],[112.186534,28.914089],[112.150645,28.91295],[112.119558,28.920274],[112.069916,28.93537],[112.028819,28.943874],[112.007823,28.950222],[111.997813,28.961249],[111.994395,28.976101],[111.992931,28.984687]]]}},{"type":"Feature","properties":{"kind":"rivers","name":"Yuan","source":"Natural Earth 1:10m"},"geometry":{"type":"MultiLineString","coordinates":[[[113.069347,29.387641],[113.085948,29.404486],[113.111095,29.444892],[113.127615,29.462755]],[[112.904796,29.031358],[112.921641,29.038926],[112.935557,29.054633],[112.942963,29.065253],[112.94337,29.074001],[112.940684,29.083319],[112.938975,29.095974],[112.944591,29.114814],[112.958263,29.127753],[112.993582,29.147488]],[[107.504812,26.337592],[107.498057,26.326199],[107.493337,26.305691],[107.493663,26.283067],[107.504975,26.257595],[107.505951,26.245063],[107.504975,26.232611],[107.496349,26.214219],[107.499522,26.205512],[107.506114,26.198676],[107.527354,26.182969],[107.560313,26.165554],[107.577403,26.149522],[107.59547,26.140489],[107.618337,26.142524],[107.640717,26.150702],[107.656261,26.160102],[107.67213,26.175157],[107.707774,26.218085],[107.712576,26.225898],[107.71575,26.236884],[107.719493,26.268622],[107.724132,26.275946],[107.738292,26.290391],[107.785574,26.361925],[107.803722,26.404568],[107.80714,26.44123],[107.797537,26.459499],[107.785085,26.475043],[107.779226,26.491482],[107.789806,26.512315],[107.808604,26.530341],[107.821381,26.5362],[107.861827,26.543647],[107.866466,26.547431],[107.870942,26.559394],[107.875418,26.564154],[107.880056,26.56505],[107.891612,26.563422],[107.896495,26.564154],[107.929861,26.581488],[107.936127,26.581244],[107.941905,26.596788],[107.969005,26.626532],[107.977794,26.639228],[107.986746,26.6706],[107.991466,26.680243],[108.014903,26.703192],[108.018891,26.711534],[108.028331,26.723456],[108.087576,26.755927],[108.115652,26.781195],[108.132498,26.792304],[108.152843,26.796942],[108.159272,26.801622],[108.173757,26.822699],[108.176362,26.827948],[108.180756,26.831122],[108.202566,26.841254],[108.237722,26.853339],[108.276866,26.860378],[108.312429,26.857001],[108.327891,26.834499],[108.335378,26.827175],[108.351736,26.824408],[108.368175,26.826728],[108.37558,26.834499],[108.382742,26.838813],[108.396007,26.832465],[108.404307,26.817694],[108.396088,26.796942],[108.399994,26.783962],[108.399425,26.778876],[108.396088,26.769599],[108.401866,26.772406],[108.416596,26.776435],[108.414561,26.773261],[108.413178,26.772244],[108.412039,26.771593],[108.409923,26.769599],[108.41741,26.764594],[108.425955,26.753363],[108.430268,26.749091],[108.437266,26.745307],[108.442963,26.743598],[108.485444,26.739773],[108.496755,26.732774],[108.505382,26.714952],[108.496104,26.704657],[108.497325,26.696479],[108.506114,26.690741],[108.519054,26.68769],[108.519135,26.67239],[108.538259,26.663031],[108.563487,26.655626],[108.581065,26.646064],[108.581065,26.659735],[108.595876,26.645575],[108.609874,26.60102],[108.625499,26.591417],[108.641124,26.599311],[108.654796,26.617621],[108.663259,26.638373],[108.663097,26.65351],[108.684093,26.664374],[108.69337,26.67121],[108.697195,26.67711],[108.698416,26.69184],[108.702729,26.696479],[108.721283,26.694525],[108.76295,26.694525],[108.7588,26.689643],[108.7553,26.67829],[108.751882,26.656602],[108.758718,26.63349],[108.775971,26.623847],[108.798595,26.619167],[108.8213,26.611355],[108.837169,26.594306],[108.852061,26.572048],[108.868582,26.557563],[108.889659,26.564154],[108.905284,26.555976],[108.917572,26.560411],[108.924571,26.573554],[108.924327,26.591417],[108.939708,26.585883],[108.950206,26.590766],[108.959565,26.60102],[108.971609,26.611355],[108.984955,26.617499],[109.03297,26.633083],[109.039073,26.618232],[109.059988,26.601752],[109.066987,26.591417],[109.08017,26.599718],[109.092052,26.617865],[109.101329,26.625596],[109.106944,26.626492],[109.120942,26.62405],[109.129242,26.625596],[109.133474,26.62877],[109.142345,26.637478],[109.146251,26.639228],[109.150076,26.643256],[109.190522,26.666571],[109.197032,26.677191],[109.206065,26.706],[109.214854,26.718085],[109.247976,26.743272],[109.252615,26.752509],[109.259776,26.759955],[109.307384,26.769599],[109.3178,26.775946],[109.331635,26.786811],[109.343761,26.800116],[109.348888,26.813992],[109.354421,26.81863],[109.38087,26.830146],[109.389903,26.837917],[109.369151,26.851874],[109.381358,26.872748],[109.408946,26.891669],[109.434581,26.899929],[109.453868,26.912136],[109.455333,26.939236],[109.444428,26.981879],[109.445974,26.995632],[109.45574,27.020331],[109.4581,27.033718],[109.450694,27.046169],[109.417898,27.060004],[109.410248,27.067206],[109.414073,27.080512],[109.42392,27.082384],[109.437022,27.079413],[109.459239,27.077948],[109.46339,27.076972],[109.468272,27.07807],[109.478608,27.084296],[109.486095,27.11225],[109.495209,27.104031],[109.509858,27.081366],[109.520112,27.07807],[109.530854,27.08747],[109.531505,27.103461],[109.535737,27.118516],[109.567882,27.127509],[109.583588,27.137274],[109.591319,27.139512],[109.600841,27.138454],[109.616954,27.133816],[109.625662,27.132676],[109.631928,27.14171],[109.638438,27.161933],[109.64796,27.182888],[109.663585,27.194159],[109.663259,27.163357],[109.66684,27.140245],[109.67864,27.126899],[109.7046,27.125271],[109.717459,27.127956],[109.732026,27.132636],[109.744721,27.139024],[109.752371,27.146999],[109.752615,27.158718],[109.749034,27.172675],[109.747,27.187445],[109.752371,27.201606],[109.763113,27.209662],[109.773855,27.208686],[109.800792,27.194159],[109.844249,27.179511],[109.855968,27.173651],[109.867686,27.164333],[109.874441,27.157579],[109.881847,27.152208],[109.896414,27.146999],[109.931895,27.139472],[109.944753,27.132676],[109.951589,27.139512],[109.966319,27.12995],[109.985281,27.124335],[110.00294,27.12641],[110.013682,27.139512],[109.995535,27.145575],[110.010265,27.166205],[110.054617,27.207831],[110.057872,27.214708],[110.060069,27.222357],[110.061453,27.238837],[110.064708,27.247504],[110.079275,27.257636],[110.087494,27.283759],[110.100515,27.293891],[110.117686,27.298163],[110.135916,27.297797],[110.125662,27.328233],[110.124522,27.344672],[110.132823,27.351833],[110.177419,27.365505],[110.19337,27.382188],[110.232839,27.454861],[110.277924,27.520575],[110.287364,27.544216],[110.292247,27.568915],[110.290538,27.579047],[110.283946,27.588568],[110.276134,27.597276],[110.269949,27.608018],[110.267996,27.620185],[110.273041,27.632921],[110.283702,27.627265],[110.293956,27.625841],[110.30421,27.627997],[110.314708,27.632921],[110.329275,27.643337],[110.33017,27.649604],[110.325043,27.656928],[110.321544,27.670518],[110.324636,27.676866],[110.332042,27.68004],[110.352306,27.681423],[110.358328,27.685167],[110.371755,27.70539],[110.37672,27.714911],[110.369721,27.722032],[110.367198,27.728827],[110.365896,27.735622],[110.363048,27.742784],[110.358979,27.748358],[110.34547,27.759874],[110.336843,27.772406],[110.341401,27.778022],[110.350678,27.783149],[110.359874,27.8074],[110.378835,27.836208],[110.382904,27.845893],[110.37851,27.866156],[110.368337,27.867499],[110.355479,27.863105],[110.342052,27.866319],[110.324718,27.911811],[110.321544,27.910427],[110.314057,27.902167],[110.296967,27.901719],[110.244395,27.908311],[110.238455,27.913357],[110.240489,27.922065],[110.250255,27.943468],[110.257904,27.95307],[110.268158,27.958604],[110.280528,27.955146],[110.282237,27.958075],[110.281993,27.959662],[110.282725,27.960517],[110.287364,27.96129],[110.287364,27.968777],[110.261485,27.972113],[110.180431,28.001247],[110.153901,28.013983],[110.146495,28.016547],[110.139171,28.021796],[110.137218,28.033962],[110.137543,28.047797],[110.135916,28.058173],[110.107188,28.085639],[110.102468,28.096015],[110.107432,28.105292],[110.119151,28.102891],[110.132742,28.097846],[110.143321,28.099148],[110.149343,28.11225],[110.143972,28.123603],[110.137218,28.133857],[110.139659,28.143826],[110.150076,28.148627],[110.160655,28.150214],[110.16505,28.154486],[110.156993,28.167344],[110.171153,28.172471],[110.176524,28.177924],[110.179128,28.185085],[110.184255,28.195339],[110.202159,28.219509],[110.204845,28.225775],[110.199474,28.234483],[110.175955,28.239285],[110.170665,28.246527],[110.169932,28.259589],[110.16448,28.29088],[110.199229,28.279893],[110.215017,28.278388],[110.232839,28.284044],[110.245209,28.293647],[110.287364,28.339301],[110.310639,28.383002],[110.321544,28.393337],[110.338471,28.40115],[110.357595,28.407172],[110.375662,28.415147],[110.38974,28.428738],[110.363048,28.437527],[110.371104,28.452012],[110.403412,28.472113],[110.403412,28.513739],[110.408946,28.518378],[110.435802,28.521552],[110.445079,28.523627],[110.454031,28.539822],[110.451915,28.577704],[110.462169,28.585069],[110.480479,28.585639],[110.500011,28.589545],[110.515147,28.600043],[110.520763,28.620469],[110.517345,28.629014],[110.509939,28.638129],[110.50294,28.645087],[110.499604,28.647162],[110.506358,28.659369],[110.517345,28.660468],[110.544444,28.653998],[110.566173,28.656114],[110.607188,28.665554],[110.667247,28.669298],[110.688731,28.676337],[110.698253,28.69184],[110.760265,28.722927],[110.765391,28.72956],[110.768158,28.735785],[110.771902,28.742255],[110.780284,28.749579],[110.791026,28.754584],[110.815847,28.761583],[110.840261,28.774726],[110.938487,28.798041],[110.972179,28.810126],[110.983165,28.811632],[111.003429,28.804389],[111.008311,28.790595],[111.013276,28.78205],[111.034679,28.790595],[111.062022,28.811632],[111.081391,28.82099],[111.086843,28.827745],[111.088634,28.842719],[111.091889,28.848904],[111.100027,28.856716],[111.110281,28.863389],[111.120372,28.866278],[111.12794,28.862616],[111.136729,28.842393],[111.143972,28.832139],[111.163829,28.823513],[111.186453,28.820624],[111.205089,28.813992],[111.212901,28.794257],[111.214773,28.770941],[111.221934,28.758409],[111.23642,28.752631],[111.295665,28.746161],[111.321544,28.746772],[111.339122,28.752997],[111.360037,28.7685],[111.363048,28.77379],[111.368175,28.786566],[111.380382,28.78913],[111.394216,28.788275],[111.404552,28.790595],[111.411143,28.800116],[111.417247,28.821479],[111.425141,28.832139],[111.433442,28.836005],[111.453868,28.838324],[111.462576,28.842719],[111.468028,28.850531],[111.472341,28.86225],[111.473643,28.874335],[111.469493,28.883653],[111.467296,28.893826],[111.475352,28.905097],[111.493337,28.921495],[111.514659,28.996161],[111.531668,29.034125],[111.561615,29.051296],[111.585948,29.046169],[111.593272,29.031033],[111.589692,28.98668],[111.591075,28.977403],[111.595632,28.972195],[111.603038,28.969835],[111.613455,28.969306],[111.626557,28.971137],[111.631358,28.976426],[111.63323,28.985053],[111.652273,29.028388],[111.665294,29.039415],[111.685802,29.037624],[111.696788,29.026679],[111.698985,28.995876],[111.705658,28.982978],[111.718354,28.976833],[111.775076,28.969306],[111.795421,28.970486],[111.811046,28.977566],[111.814952,28.990668],[111.80128,29.00963],[111.811697,29.017117],[111.82252,29.020535],[111.834727,29.020372],[111.84962,29.017117],[111.863455,29.009548],[111.888764,28.987576],[111.90089,28.982978],[111.958425,29.001329],[111.986746,29.003689],[111.992931,28.98489]]]}},{"type":"Feature","properties":{"kind":"rivers","name":"Xiang","source":"Natural Earth 1:10m"},"geometry":{"type":"MultiLineString","coordinates":[[[110.616954,25.48786],[110.624115,25.492621],[110.641368,25.501247],[110.651134,25.508368],[110.665538,25.526435],[110.674327,25.533474],[110.687999,25.536322],[110.689138,25.540635],[110.698009,25.560899],[110.701671,25.567003],[110.706472,25.57807],[110.700857,25.586697],[110.685313,25.597724],[110.678803,25.627997],[110.691987,25.6588],[110.739268,25.713813],[110.753673,25.726874],[110.770763,25.737982],[110.788259,25.745673],[110.804454,25.748562],[110.826915,25.755072],[110.845307,25.771064],[110.859874,25.791287],[110.881765,25.831163],[110.893321,25.843817],[110.943777,25.87226],[110.949718,25.876736],[110.952159,25.882025],[110.95517,25.886501],[110.962169,25.884792],[110.972585,25.878933],[110.994151,25.889716],[111.001475,25.89643],[111.006847,25.906846],[111.014171,25.899441],[111.023367,25.903144],[111.029063,25.901435],[111.033946,25.898627],[111.040945,25.899441],[111.046479,25.904324],[111.046397,25.909776],[111.045421,25.915351],[111.04835,25.920478],[111.059255,25.927558],[111.088634,25.940375],[111.086518,25.95364],[111.087576,25.966824],[111.091075,25.978868],[111.096121,25.988796],[111.097341,25.988796],[111.109874,26.000556],[111.109874,26.001776],[111.117686,26.0067],[111.122162,26.008857],[111.12558,26.007514],[111.1303,26.001776],[111.141124,26.010077],[111.152192,26.015001],[111.160818,26.021104],[111.166515,26.041205],[111.198009,26.092231],[111.253184,26.235175],[111.256358,26.256171],[111.260671,26.265082],[111.283214,26.273139],[111.285655,26.283311],[111.281261,26.294989],[111.273692,26.303494],[111.318126,26.321723],[111.332042,26.32392],[111.365001,26.317572],[111.380056,26.318874],[111.390391,26.331366],[111.39503,26.326361],[111.401785,26.321723],[111.404552,26.317165],[111.413829,26.322821],[111.422862,26.32331],[111.430919,26.318874],[111.438243,26.309638],[111.450694,26.312852],[111.462413,26.311062],[111.472341,26.312079],[111.479747,26.32392],[111.487234,26.32392],[111.490326,26.311835],[111.495942,26.302924],[111.503917,26.296007],[111.514415,26.290391],[111.513438,26.293728],[111.516775,26.298285],[111.52239,26.302273],[111.527436,26.303494],[111.532725,26.301052],[111.536388,26.293809],[111.567882,26.271999],[111.575857,26.268663],[111.588308,26.268744],[111.59075,26.270575],[111.591807,26.275946],[111.599539,26.286689],[111.607188,26.307725],[111.590261,26.350775],[111.592703,26.368598],[111.604015,26.389431],[111.604096,26.407904],[111.595876,26.423163],[111.582123,26.433783],[111.589936,26.445421],[111.607514,26.457953],[111.616954,26.467963],[111.623057,26.480251],[111.63144,26.505886],[111.637299,26.515733],[111.645925,26.522406],[111.6692,26.536322],[111.678315,26.543647],[111.686941,26.555365],[111.691742,26.564561],[111.698416,26.571885],[111.713145,26.577826],[111.713145,26.584662],[111.705496,26.589952],[111.701671,26.596544],[111.701671,26.603827],[111.705658,26.611355],[111.730398,26.586534],[111.739838,26.571601],[111.740326,26.550482],[111.75172,26.556667],[111.752615,26.564724],[111.750987,26.574164],[111.753998,26.584662],[111.765391,26.595893],[111.775483,26.599636],[111.798106,26.598253],[111.80071,26.596259],[111.802664,26.58572],[111.804861,26.581244],[111.811046,26.577908],[111.815522,26.579535],[111.819835,26.582831],[111.825694,26.584662],[111.846609,26.581326],[111.85434,26.584744],[111.863292,26.598253],[111.867117,26.588406],[111.870128,26.556708],[111.869395,26.547553],[111.864513,26.530788],[111.863292,26.519477],[111.868582,26.506456],[111.879649,26.511339],[111.889415,26.522773],[111.890636,26.529364],[111.900645,26.52558],[111.907156,26.518622],[111.911388,26.511908],[111.914806,26.508897],[111.927745,26.501044],[111.951752,26.465115],[111.966319,26.454901],[111.984874,26.454779],[112.023448,26.465155],[112.048839,26.467963],[112.048839,26.474799],[112.043793,26.476182],[112.04127,26.477851],[112.039073,26.479804],[112.034679,26.482204],[112.048595,26.496934],[112.067882,26.500271],[112.11378,26.495876],[112.133067,26.501085],[112.147472,26.513861],[112.172374,26.543647],[112.189382,26.548692],[112.212983,26.548367],[112.229096,26.541205],[112.223643,26.526313],[112.187266,26.501817],[112.180675,26.488552],[112.199148,26.474799],[112.2199,26.472032],[112.249929,26.473741],[112.276866,26.480333],[112.288503,26.492133],[112.290701,26.497423],[112.295665,26.502143],[112.300385,26.508612],[112.302745,26.519477],[112.30071,26.553656],[112.302745,26.564154],[112.316905,26.57685],[112.333507,26.572781],[112.34905,26.562527],[112.360281,26.556708],[112.375662,26.563747],[112.396902,26.593451],[112.411388,26.598253],[112.417491,26.593817],[112.431895,26.57038],[112.441905,26.563829],[112.448741,26.562323],[112.462901,26.564154],[112.474294,26.567328],[112.479015,26.574408],[112.480886,26.581407],[112.483409,26.584662],[112.494233,26.583116],[112.509288,26.577501],[112.5206,26.577826],[112.537608,26.584784],[112.570893,26.606716],[112.619884,26.614203],[112.627533,26.622992],[112.627452,26.638129],[112.630463,26.659735],[112.634776,26.668728],[112.651541,26.694525],[112.663097,26.723334],[112.6692,26.732042],[112.677257,26.75141],[112.657319,26.757392],[112.610606,26.755927],[112.589936,26.768826],[112.583507,26.789578],[112.591563,26.808905],[112.61435,26.81741],[112.637543,26.819932],[112.648692,26.827663],[112.665701,26.858344],[112.63087,26.873643],[112.616466,26.885077],[112.610606,26.903347],[112.61614,26.922634],[112.642507,26.953681],[112.651541,26.975653],[112.653412,27.016059],[112.660574,27.026679],[112.682384,27.0303],[112.697683,27.021918],[112.705658,27.004584],[112.716563,26.989936],[112.740326,26.989325],[112.757498,27.00198],[112.759858,27.021023],[112.75172,27.04206],[112.737234,27.060655],[112.728282,27.082953],[112.748464,27.091742],[112.77589,27.0928],[112.788829,27.091742],[112.807872,27.101915],[112.807709,27.118028],[112.80421,27.133002],[112.813243,27.139512],[112.840017,27.145453],[112.847585,27.160468],[112.844005,27.201606],[112.861095,27.235175],[112.920909,27.286444],[112.93214,27.32449],[112.927257,27.344672],[112.908946,27.385362],[112.904796,27.410183],[112.913503,27.423367],[112.933523,27.43419],[112.973643,27.448594],[112.986908,27.431993],[112.991954,27.413886],[113.00058,27.399359],[113.024669,27.393378],[113.044526,27.399726],[113.043793,27.415351],[113.036143,27.435411],[113.035167,27.454861],[113.063975,27.479275],[113.107188,27.495551],[113.138194,27.517198],[113.131358,27.557888],[113.111827,27.592149],[113.105724,27.612087],[113.103445,27.636746],[113.106456,27.659369],[113.120535,27.694607],[113.124034,27.714911],[113.122488,27.726426],[113.114024,27.745958],[113.11085,27.756456],[113.110769,27.76614],[113.116222,27.782091],[113.117686,27.794379],[113.120942,27.79739],[113.127615,27.802558],[113.134532,27.810411],[113.137625,27.821357],[113.135834,27.832872],[113.13087,27.841132],[113.122488,27.847235],[113.11085,27.852078],[113.090261,27.856757],[113.083018,27.859565],[113.062918,27.852118],[113.016612,27.851426],[112.997325,27.842149],[112.964692,27.814561],[112.944591,27.802802],[112.925304,27.797431],[112.903819,27.800564],[112.891368,27.811306],[112.885671,27.827948],[112.884288,27.848944],[112.893484,27.862331],[112.953217,27.906684],[112.987722,27.952419],[112.99114,27.958441],[112.987885,27.96544],[112.950043,28.007921],[112.939952,28.022895],[112.93214,28.044501],[112.930431,28.068386],[112.935557,28.087592],[112.942393,28.104844],[112.959483,28.201524],[112.960867,28.244656],[112.954275,28.27912],[112.936941,28.3074],[112.870942,28.356635],[112.844005,28.385688],[112.80128,28.452745],[112.766124,28.507514],[112.761485,28.523627],[112.762706,28.545111],[112.771414,28.553168],[112.785492,28.558539],[112.802419,28.572089],[112.810313,28.588935],[112.810802,28.6081],[112.805186,28.626166],[112.795665,28.639716],[112.776541,28.649929],[112.755789,28.651394],[112.734304,28.646999],[112.713634,28.639716],[112.711192,28.674425],[112.748464,28.696804],[112.793875,28.717312],[112.81601,28.746446],[112.826671,28.766628],[112.873627,28.776882],[112.884288,28.794257],[112.892996,28.857978],[112.891694,28.880561],[112.881765,28.915798],[112.879405,28.935248],[112.884288,28.955675],[112.896495,28.971544],[112.949474,29.006863],[112.982188,29.03502],[113.010916,29.068671],[113.018077,29.08865],[113.013438,29.110541],[112.993582,29.147488]]]}},{"type":"Feature","properties":{"kind":"rivers","name":"Dong","source":"Natural Earth 1:10m"},"geometry":{"type":"MultiLineString","coordinates":[[[115.707937,25.056505],[115.714936,25.044704],[115.731944,25.002794],[115.735037,24.984483],[115.736257,24.981879],[115.738455,24.979844],[115.740815,24.976752],[115.741954,24.970811],[115.739757,24.964911],[115.729991,24.955756],[115.727794,24.950059],[115.724213,24.943305],[115.716319,24.93948],[115.707449,24.936632],[115.700857,24.932969],[115.689382,24.913275],[115.680593,24.892035],[115.680756,24.886094],[115.687266,24.877387],[115.687999,24.871527],[115.684825,24.865017],[115.67571,24.853542],[115.673757,24.847276],[115.673106,24.838894],[115.665294,24.810818],[115.624522,24.730007],[115.595225,24.689724],[115.569347,24.662869],[115.556651,24.654364],[115.517589,24.636501],[115.50587,24.628445],[115.497488,24.616807],[115.48878,24.597764],[115.492686,24.588813],[115.47877,24.56741],[115.474294,24.552802],[115.471283,24.506619],[115.474294,24.494167],[115.428233,24.459418],[115.420421,24.450059],[115.412201,24.444932],[115.394054,24.451524],[115.365245,24.467475],[115.372569,24.430447],[115.36907,24.414862],[115.351003,24.419053],[115.344249,24.41295],[115.322846,24.402208],[115.317393,24.398546],[115.317556,24.389228],[115.328705,24.369412],[115.327403,24.361029],[115.312511,24.35102],[115.268158,24.333523],[115.197032,24.290391],[115.183686,24.278144],[115.177257,24.258897],[115.192556,24.246039],[115.216401,24.234971],[115.235444,24.221055],[115.241954,24.206651],[115.246023,24.187771],[115.248546,24.148464],[115.24407,24.126247],[115.232514,24.109687],[115.200694,24.083279],[115.178152,24.059678],[115.163585,24.047553],[115.149506,24.042304],[115.123546,24.039415],[115.107432,24.031277],[115.096121,24.018337],[115.084727,24.001329],[115.069835,23.989081],[115.065929,23.982204],[115.070974,23.973985],[115.057058,23.957709],[115.00172,23.919704],[114.985281,23.900255],[114.976329,23.890326],[114.96575,23.884223],[114.951915,23.883857],[114.933197,23.891466],[114.912527,23.872382],[114.88323,23.857489],[114.780528,23.821153],[114.747488,23.798448],[114.720225,23.76907],[114.70045,23.733832],[114.676768,23.67536],[114.673106,23.661811],[114.670665,23.641221],[114.652599,23.590399],[114.650076,23.572089],[114.650645,23.554226],[114.656261,23.540595],[114.669444,23.535183],[114.674246,23.527371],[114.686697,23.47309],[114.666515,23.462999],[114.631928,23.42654],[114.607595,23.418524],[114.601736,23.41531],[114.580658,23.394884],[114.57073,23.389472],[114.559825,23.391466],[114.543468,23.398627],[114.522634,23.396348],[114.507823,23.389024],[114.498627,23.375312],[114.495616,23.353624],[114.502208,23.33336],[114.552826,23.272569],[114.556733,23.269884],[114.560964,23.266303],[114.563894,23.26085],[114.552175,23.244412],[114.550304,23.240343],[114.555675,23.232733],[114.564545,23.226142],[114.573985,23.221544],[114.580658,23.219835],[114.587332,23.211697],[114.59433,23.192694],[114.595307,23.171902],[114.583914,23.157782],[114.5831,23.161404],[114.572846,23.165961],[114.559825,23.169949],[114.550304,23.171454],[114.52825,23.160264],[114.514659,23.156073],[114.504812,23.164415],[114.478038,23.181993],[114.466075,23.186306],[114.457286,23.179023],[114.433523,23.125922],[114.426199,23.117499],[114.415619,23.109442],[114.408946,23.108588],[114.296397,23.157782],[114.28419,23.153428],[114.249034,23.15644],[114.233165,23.13642],[114.195079,23.116156],[114.179779,23.099392],[114.138194,23.075873],[114.122813,23.064276],[114.111501,23.057725],[114.098399,23.060329],[114.07724,23.075873],[114.058116,23.09394],[114.047374,23.095486],[114.031993,23.086453],[114.01588,23.080268],[113.996755,23.081895],[113.980886,23.089219],[113.974213,23.100409],[113.905935,23.110663],[113.872,23.101915],[113.856293,23.103217],[113.843516,23.110256]],[[114.636485,23.735948],[114.639089,23.733832],[114.657237,23.723822],[114.671397,23.73017],[114.686534,23.741563],[114.707286,23.746853]],[[113.844005,23.110663],[113.843516,23.110256]],[[113.843516,23.110256],[113.830333,23.117499]],[[113.843516,23.110256],[113.832286,23.100857],[113.812022,23.089382],[113.78948,23.079861],[113.756847,23.07156],[113.617768,22.949286]]]}},{"type":"Feature","properties":{"kind":"rivers","name":"Bei","source":"Natural Earth 1:10m"},"geometry":{"type":"MultiLineString","coordinates":[[[112.528819,25.317247],[112.577729,25.322048],[112.673432,25.358832],[112.721609,25.367133],[112.733165,25.364814],[112.755382,25.354356],[112.766775,25.350938],[112.790457,25.348171],[112.798839,25.344916],[112.837332,25.320258],[112.869721,25.306098],[113.016775,25.281562],[113.051768,25.259548],[113.115815,25.234076],[113.150645,25.225124],[113.182709,25.222602],[113.202078,25.23017],[113.234955,25.256863],[113.254893,25.258409],[113.273448,25.246039],[113.28297,25.226182],[113.29241,25.162218],[113.296479,25.153998],[113.316905,25.137071],[113.330333,25.121772],[113.356456,25.075385],[113.366954,25.062567],[113.378184,25.052273],[113.404307,25.038113],[113.414236,25.030056],[113.42099,25.015408],[113.423269,24.996446],[113.422862,24.981024],[113.426362,24.966661],[113.440115,24.950751],[113.44752,24.94599],[113.461436,24.940985],[113.467865,24.937567],[113.491222,24.914618],[113.519542,24.899726],[113.531749,24.891466],[113.54184,24.877875],[113.545909,24.865505],[113.554617,24.825263],[113.559255,24.817328],[113.564138,24.811632],[113.568614,24.805121],[113.5713,24.794867],[113.57073,24.772895],[113.563975,24.751817],[113.550955,24.736436],[113.518077,24.727891],[113.516205,24.71662],[113.521414,24.691026],[113.520112,24.661933],[113.523367,24.631619],[113.53419,24.604031],[113.555756,24.583197],[113.580577,24.543402],[113.56129,24.494981],[113.497325,24.412462],[113.474294,24.370551],[113.461518,24.352729],[113.41448,24.30036],[113.406749,24.280219],[113.413666,24.260769],[113.42213,24.257148],[113.444021,24.256903],[113.451671,24.252631],[113.451671,24.238552],[113.399669,24.113593],[113.387543,24.092963],[113.357432,24.067979],[113.322032,24.053168],[113.292003,24.033026],[113.277354,23.992133],[113.281749,23.947089],[113.280528,23.93183],[113.274913,23.914903],[113.249766,23.868598],[113.247162,23.854071],[113.246755,23.822943],[113.244151,23.807969],[113.228119,23.77265],[113.203298,23.736599],[113.170909,23.711778],[113.119721,23.71129],[113.11142,23.705634],[113.10434,23.697618],[113.094819,23.691759],[113.084076,23.689236],[113.076101,23.688788],[113.035655,23.694159],[113.017182,23.69363],[113.00058,23.687201],[112.984793,23.672227],[112.973888,23.647732],[112.976329,23.625515],[112.982432,23.602729],[112.981619,23.576687],[112.970714,23.549425],[112.953705,23.524237],[112.895437,23.457831],[112.889252,23.439399],[112.887136,23.390204],[112.875011,23.339382],[112.865164,23.314073],[112.810557,23.226345],[112.803966,23.192735],[112.819347,23.152859]]]}},{"type":"Feature","properties":{"kind":"rivers","name":"Duliu","source":"Natural Earth 1:10m"},"geometry":{"type":"MultiLineString","coordinates":[[[109.459239,25.650743],[109.439871,25.681342],[109.413666,25.702338],[109.401459,25.706895],[109.33253,25.717393],[109.276296,25.717108],[109.195567,25.705756],[109.163259,25.706488],[109.151866,25.718777],[109.156261,25.746934],[109.149913,25.76378],[109.131928,25.772813],[109.055105,25.78498],[109.034109,25.783271],[109.011974,25.771837],[108.973562,25.731513],[108.952078,25.714667],[108.924897,25.709011],[108.898529,25.721137],[108.887299,25.745876],[108.879649,25.773627],[108.864268,25.794989],[108.851736,25.800238],[108.844819,25.79739],[108.838959,25.790798],[108.8296,25.784776],[108.774994,25.769639],[108.746023,25.749864],[108.735606,25.744737],[108.724701,25.742987],[108.710948,25.744452],[108.69101,25.752265],[108.684825,25.763617],[108.682628,25.778022],[108.675548,25.794989],[108.666921,25.802517],[108.655772,25.806749],[108.632091,25.811225],[108.606944,25.831814],[108.598155,25.837348],[108.561046,25.84748],[108.550141,25.855007],[108.542003,25.866645],[108.527924,25.893826],[108.517507,25.902167],[108.500011,25.902615],[108.482595,25.894314],[108.465912,25.883612],[108.449636,25.876736],[108.441824,25.876654],[108.426524,25.880072],[108.419932,25.880316],[108.413178,25.877712],[108.402273,25.868923],[108.396658,25.866767],[108.383718,25.867947],[108.342865,25.879421],[108.313569,25.87698],[108.233165,25.844346],[108.204845,25.840277],[108.175141,25.840766],[108.117279,25.850857],[108.093272,25.86754],[108.083995,25.895697],[108.075613,25.959418],[108.06837,25.974555],[108.060557,25.977891],[108.049815,25.976345],[108.033295,25.976833],[108.025645,25.979315],[108.005382,25.9914],[108.001231,25.993476],[107.996593,25.995063],[107.991628,25.995958],[107.985932,25.996039],[107.932221,25.983669],[107.913829,25.983344],[107.902843,25.985907],[107.895925,25.988471],[107.88795,25.989325],[107.874115,25.986925],[107.814871,25.965399],[107.784597,25.945176],[107.777761,25.924587],[107.780772,25.899237],[107.779552,25.864936],[107.764578,25.82921],[107.735606,25.789984],[107.699229,25.760199],[107.66212,25.753119],[107.647472,25.761054],[107.60906,25.792914],[107.597992,25.806016]]]}},{"type":"Feature","properties":{"kind":"rivers","name":"Rong","source":"Natural Earth 1:10m"},"geometry":{"type":"MultiLineString","coordinates":[[[109.492768,24.419989],[109.484955,24.42239],[109.459239,24.393419],[109.424815,24.379706],[109.413259,24.361274],[109.412608,24.339138],[109.415131,24.318956],[109.41212,24.311062],[109.394135,24.325751],[109.367117,24.359076],[109.351654,24.370469],[109.326264,24.377956],[109.306163,24.388983],[109.306407,24.407782],[109.312022,24.430365],[109.306895,24.452582],[109.284597,24.467556],[109.243256,24.468817],[109.231375,24.489854],[109.232188,24.505398],[109.239757,24.51671],[109.260509,24.537421],[109.269216,24.556993],[109.266124,24.570868],[109.244558,24.600369],[109.239675,24.620063],[109.239757,24.640163],[109.237315,24.658555],[109.22462,24.673651],[109.207042,24.67711],[109.18629,24.675727],[109.167491,24.67768],[109.156179,24.691514],[109.157237,24.703315],[109.171967,24.721462],[109.17571,24.731228],[109.169037,24.748969],[109.139252,24.771837],[109.132253,24.792182],[109.135671,24.801093],[109.142182,24.809109],[109.146902,24.818183],[109.144054,24.830349],[109.131114,24.846747],[109.131602,24.852729],[109.138682,24.86697],[109.151134,24.884589],[109.161713,24.885565],[109.174897,24.879665],[109.195242,24.876492],[109.211925,24.88463],[109.221202,24.902452],[109.229991,24.94241],[109.238048,24.959988],[109.244151,24.969102],[109.243175,24.979315],[109.229503,25.000027],[109.257823,25.019802],[109.26588,25.047309],[109.269949,25.077216],[109.287039,25.104315],[109.305756,25.1164],[109.323253,25.124701],[109.339366,25.134955],[109.354015,25.153022],[109.377615,25.205919],[109.394135,25.262519],[109.403738,25.330349],[109.41212,25.349392],[109.426768,25.371894],[109.432628,25.386827],[109.430593,25.427069],[109.435557,25.466824],[109.466075,25.542751],[109.474539,25.582302],[109.471202,25.615994],[109.459239,25.650743]]]}}]}