{"type":"FeatureCollection","features":[{"type":"Feature","properties":{"kind":"lakes","name":"新丰江水库","source":"Natural Earth 1:10m"},"geometry":{"type":"Polygon","coordinates":[[[114.662927,23.902775],[114.711497,23.901892],[114.727687,23.89836],[114.704726,23.889823],[114.682943,23.884819],[114.668225,23.874222],[114.665576,23.850673],[114.658805,23.850673],[114.657922,23.859209],[114.655567,23.862742],[114.651741,23.865391],[114.645265,23.870984],[114.638494,23.85656],[114.630252,23.82889],[114.624659,23.815643],[114.625542,23.810345],[114.628192,23.80328],[114.62672,23.797687],[114.607586,23.793861],[114.583743,23.782086],[114.59434,23.775316],[114.615534,23.757654],[114.621421,23.754416],[114.636139,23.748823],[114.637022,23.738226],[114.628192,23.73175],[114.614651,23.737343],[114.594928,23.74794],[114.565786,23.754416],[114.537822,23.751766],[114.52222,23.73381],[114.51545,23.73381],[114.498966,23.746468],[114.475711,23.73852],[114.451867,23.726746],[114.433617,23.727629],[114.435383,23.735871],[114.441565,23.749117],[114.443625,23.760303],[114.433617,23.761186],[114.423314,23.754416],[114.415072,23.735871],[114.405652,23.727629],[114.389757,23.74529],[114.385636,23.754416],[114.388285,23.760597],[114.395644,23.763835],[114.399765,23.767368],[114.391817,23.774727],[114.391817,23.782086],[114.419782,23.788268],[114.427141,23.788268],[114.430673,23.786501],[114.433911,23.784147],[114.440387,23.782086],[114.505147,23.782086],[114.517805,23.785618],[114.527519,23.794155],[114.533701,23.805929],[114.536056,23.81947],[114.53164,23.828007],[114.510152,23.847435],[114.501909,23.85656],[114.506619,23.864214],[114.502204,23.87275],[114.49249,23.880109],[114.481598,23.884819],[114.480126,23.865097],[114.472473,23.84508],[114.459815,23.829479],[114.44392,23.823297],[114.421548,23.823297],[114.41154,23.825946],[114.402709,23.832717],[114.368562,23.833305],[114.357965,23.836249],[114.383575,23.848612],[114.442448,23.853616],[114.46011,23.870984],[114.440093,23.871573],[114.433617,23.870984],[114.447158,23.904836],[114.455105,23.918082],[114.46011,23.90513],[114.476888,23.913372],[114.491018,23.915433],[114.503676,23.916022],[114.51545,23.91926],[114.527225,23.929562],[114.535467,23.943692],[114.540765,23.959293],[114.543415,23.974011],[114.543415,23.991968],[114.539588,24.00492],[114.534584,24.017872],[114.529874,24.035533],[114.530757,24.05084],[114.534584,24.06497],[114.534289,24.076744],[114.52222,24.08322],[114.52222,24.089402],[114.530168,24.089991],[114.535761,24.088519],[114.543415,24.08322],[114.549596,24.07174],[114.551657,24.037594],[114.556367,24.021698],[114.567258,24.011396],[114.579916,24.009335],[114.591102,24.016694],[114.597578,24.035533],[114.609352,24.013456],[114.593162,23.994911],[114.569024,23.977249],[114.556367,23.956938],[114.555484,23.942514],[114.55254,23.928385],[114.548419,23.915727],[114.543415,23.90513],[114.541649,23.896888],[114.542826,23.890412],[114.541649,23.886291],[114.532818,23.884819],[114.525753,23.886291],[114.501909,23.89836],[114.508385,23.886291],[114.517805,23.880404],[114.527813,23.876577],[114.536056,23.870984],[114.538999,23.864214],[114.544592,23.843902],[114.550185,23.836249],[114.567258,23.833011],[114.585214,23.841548],[114.598755,23.855088],[114.611707,23.888057],[114.628486,23.908368],[114.645265,23.918377],[114.652624,23.908368],[114.662927,23.902775]]]}},{"type":"Feature","properties":{"kind":"rivers","name":"Jiulong","source":"Natural Earth 1:10m"},"geometry":{"type":"MultiLineString","coordinates":[[[116.79835,25.012803],[116.841401,24.993354],[116.888927,24.988837],[116.934988,24.99962],[116.973888,25.025987],[116.991628,25.047919],[117.044444,25.135362],[117.086192,25.189724],[117.122162,25.255235],[117.133311,25.270941],[117.142589,25.278998],[117.280854,25.331366],[117.295665,25.331366],[117.30714,25.325385],[117.317475,25.31684],[117.329275,25.309394],[117.343842,25.304511],[117.450694,25.287624],[117.483328,25.277126],[117.498546,25.260565],[117.50172,25.249091],[117.511729,25.226874],[117.513194,25.215644],[117.510753,25.204454],[117.502615,25.182563],[117.499766,25.171169],[117.502615,25.145779],[117.52532,25.106065],[117.530528,25.085964],[117.528412,25.075995],[117.518077,25.058661],[117.514171,25.049425],[117.511241,25.031277],[117.510834,24.995429],[117.503184,24.959581],[117.503022,24.941107],[117.507091,24.923204],[117.516043,24.907009],[117.546804,24.873847],[117.555431,24.861192],[117.592296,24.762315],[117.597992,24.752509],[117.617198,24.73078],[117.622569,24.715766],[117.624929,24.682685],[117.628998,24.6671],[117.638601,24.654812],[117.662852,24.640692],[117.674246,24.630683],[117.682546,24.616523],[117.696788,24.584011],[117.70696,24.56977],[117.755789,24.535712],[117.768321,24.521064],[117.773692,24.504828],[117.774913,24.48961],[117.778331,24.47488],[117.790538,24.459784]]]}},{"type":"Feature","properties":{"kind":"rivers","name":"Quan","source":"Natural Earth 1:10m"},"geometry":{"type":"MultiLineString","coordinates":[[[109.528575,23.796413],[109.543875,23.797065],[109.560964,23.789496],[109.567963,23.764838],[109.561941,23.747178],[109.550222,23.731879],[109.542247,23.718451],[109.547537,23.706488],[109.559255,23.70185],[109.56837,23.705146],[109.577159,23.710801],[109.587901,23.713324],[109.602631,23.711697],[109.606049,23.708564],[109.604015,23.701931],[109.602061,23.68948],[109.612315,23.682563],[109.634369,23.685248],[109.655528,23.682318],[109.663585,23.658718],[109.655854,23.642401],[109.642996,23.62698],[109.635916,23.611151],[109.646251,23.593573],[109.653412,23.59101],[109.670909,23.592353],[109.677257,23.590399],[109.683604,23.582343],[109.691498,23.55504],[109.722667,23.493679],[109.74464,23.465196],[109.76295,23.463202],[109.78712,23.480821],[109.815359,23.485216],[109.838878,23.473456],[109.853282,23.429389],[109.865164,23.426622],[109.896414,23.432156],[109.90976,23.432929],[109.922862,23.431749],[109.936534,23.427354],[109.951589,23.418524],[109.978282,23.45185],[109.998139,23.467312],[110.0171,23.463202],[110.050141,23.423611],[110.068614,23.4088],[110.089366,23.404853]]]}},{"type":"Feature","properties":{"kind":"rivers","name":"Xun","source":"Natural Earth 1:10m"},"geometry":{"type":"MultiLineString","coordinates":[[[110.089285,23.407986],[110.090831,23.406806],[110.104015,23.407416],[110.113699,23.418158],[110.11614,23.432807],[110.116466,23.448432],[110.119884,23.461982],[110.122813,23.466417],[110.126557,23.470486],[110.131114,23.47366],[110.135916,23.475857],[110.142996,23.476589],[110.156749,23.474555],[110.163178,23.475369],[110.163666,23.513454],[110.16505,23.523464],[110.168875,23.529608],[110.175548,23.533067],[110.185557,23.53498],[110.200613,23.57331],[110.208263,23.583075],[110.221283,23.589057],[110.237885,23.590766],[110.254893,23.589545],[110.27589,23.585069],[110.282237,23.58279],[110.287852,23.579372],[110.292247,23.574408],[110.294932,23.567735],[110.297374,23.553168],[110.300548,23.546902],[110.312592,23.540147],[110.329845,23.538357],[110.362315,23.539374],[110.379812,23.537218],[110.39739,23.532416],[110.414154,23.525255],[110.429291,23.516425],[110.462494,23.487372],[110.476492,23.482489],[110.506602,23.480292],[110.521658,23.477362],[110.534597,23.470893],[110.541026,23.459744],[110.545909,23.445136],[110.553152,23.435736],[110.565929,23.440253],[110.571218,23.446357],[110.57545,23.453152],[110.580658,23.459011],[110.587901,23.462429],[110.597179,23.461737],[110.613699,23.452908],[110.622081,23.449571],[110.628917,23.449815],[110.634695,23.452338],[110.640147,23.455512],[110.646576,23.45779],[110.654877,23.457221],[110.677419,23.446885],[110.693451,23.447292],[110.70753,23.454535],[110.720795,23.464179],[110.734874,23.471951],[110.751231,23.47545],[110.769054,23.475409],[110.786388,23.471869],[110.801362,23.465033],[110.828298,23.447862],[110.841319,23.441759],[110.846934,23.43769],[110.851573,23.431993],[110.856293,23.418728],[110.860606,23.38996],[110.868744,23.37877],[110.895112,23.371527],[110.919037,23.383653],[110.941335,23.402615],[110.962901,23.415595],[111.070567,23.452501],[111.086029,23.455919],[111.092703,23.456122],[111.135916,23.449774],[111.18629,23.433132],[111.201671,23.430691],[111.216319,23.430854],[111.230886,23.433173],[111.232026,23.447089],[111.235281,23.460232],[111.241791,23.471055],[111.253835,23.478339],[111.271414,23.481635],[111.301362,23.480658]]]}},{"type":"Feature","properties":{"kind":"rivers","name":"Gan","source":"Natural Earth 1:10m"},"geometry":{"type":"MultiLineString","coordinates":[[[114.412527,24.707058],[114.43214,24.710639],[114.448822,24.707709],[114.465424,24.702826],[114.484874,24.700222],[114.501964,24.708767],[114.521983,24.746365],[114.539643,24.754828],[114.559825,24.758246],[114.575287,24.766872],[114.587494,24.778144],[114.602794,24.796576],[114.61378,24.815538],[114.619151,24.824164],[114.625662,24.830878],[114.635265,24.835232],[114.648936,24.836778],[114.665538,24.845242],[114.685476,24.862128],[114.70696,24.875067],[114.727794,24.871527],[114.734386,24.89171],[114.739513,24.902899],[114.748953,24.912543],[114.768891,24.904079],[114.771088,24.921942],[114.766368,24.948025],[114.765391,24.963975],[114.776296,24.980496],[114.782481,24.999091],[114.784597,25.018134],[114.779307,25.055528],[114.776134,25.060574],[114.768891,25.069525],[114.760265,25.076239],[114.751231,25.080593],[114.744314,25.087104],[114.741466,25.100531],[114.751964,25.103949],[114.817149,25.138454],[114.828298,25.141547],[114.857514,25.14529],[114.86142,25.148464],[114.87379,25.154731],[114.886811,25.157091],[114.894949,25.145575],[114.899425,25.144558],[114.903901,25.145575],[114.905854,25.148708],[114.904796,25.154608],[114.902436,25.157904],[114.900076,25.15998],[114.899018,25.162624],[114.897634,25.190619],[114.899018,25.193671],[114.892507,25.201768],[114.87794,25.211982],[114.871755,25.220323],[114.869151,25.2296],[114.865001,25.265692],[114.868744,25.273017],[114.896007,25.29267],[114.898529,25.30447],[114.891043,25.316474],[114.881602,25.327826],[114.878673,25.337673],[114.885671,25.34394],[114.911632,25.353827],[114.919688,25.358181],[114.922293,25.367743],[114.921886,25.378974],[114.924734,25.388373],[114.937022,25.392279],[114.955658,25.401557],[114.964366,25.422634],[114.96339,25.445828],[114.953705,25.461208],[114.969005,25.47545],[114.990489,25.488837],[115.003917,25.505439],[114.995209,25.529486],[115.007335,25.551866],[115.008474,25.57099],[115.002615,25.621934],[115.009288,25.642686],[115.024669,25.657782],[115.042735,25.671332],[115.057384,25.68712],[115.073253,25.686632],[115.083914,25.706488],[115.089773,25.732978],[115.091563,25.752265],[115.089692,25.761786],[115.086355,25.768378],[115.086681,25.775336],[115.103119,25.798407],[115.10255,25.807725],[115.098888,25.81745],[115.098399,25.830512],[115.110932,25.850857],[115.111908,25.858425],[115.106619,25.865831],[115.088634,25.881863],[115.084727,25.888861],[115.079845,25.892198],[115.033783,25.893907],[115.027761,25.895616],[115.023448,25.893907],[115.015717,25.885118],[115.011241,25.875515],[115.010346,25.866645],[115.007091,25.85871],[114.995209,25.85163],[114.983653,25.850857],[114.967784,25.853217],[114.953543,25.857367],[114.94752,25.862128],[114.944347,25.867296],[114.937266,25.874538],[114.930186,25.88406],[114.927013,25.896023],[114.930431,25.906358],[114.937266,25.91706],[114.942393,25.928331],[114.940684,25.940375],[114.932628,25.945258],[114.908132,25.947292],[114.899018,25.954047],[114.897472,25.966254],[114.902436,25.977729],[114.909272,25.988471],[114.917898,26.020616],[114.929779,26.034125],[114.943451,26.044379],[114.953705,26.057074],[114.959483,26.077501],[114.95753,26.091335],[114.949636,26.099962],[114.937999,26.105414],[114.909679,26.113959],[114.898529,26.120795],[114.892833,26.132148],[114.895274,26.140489],[114.918224,26.19599],[114.924571,26.207343],[114.935069,26.213894],[114.953705,26.214708],[114.919688,26.27615],[114.923839,26.305609],[114.901378,26.340644],[114.792491,26.439887],[114.786143,26.447455],[114.771251,26.45246],[114.703624,26.502143],[114.684255,26.520331],[114.671967,26.540635],[114.67628,26.560411],[114.80364,26.675564],[114.809825,26.691107],[114.81129,26.710883],[114.816417,26.736599],[114.825206,26.760932],[114.837576,26.776435],[114.854747,26.782091],[114.92335,26.790066],[114.940847,26.794216],[114.989675,26.815456],[115.002615,26.824815],[115.009939,26.862494],[114.972179,26.920681],[114.981619,26.955146],[114.995128,26.964952],[115.013601,26.975043],[115.029877,26.987901],[115.036794,27.006415],[115.03004,27.028428],[115.014171,27.040798],[114.995616,27.05036],[114.981619,27.063788],[114.974701,27.108507],[114.998139,27.142198],[115.089936,27.200507],[115.102631,27.212429],[115.109874,27.228298],[115.111908,27.252794],[115.110932,27.274482],[115.111827,27.285753],[115.115326,27.294053],[115.115245,27.302029],[115.098399,27.338731],[115.095307,27.367011],[115.091563,27.379706],[115.073416,27.412136],[115.067963,27.433173],[115.063569,27.443386],[115.063487,27.451483],[115.074148,27.454861],[115.086436,27.455146],[115.095714,27.456814],[115.10377,27.460883],[115.111908,27.468533],[115.121104,27.487657],[115.135509,27.534857],[115.149506,27.544216],[115.166515,27.550849],[115.180675,27.566474],[115.214936,27.626044],[115.220632,27.632921],[115.229015,27.637274],[115.249278,27.643581],[115.276134,27.662462],[115.314382,27.680772],[115.330496,27.695095],[115.331554,27.699286],[115.329682,27.710476],[115.330496,27.714911],[115.333018,27.71662],[115.342214,27.720567],[115.344737,27.722357],[115.368337,27.753852],[115.372081,27.759874],[115.375418,27.780788],[115.383881,27.804389],[115.425304,27.874945],[115.431733,27.893012],[115.436127,27.959011],[115.440115,27.977403],[115.447765,27.996039],[115.483165,28.056016],[115.492198,28.065009],[115.51588,28.069159],[115.532725,28.080186],[115.557058,28.11282],[115.583018,28.13699],[115.622081,28.159206],[115.666515,28.176947],[115.707937,28.187852],[115.757742,28.189887],[115.772634,28.198432],[115.783376,28.21369],[115.789236,28.228135],[115.798757,28.238878],[115.820811,28.243109],[115.833018,28.247504],[115.846609,28.258246],[115.858409,28.271755],[115.865489,28.284044],[115.868175,28.300482],[115.864838,28.3133],[115.851736,28.339301],[115.841726,28.392524],[115.834483,28.400743],[115.824474,28.40587],[115.819591,28.418728],[115.8178,28.451687],[115.820323,28.468695],[115.825287,28.481391],[115.828054,28.493923],[115.823985,28.510606],[115.796641,28.565253],[115.803233,28.581],[115.807384,28.606147],[115.815929,28.629462],[115.834483,28.639716],[115.885916,28.71544],[115.901134,28.751247],[115.911143,28.769151],[115.938569,28.787543],[115.981537,28.853298],[115.98642,28.879014],[115.989024,28.886786],[116.001475,28.902045],[116.007091,28.911648],[116.01295,28.938015],[116.027354,28.974189],[116.029877,28.996649],[116.023204,29.037624],[116.018565,29.046454],[116.004893,29.066352],[116.002045,29.075466],[116.001069,29.085964],[115.996755,29.106391],[115.997162,29.180243],[115.995942,29.188422],[116.002208,29.208523],[115.998953,29.230007],[115.981944,29.279161]]]}},{"type":"Feature","properties":{"kind":"rivers","name":"Xiang","source":"Natural Earth 1:10m"},"geometry":{"type":"MultiLineString","coordinates":[[[110.616954,25.48786],[110.624115,25.492621],[110.641368,25.501247],[110.651134,25.508368],[110.665538,25.526435],[110.674327,25.533474],[110.687999,25.536322],[110.689138,25.540635],[110.698009,25.560899],[110.701671,25.567003],[110.706472,25.57807],[110.700857,25.586697],[110.685313,25.597724],[110.678803,25.627997],[110.691987,25.6588],[110.739268,25.713813],[110.753673,25.726874],[110.770763,25.737982],[110.788259,25.745673],[110.804454,25.748562],[110.826915,25.755072],[110.845307,25.771064],[110.859874,25.791287],[110.881765,25.831163],[110.893321,25.843817],[110.943777,25.87226],[110.949718,25.876736],[110.952159,25.882025],[110.95517,25.886501],[110.962169,25.884792],[110.972585,25.878933],[110.994151,25.889716],[111.001475,25.89643],[111.006847,25.906846],[111.014171,25.899441],[111.023367,25.903144],[111.029063,25.901435],[111.033946,25.898627],[111.040945,25.899441],[111.046479,25.904324],[111.046397,25.909776],[111.045421,25.915351],[111.04835,25.920478],[111.059255,25.927558],[111.088634,25.940375],[111.086518,25.95364],[111.087576,25.966824],[111.091075,25.978868],[111.096121,25.988796],[111.097341,25.988796],[111.109874,26.000556],[111.109874,26.001776],[111.117686,26.0067],[111.122162,26.008857],[111.12558,26.007514],[111.1303,26.001776],[111.141124,26.010077],[111.152192,26.015001],[111.160818,26.021104],[111.166515,26.041205],[111.198009,26.092231],[111.253184,26.235175],[111.256358,26.256171],[111.260671,26.265082],[111.283214,26.273139],[111.285655,26.283311],[111.281261,26.294989],[111.273692,26.303494],[111.318126,26.321723],[111.332042,26.32392],[111.365001,26.317572],[111.380056,26.318874],[111.390391,26.331366],[111.39503,26.326361],[111.401785,26.321723],[111.404552,26.317165],[111.413829,26.322821],[111.422862,26.32331],[111.430919,26.318874],[111.438243,26.309638],[111.450694,26.312852],[111.462413,26.311062],[111.472341,26.312079],[111.479747,26.32392],[111.487234,26.32392],[111.490326,26.311835],[111.495942,26.302924],[111.503917,26.296007],[111.514415,26.290391],[111.513438,26.293728],[111.516775,26.298285],[111.52239,26.302273],[111.527436,26.303494],[111.532725,26.301052],[111.536388,26.293809],[111.567882,26.271999],[111.575857,26.268663],[111.588308,26.268744],[111.59075,26.270575],[111.591807,26.275946],[111.599539,26.286689],[111.607188,26.307725],[111.590261,26.350775],[111.592703,26.368598],[111.604015,26.389431],[111.604096,26.407904],[111.595876,26.423163],[111.582123,26.433783],[111.589936,26.445421],[111.607514,26.457953],[111.616954,26.467963],[111.623057,26.480251],[111.63144,26.505886],[111.637299,26.515733],[111.645925,26.522406],[111.6692,26.536322],[111.678315,26.543647],[111.686941,26.555365],[111.691742,26.564561],[111.698416,26.571885],[111.713145,26.577826],[111.713145,26.584662],[111.705496,26.589952],[111.701671,26.596544],[111.701671,26.603827],[111.705658,26.611355],[111.730398,26.586534],[111.739838,26.571601],[111.740326,26.550482],[111.75172,26.556667],[111.752615,26.564724],[111.750987,26.574164],[111.753998,26.584662],[111.765391,26.595893],[111.775483,26.599636],[111.798106,26.598253],[111.80071,26.596259],[111.802664,26.58572],[111.804861,26.581244],[111.811046,26.577908],[111.815522,26.579535],[111.819835,26.582831],[111.825694,26.584662],[111.846609,26.581326],[111.85434,26.584744],[111.863292,26.598253],[111.867117,26.588406],[111.870128,26.556708],[111.869395,26.547553],[111.864513,26.530788],[111.863292,26.519477],[111.868582,26.506456],[111.879649,26.511339],[111.889415,26.522773],[111.890636,26.529364],[111.900645,26.52558],[111.907156,26.518622],[111.911388,26.511908],[111.914806,26.508897],[111.927745,26.501044],[111.951752,26.465115],[111.966319,26.454901],[111.984874,26.454779],[112.023448,26.465155],[112.048839,26.467963],[112.048839,26.474799],[112.043793,26.476182],[112.04127,26.477851],[112.039073,26.479804],[112.034679,26.482204],[112.048595,26.496934],[112.067882,26.500271],[112.11378,26.495876],[112.133067,26.501085],[112.147472,26.513861],[112.172374,26.543647],[112.189382,26.548692],[112.212983,26.548367],[112.229096,26.541205],[112.223643,26.526313],[112.187266,26.501817],[112.180675,26.488552],[112.199148,26.474799],[112.2199,26.472032],[112.249929,26.473741],[112.276866,26.480333],[112.288503,26.492133],[112.290701,26.497423],[112.295665,26.502143],[112.300385,26.508612],[112.302745,26.519477],[112.30071,26.553656],[112.302745,26.564154],[112.316905,26.57685],[112.333507,26.572781],[112.34905,26.562527],[112.360281,26.556708],[112.375662,26.563747],[112.396902,26.593451],[112.411388,26.598253],[112.417491,26.593817],[112.431895,26.57038],[112.441905,26.563829],[112.448741,26.562323],[112.462901,26.564154],[112.474294,26.567328],[112.479015,26.574408],[112.480886,26.581407],[112.483409,26.584662],[112.494233,26.583116],[112.509288,26.577501],[112.5206,26.577826],[112.537608,26.584784],[112.570893,26.606716],[112.619884,26.614203],[112.627533,26.622992],[112.627452,26.638129],[112.630463,26.659735],[112.634776,26.668728],[112.651541,26.694525],[112.663097,26.723334],[112.6692,26.732042],[112.677257,26.75141],[112.657319,26.757392],[112.610606,26.755927],[112.589936,26.768826],[112.583507,26.789578],[112.591563,26.808905],[112.61435,26.81741],[112.637543,26.819932],[112.648692,26.827663],[112.665701,26.858344],[112.63087,26.873643],[112.616466,26.885077],[112.610606,26.903347],[112.61614,26.922634],[112.642507,26.953681],[112.651541,26.975653],[112.653412,27.016059],[112.660574,27.026679],[112.682384,27.0303],[112.697683,27.021918],[112.705658,27.004584],[112.716563,26.989936],[112.740326,26.989325],[112.757498,27.00198],[112.759858,27.021023],[112.75172,27.04206],[112.737234,27.060655],[112.728282,27.082953],[112.748464,27.091742],[112.77589,27.0928],[112.788829,27.091742],[112.807872,27.101915],[112.807709,27.118028],[112.80421,27.133002],[112.813243,27.139512],[112.840017,27.145453],[112.847585,27.160468],[112.844005,27.201606],[112.861095,27.235175],[112.920909,27.286444],[112.93214,27.32449],[112.927257,27.344672],[112.908946,27.385362],[112.904796,27.410183],[112.913503,27.423367],[112.933523,27.43419],[112.973643,27.448594],[112.986908,27.431993],[112.991954,27.413886],[113.00058,27.399359],[113.024669,27.393378],[113.044526,27.399726],[113.043793,27.415351],[113.036143,27.435411],[113.035167,27.454861],[113.063975,27.479275],[113.107188,27.495551],[113.138194,27.517198],[113.131358,27.557888],[113.111827,27.592149],[113.105724,27.612087],[113.103445,27.636746],[113.106456,27.659369],[113.120535,27.694607],[113.124034,27.714911],[113.122488,27.726426],[113.114024,27.745958],[113.11085,27.756456],[113.110769,27.76614],[113.116222,27.782091],[113.117686,27.794379],[113.120942,27.79739],[113.127615,27.802558],[113.134532,27.810411],[113.137625,27.821357],[113.135834,27.832872],[113.13087,27.841132],[113.122488,27.847235],[113.11085,27.852078],[113.090261,27.856757],[113.083018,27.859565],[113.062918,27.852118],[113.016612,27.851426],[112.997325,27.842149],[112.964692,27.814561],[112.944591,27.802802],[112.925304,27.797431],[112.903819,27.800564],[112.891368,27.811306],[112.885671,27.827948],[112.884288,27.848944],[112.893484,27.862331],[112.953217,27.906684],[112.987722,27.952419],[112.99114,27.958441],[112.987885,27.96544],[112.950043,28.007921],[112.939952,28.022895],[112.93214,28.044501],[112.930431,28.068386],[112.935557,28.087592],[112.942393,28.104844],[112.959483,28.201524],[112.960867,28.244656],[112.954275,28.27912],[112.936941,28.3074],[112.870942,28.356635],[112.844005,28.385688],[112.80128,28.452745],[112.766124,28.507514],[112.761485,28.523627],[112.762706,28.545111],[112.771414,28.553168],[112.785492,28.558539],[112.802419,28.572089],[112.810313,28.588935],[112.810802,28.6081],[112.805186,28.626166],[112.795665,28.639716],[112.776541,28.649929],[112.755789,28.651394],[112.734304,28.646999],[112.713634,28.639716],[112.711192,28.674425],[112.748464,28.696804],[112.793875,28.717312],[112.81601,28.746446],[112.826671,28.766628],[112.873627,28.776882],[112.884288,28.794257],[112.892996,28.857978],[112.891694,28.880561],[112.881765,28.915798],[112.879405,28.935248],[112.884288,28.955675],[112.896495,28.971544],[112.949474,29.006863],[112.982188,29.03502],[113.010916,29.068671],[113.018077,29.08865],[113.013438,29.110541],[112.993582,29.147488]]]}},{"type":"Feature","properties":{"kind":"rivers","name":"Dong","source":"Natural Earth 1:10m"},"geometry":{"type":"MultiLineString","coordinates":[[[115.707937,25.056505],[115.714936,25.044704],[115.731944,25.002794],[115.735037,24.984483],[115.736257,24.981879],[115.738455,24.979844],[115.740815,24.976752],[115.741954,24.970811],[115.739757,24.964911],[115.729991,24.955756],[115.727794,24.950059],[115.724213,24.943305],[115.716319,24.93948],[115.707449,24.936632],[115.700857,24.932969],[115.689382,24.913275],[115.680593,24.892035],[115.680756,24.886094],[115.687266,24.877387],[115.687999,24.871527],[115.684825,24.865017],[115.67571,24.853542],[115.673757,24.847276],[115.673106,24.838894],[115.665294,24.810818],[115.624522,24.730007],[115.595225,24.689724],[115.569347,24.662869],[115.556651,24.654364],[115.517589,24.636501],[115.50587,24.628445],[115.497488,24.616807],[115.48878,24.597764],[115.492686,24.588813],[115.47877,24.56741],[115.474294,24.552802],[115.471283,24.506619],[115.474294,24.494167],[115.428233,24.459418],[115.420421,24.450059],[115.412201,24.444932],[115.394054,24.451524],[115.365245,24.467475],[115.372569,24.430447],[115.36907,24.414862],[115.351003,24.419053],[115.344249,24.41295],[115.322846,24.402208],[115.317393,24.398546],[115.317556,24.389228],[115.328705,24.369412],[115.327403,24.361029],[115.312511,24.35102],[115.268158,24.333523],[115.197032,24.290391],[115.183686,24.278144],[115.177257,24.258897],[115.192556,24.246039],[115.216401,24.234971],[115.235444,24.221055],[115.241954,24.206651],[115.246023,24.187771],[115.248546,24.148464],[115.24407,24.126247],[115.232514,24.109687],[115.200694,24.083279],[115.178152,24.059678],[115.163585,24.047553],[115.149506,24.042304],[115.123546,24.039415],[115.107432,24.031277],[115.096121,24.018337],[115.084727,24.001329],[115.069835,23.989081],[115.065929,23.982204],[115.070974,23.973985],[115.057058,23.957709],[115.00172,23.919704],[114.985281,23.900255],[114.976329,23.890326],[114.96575,23.884223],[114.951915,23.883857],[114.933197,23.891466],[114.912527,23.872382],[114.88323,23.857489],[114.780528,23.821153],[114.747488,23.798448],[114.720225,23.76907],[114.70045,23.733832],[114.676768,23.67536],[114.673106,23.661811],[114.670665,23.641221],[114.652599,23.590399],[114.650076,23.572089],[114.650645,23.554226],[114.656261,23.540595],[114.669444,23.535183],[114.674246,23.527371],[114.686697,23.47309],[114.666515,23.462999],[114.631928,23.42654],[114.607595,23.418524],[114.601736,23.41531],[114.580658,23.394884],[114.57073,23.389472],[114.559825,23.391466],[114.543468,23.398627],[114.522634,23.396348],[114.507823,23.389024],[114.498627,23.375312],[114.495616,23.353624],[114.502208,23.33336],[114.552826,23.272569],[114.556733,23.269884],[114.560964,23.266303],[114.563894,23.26085],[114.552175,23.244412],[114.550304,23.240343],[114.555675,23.232733],[114.564545,23.226142],[114.573985,23.221544],[114.580658,23.219835],[114.587332,23.211697],[114.59433,23.192694],[114.595307,23.171902],[114.583914,23.157782],[114.5831,23.161404],[114.572846,23.165961],[114.559825,23.169949],[114.550304,23.171454],[114.52825,23.160264],[114.514659,23.156073],[114.504812,23.164415],[114.478038,23.181993],[114.466075,23.186306],[114.457286,23.179023],[114.433523,23.125922],[114.426199,23.117499],[114.415619,23.109442],[114.408946,23.108588],[114.296397,23.157782],[114.28419,23.153428],[114.249034,23.15644],[114.233165,23.13642],[114.195079,23.116156],[114.179779,23.099392],[114.138194,23.075873],[114.122813,23.064276],[114.111501,23.057725],[114.098399,23.060329],[114.07724,23.075873],[114.058116,23.09394],[114.047374,23.095486],[114.031993,23.086453],[114.01588,23.080268],[113.996755,23.081895],[113.980886,23.089219],[113.974213,23.100409],[113.905935,23.110663],[113.872,23.101915],[113.856293,23.103217],[113.843516,23.110256]],[[114.636485,23.735948],[114.639089,23.733832],[114.657237,23.723822],[114.671397,23.73017],[114.686534,23.741563],[114.707286,23.746853]],[[113.844005,23.110663],[113.843516,23.110256]],[[113.843516,23.110256],[113.830333,23.117499]],[[113.843516,23.110256],[113.832286,23.100857],[113.812022,23.089382],[113.78948,23.079861],[113.756847,23.07156],[113.617768,22.949286]]]}},{"type":"Feature","properties":{"kind":"rivers","name":"Bei","source":"Natural Earth 1:10m"},"geometry":{"type":"MultiLineString","coordinates":[[[112.528819,25.317247],[112.577729,25.322048],[112.673432,25.358832],[112.721609,25.367133],[112.733165,25.364814],[112.755382,25.354356],[112.766775,25.350938],[112.790457,25.348171],[112.798839,25.344916],[112.837332,25.320258],[112.869721,25.306098],[113.016775,25.281562],[113.051768,25.259548],[113.115815,25.234076],[113.150645,25.225124],[113.182709,25.222602],[113.202078,25.23017],[113.234955,25.256863],[113.254893,25.258409],[113.273448,25.246039],[113.28297,25.226182],[113.29241,25.162218],[113.296479,25.153998],[113.316905,25.137071],[113.330333,25.121772],[113.356456,25.075385],[113.366954,25.062567],[113.378184,25.052273],[113.404307,25.038113],[113.414236,25.030056],[113.42099,25.015408],[113.423269,24.996446],[113.422862,24.981024],[113.426362,24.966661],[113.440115,24.950751],[113.44752,24.94599],[113.461436,24.940985],[113.467865,24.937567],[113.491222,24.914618],[113.519542,24.899726],[113.531749,24.891466],[113.54184,24.877875],[113.545909,24.865505],[113.554617,24.825263],[113.559255,24.817328],[113.564138,24.811632],[113.568614,24.805121],[113.5713,24.794867],[113.57073,24.772895],[113.563975,24.751817],[113.550955,24.736436],[113.518077,24.727891],[113.516205,24.71662],[113.521414,24.691026],[113.520112,24.661933],[113.523367,24.631619],[113.53419,24.604031],[113.555756,24.583197],[113.580577,24.543402],[113.56129,24.494981],[113.497325,24.412462],[113.474294,24.370551],[113.461518,24.352729],[113.41448,24.30036],[113.406749,24.280219],[113.413666,24.260769],[113.42213,24.257148],[113.444021,24.256903],[113.451671,24.252631],[113.451671,24.238552],[113.399669,24.113593],[113.387543,24.092963],[113.357432,24.067979],[113.322032,24.053168],[113.292003,24.033026],[113.277354,23.992133],[113.281749,23.947089],[113.280528,23.93183],[113.274913,23.914903],[113.249766,23.868598],[113.247162,23.854071],[113.246755,23.822943],[113.244151,23.807969],[113.228119,23.77265],[113.203298,23.736599],[113.170909,23.711778],[113.119721,23.71129],[113.11142,23.705634],[113.10434,23.697618],[113.094819,23.691759],[113.084076,23.689236],[113.076101,23.688788],[113.035655,23.694159],[113.017182,23.69363],[113.00058,23.687201],[112.984793,23.672227],[112.973888,23.647732],[112.976329,23.625515],[112.982432,23.602729],[112.981619,23.576687],[112.970714,23.549425],[112.953705,23.524237],[112.895437,23.457831],[112.889252,23.439399],[112.887136,23.390204],[112.875011,23.339382],[112.865164,23.314073],[112.810557,23.226345],[112.803966,23.192735],[112.819347,23.152859]]]}},{"type":"Feature","properties":{"kind":"rivers","name":"Yu","source":"Natural Earth 1:10m"},"geometry":{"type":"MultiLineString","coordinates":[[[108.897634,22.733262],[108.905935,22.723741],[108.909597,22.716376],[108.916921,22.692247],[108.92335,22.680528],[108.929617,22.671983],[108.937429,22.664984],[108.958507,22.653347],[108.965831,22.647284],[108.971609,22.637722],[108.992198,22.65001],[109.010183,22.657782],[109.029307,22.660468],[109.075206,22.652899],[109.095714,22.64704],[109.114024,22.637803],[109.129242,22.623399],[109.135916,22.623399],[109.130463,22.648057],[109.131114,22.659939],[109.139415,22.664984],[109.187511,22.664984],[109.220795,22.652289],[109.232188,22.651313],[109.242605,22.656317],[109.247081,22.663886],[109.252615,22.684841],[109.258881,22.684841],[109.261729,22.679714],[109.265147,22.677029],[109.268972,22.674994],[109.273204,22.67182],[109.277192,22.678168],[109.279552,22.685899],[109.280528,22.695136],[109.28004,22.705919],[109.290131,22.701483],[109.2942,22.698513],[109.302745,22.715644],[109.326182,22.726264],[109.35491,22.731716],[109.389578,22.733344],[109.397553,22.734727],[109.404389,22.738796],[109.410248,22.746894],[109.410167,22.7567],[109.405935,22.789618],[109.410248,22.80211],[109.461518,22.822618],[109.475027,22.824286],[109.50644,22.833848],[109.516531,22.839708],[109.552826,22.872341],[109.561127,22.884101],[109.564464,22.900824],[109.562511,22.916571],[109.562999,22.931464],[109.574229,22.945502],[109.585053,22.935899],[109.600027,22.928168],[109.617605,22.925727],[109.636241,22.931912],[109.636241,22.938747],[109.602061,22.948554],[109.594737,22.952989],[109.589936,22.962226],[109.593191,22.966376],[109.598888,22.969835],[109.602061,22.976874],[109.597748,22.985785],[109.588145,22.986762],[109.578624,22.986111],[109.574229,22.990261],[109.57252,22.996649],[109.561127,23.021267],[109.560802,23.038113],[109.565522,23.055935],[109.573985,23.072781],[109.584727,23.086453],[109.591889,23.092353],[109.598888,23.095526],[109.607432,23.096747],[109.626964,23.097357],[109.721934,23.117499],[109.74114,23.112616],[109.756358,23.090196],[109.773448,23.083319],[109.796397,23.084784],[109.82545,23.100043],[109.845144,23.103827],[109.855398,23.107978],[109.853038,23.117214],[109.848562,23.126288],[109.852306,23.130479],[109.863455,23.128485],[109.87379,23.125108],[109.882742,23.124457],[109.890147,23.130479],[109.891368,23.139919],[109.878022,23.154608],[109.875906,23.165229],[109.882091,23.172878],[109.905528,23.185085],[109.910655,23.188829],[109.920095,23.203152],[109.962413,23.213568],[109.972097,23.230414],[109.973155,23.241238],[109.977061,23.242703],[109.984467,23.243109],[109.996349,23.250922],[110.002208,23.26081],[110.005789,23.271837],[110.010346,23.281846],[110.020518,23.288764],[110.031749,23.287218],[110.059093,23.271552],[110.071707,23.267646],[110.082449,23.271918],[110.085948,23.281928],[110.081554,23.293321],[110.068289,23.301825],[110.057709,23.29324],[110.049408,23.291693],[110.043793,23.296983],[110.040294,23.309272],[110.042735,23.32038],[110.057872,23.336208],[110.064871,23.358751],[110.082042,23.394395],[110.089366,23.404853]]]}},{"type":"Feature","properties":{"kind":"rivers","name":"Liu","source":"Natural Earth 1:10m"},"geometry":{"type":"MultiLineString","coordinates":[[[109.528575,23.796413],[109.523204,23.824001],[109.521983,23.8487],[109.527273,23.872138],[109.542247,23.89289],[109.560476,23.903103],[109.598888,23.907335],[109.649832,23.928819],[109.663178,23.937364],[109.673595,23.952012],[109.678396,23.972195],[109.67921,23.995307],[109.671479,24.059516],[109.671886,24.072943],[109.67685,24.084784],[109.699718,24.120388],[109.717703,24.182685],[109.728282,24.206366],[109.731863,24.218695],[109.730886,24.231757],[109.720225,24.24787],[109.701427,24.263373],[109.680186,24.275214],[109.661632,24.280463],[109.638927,24.276719],[109.573334,24.244167],[109.548757,24.238105],[109.530772,24.239081],[109.492442,24.254991],[109.478282,24.257432],[109.466319,24.257636],[109.459483,24.263739],[109.459972,24.2838],[109.465343,24.300076],[109.490245,24.346259],[109.501394,24.402859],[109.498464,24.411404],[109.492768,24.419989]]]}},{"type":"Feature","properties":{"kind":"rivers","name":"Xi","source":"Natural Earth 1:10m"},"geometry":{"type":"MultiLineString","coordinates":[[[111.301362,23.480658],[111.392833,23.477729],[111.424815,23.471625],[111.455089,23.458035],[111.467052,23.449042],[111.477143,23.438585],[111.485362,23.426622],[111.491628,23.413113],[111.504812,23.369086],[111.511648,23.355414],[111.547537,23.310126],[111.554861,23.293158],[111.553152,23.274359],[111.53476,23.239122],[111.532156,23.219835],[111.538097,23.204413],[111.549246,23.192898],[111.563731,23.18537],[111.596202,23.179633],[111.610932,23.175076],[111.658376,23.151231],[111.668224,23.148139],[111.678233,23.146186],[111.689057,23.145819],[111.710948,23.147569],[111.72169,23.147284],[111.727306,23.145941],[111.743093,23.139024],[111.752533,23.137274],[111.771658,23.137152],[111.800955,23.13227],[111.878429,23.140733],[111.882823,23.139512],[111.885346,23.136786],[111.889659,23.128689],[111.892182,23.125271],[111.898855,23.120673],[111.906342,23.118109],[111.91448,23.117499],[111.934825,23.121365],[111.94044,23.121609],[111.946788,23.120429],[111.952403,23.118109],[111.96282,23.11164],[111.968191,23.109565],[111.974132,23.096951],[111.986095,23.089382],[112.00058,23.085395],[112.052013,23.077704],[112.070404,23.077094],[112.089285,23.081977],[112.100597,23.086534],[112.112315,23.089789],[112.124522,23.09101],[112.137218,23.089708],[112.162039,23.080186],[112.168875,23.078925],[112.174815,23.078721],[112.20517,23.08515],[112.210541,23.087836],[112.225515,23.100206],[112.231456,23.103054],[112.25644,23.126776],[112.284272,23.148017],[112.31544,23.159613],[112.350027,23.154242],[112.374522,23.132392],[112.400645,23.073188],[112.425304,23.052069],[112.444835,23.047309],[112.464854,23.048163],[112.483897,23.053982],[112.501069,23.064073],[112.513682,23.076117],[112.543224,23.11872],[112.5678,23.146308],[112.595795,23.165595],[112.628184,23.175971],[112.664561,23.176866],[112.767996,23.168036],[112.78297,23.163845],[112.795909,23.155788],[112.805919,23.142442],[112.858653,22.972602],[112.927257,22.83572],[112.938975,22.823065],[112.953705,22.813096],[112.970144,22.806586],[113.039968,22.795722],[113.056895,22.790839],[113.0713,22.781806],[113.080984,22.767524],[113.084972,22.750515],[113.086192,22.696357],[113.089122,22.678087],[113.095307,22.660997],[113.106456,22.645819],[113.143647,22.616523],[113.154389,22.604763],[113.161794,22.592108],[113.165538,22.575629]],[[112.804698,23.147895],[112.845144,23.159857],[112.883718,23.148464],[112.917898,23.128241],[112.948334,23.10102],[112.971772,23.072537],[112.97991,23.055365],[112.982026,23.040351]],[[112.97991,23.041124],[112.982026,23.040351]],[[112.982026,23.040351],[112.995942,23.035264],[113.01295,23.034451],[113.029063,23.036892],[113.042003,23.041124],[113.075776,23.056464],[113.089854,23.054307],[113.11085,23.041124],[113.124441,23.059272],[113.137625,23.067328],[113.152843,23.067735],[113.172374,23.062852],[113.208588,23.044501],[113.220144,23.041124],[113.313243,23.055365],[113.323171,23.053168],[113.343354,23.043402],[113.35434,23.041124],[113.391205,23.038275],[113.407481,23.044013],[113.419363,23.062852]],[[112.982026,23.040351],[112.982595,23.036322],[112.982921,22.998481],[112.987315,22.980292],[113.002859,22.952948],[113.024099,22.927029],[113.049327,22.905219],[113.076182,22.890245],[113.096283,22.886176],[113.10906,22.890489],[113.121023,22.898383],[113.137625,22.904568],[113.157807,22.905097],[113.175385,22.902615],[113.192963,22.90294],[113.213308,22.911973]],[[113.082774,22.764268],[113.089773,22.761176],[113.138927,22.745795],[113.151866,22.739447],[113.160655,22.73196],[113.175792,22.709337],[113.186534,22.703803],[113.195242,22.707587],[113.207042,22.720242],[113.232188,22.734483],[113.244233,22.734687],[113.261729,22.726426],[113.303803,22.693223],[113.323171,22.684841],[113.342296,22.680609],[113.361095,22.678656],[113.371349,22.676378],[113.373546,22.670925],[113.373953,22.663926],[113.377859,22.657538],[113.425955,22.624091],[113.439871,22.610378],[113.456716,22.582831],[113.467784,22.573269],[113.487071,22.569403],[113.497081,22.571479],[113.509776,22.580878],[113.518077,22.583075],[113.529796,22.58161],[113.538259,22.57921],[113.546153,22.578803],[113.555919,22.583075]]]}}]}