{"type":"FeatureCollection","features":[{"type":"Feature","properties":{"kind":"rivers","name":"Nanpan","source":"Natural Earth 1:10m"},"geometry":{"type":"MultiLineString","coordinates":[[[103.921641,25.878933],[103.912364,25.859483],[103.874766,25.837836],[103.866303,25.813747],[103.873139,25.794013],[103.875011,25.781073],[103.870128,25.775255],[103.860444,25.772488],[103.852631,25.76789],[103.844168,25.766913],[103.832286,25.775255],[103.832286,25.697048],[103.83546,25.69184],[103.842459,25.686306],[103.849539,25.679267],[103.852631,25.669745],[103.849132,25.658149],[103.841075,25.652899],[103.832286,25.650214],[103.826101,25.646186],[103.819916,25.62405],[103.827729,25.608344],[103.839854,25.593451],[103.845876,25.573839],[103.849132,25.56863],[103.86321,25.558417],[103.866303,25.553046],[103.861908,25.295966],[103.86907,25.281317],[103.883718,25.27558],[103.895437,25.263983],[103.88795,25.23782],[103.872325,25.210069],[103.859467,25.193671],[103.84547,25.185492],[103.818858,25.176703],[103.804861,25.165717],[103.795909,25.151638],[103.788666,25.135932],[103.780935,25.123358],[103.770112,25.118598],[103.770112,25.111151],[103.778575,25.107611],[103.782725,25.103339],[103.78419,25.097113],[103.784434,25.08751],[103.780935,25.08336],[103.772634,25.083564],[103.763438,25.084784],[103.75644,25.083808],[103.708751,25.046454],[103.701915,25.039415],[103.69573,25.03144],[103.681407,25.023505],[103.664236,25.017361],[103.632823,25.010199],[103.585867,24.973944],[103.566742,24.98253],[103.552338,24.974962],[103.539236,24.96015],[103.523692,24.946641],[103.507904,24.941107],[103.464366,24.934272],[103.427338,24.932929],[103.423106,24.937934],[103.426362,24.95071],[103.428152,24.973944],[103.422455,24.995429],[103.41155,25.001288],[103.396902,25.005683],[103.380382,25.022325],[103.355968,25.01085],[103.316417,25.00849],[103.276134,25.013129],[103.249441,25.022325],[103.231293,25.005154],[103.207774,24.987982],[103.186453,24.981147],[103.174327,24.995063],[103.164561,24.984076],[103.161632,24.973253],[103.163503,24.961249],[103.167491,24.946641],[103.169688,24.944037],[103.174083,24.941759],[103.178396,24.938503],[103.181163,24.932969],[103.181163,24.925157],[103.162364,24.866278],[103.160655,24.85102],[103.161632,24.844835],[103.166515,24.834255],[103.167491,24.830593],[103.165131,24.822618],[103.15325,24.80329],[103.145518,24.804511],[103.12794,24.776679],[103.10906,24.76911],[103.085867,24.764594],[103.073171,24.752468],[103.038097,24.674018],[103.032319,24.654568],[103.030284,24.627875],[103.032237,24.606798],[103.038503,24.58454],[103.049083,24.566026],[103.064464,24.55622],[103.075125,24.556749],[103.080577,24.562038],[103.084972,24.567816],[103.092296,24.569892],[103.10377,24.56684],[103.114675,24.560329],[103.120209,24.550849],[103.109874,24.519884],[103.112397,24.471991],[103.105398,24.453192],[103.09669,24.449246],[103.073253,24.445909],[103.064464,24.439521],[103.058686,24.427273],[103.060476,24.418972],[103.06837,24.414333],[103.081716,24.412869],[103.089854,24.401882],[103.092296,24.329657],[103.098237,24.32156],[103.10434,24.317939],[103.109386,24.313544],[103.112804,24.303005],[103.111339,24.292426],[103.101085,24.268744],[103.098562,24.258328],[103.098888,24.235907],[103.10198,24.226671],[103.117279,24.207302],[103.120209,24.199774],[103.122081,24.191718],[103.126475,24.18004],[103.130951,24.174628],[103.143565,24.164008],[103.146983,24.158393],[103.146251,24.14822],[103.135916,24.131659],[103.133311,24.121121],[103.125255,24.056098],[103.126475,24.035468],[103.129405,24.025824],[103.134044,24.017686],[103.145518,24.00377],[103.151134,23.997016],[103.155935,23.989447],[103.159434,23.98078],[103.16212,23.947292],[103.174327,23.891466],[103.173106,23.848212],[103.177257,23.825548],[103.191742,23.815741],[103.211436,23.810411],[103.230479,23.80036],[103.249766,23.794623],[103.270518,23.802069],[103.277192,23.812201],[103.285167,23.840888],[103.291026,23.850531],[103.300222,23.854804],[103.36907,23.859971],[103.434255,23.88463],[103.545909,23.878974],[103.602306,23.888699],[103.598888,23.925605],[103.620616,23.96072],[103.630056,23.981147],[103.634288,23.997626],[103.626882,24.014757],[103.591401,24.04503],[103.578298,24.062771],[103.574799,24.087673],[103.583507,24.105821],[103.616222,24.134467],[103.627371,24.148627],[103.632091,24.156684],[103.638764,24.175401],[103.649669,24.181342],[103.674571,24.186306],[103.733409,24.204535],[103.753022,24.206732],[103.764171,24.206732],[103.774425,24.208279],[103.781668,24.213324],[103.784434,24.224189],[103.786225,24.238471],[103.791108,24.246527],[103.797537,24.252875],[103.804861,24.26203],[103.813975,24.286811],[103.818614,24.295518],[103.836843,24.315131],[103.839773,24.319688],[103.846202,24.34162],[103.861746,24.357693],[103.894216,24.378038],[103.914236,24.397895],[103.933442,24.421332],[103.95517,24.44184],[103.983653,24.453192],[104.004487,24.454372],[104.018565,24.451524],[104.05128,24.439521],[104.067556,24.438096],[104.083588,24.441352],[104.112804,24.453192],[104.146251,24.471788],[104.197846,24.512274],[104.229503,24.528917],[104.243337,24.532172],[104.291515,24.535102],[104.304454,24.539618],[104.352957,24.562445],[104.372162,24.570746],[104.381602,24.58336],[104.393972,24.617703],[104.401134,24.627509],[104.412364,24.636583],[104.470225,24.669949],[104.511729,24.718329],[104.537364,24.741156],[104.555756,24.745307],[104.582123,24.72838],[104.630056,24.682807],[104.640147,24.676622],[104.654552,24.671251],[104.670502,24.667507],[104.685069,24.666083],[104.694916,24.661689],[104.717459,24.63996],[104.729096,24.631374],[104.746349,24.646267],[104.762787,24.664333],[104.780772,24.679551],[104.801768,24.685899],[104.825125,24.688178],[104.840831,24.694892],[104.851573,24.705756],[104.876475,24.75495],[104.889415,24.765326],[104.931733,24.771064],[104.973643,24.782579],[104.999522,24.793036],[105.006358,24.794786],[105.012218,24.797431],[105.018321,24.80329],[105.024099,24.814521],[105.03004,24.838324],[105.038992,24.855048],[105.0442,24.879665],[105.045014,24.888617],[105.047862,24.895331],[105.066824,24.912543],[105.099864,24.95421],[105.110281,24.960273],[105.119558,24.962429],[105.139171,24.971788],[105.15089,24.973944],[105.163585,24.978787],[105.177013,25.001329],[105.188487,25.008734],[105.205658,25.003852],[105.228608,24.988878],[105.248627,24.970974],[105.267019,24.938096],[105.289073,24.933132],[105.314138,24.935818],[105.332449,24.940456],[105.360444,24.953315],[105.380463,24.957058],[105.39796,24.950059],[105.413585,24.940456],[105.430675,24.934027],[105.444021,24.923529],[105.457774,24.866319],[105.478933,24.837185],[105.508393,24.81741],[105.541921,24.810085],[105.580089,24.812323],[105.593028,24.810655],[105.607432,24.80329],[105.636241,24.784125],[105.654796,24.780626],[105.675141,24.789618],[105.728282,24.753241],[105.760346,24.742784],[105.787527,24.715644],[105.805431,24.707058],[105.82545,24.70893],[105.851736,24.729315],[105.870616,24.734402],[105.89796,24.733344],[105.916108,24.728624],[105.931407,24.718329],[106.000906,24.648383],[106.020437,24.641872],[106.036143,24.654731],[106.059255,24.693427],[106.083751,24.715196],[106.150808,24.759711],[106.175955,24.782172],[106.199148,24.829779],[106.198334,24.876736],[106.181244,24.920925],[106.155365,24.960273],[106.16741,24.964545],[106.176524,24.962429],[106.185639,24.959255],[106.197032,24.960273],[106.203624,24.965603],[106.207774,24.972683],[106.213878,24.978787],[106.227143,24.981391],[106.306244,24.981391],[106.370372,25.00434],[106.380789,25.011786],[106.456554,25.035997],[106.504405,25.071316],[106.515147,25.076972],[106.586843,25.104315],[106.61671,25.126899],[106.640391,25.15294],[106.666515,25.173407],[106.704112,25.179389],[106.784923,25.179714],[106.885753,25.196885],[106.889089,25.199286],[106.895274,25.206732],[106.900076,25.216498],[106.904796,25.240098],[106.908946,25.248318],[106.923595,25.254828],[106.944428,25.256171],[106.962983,25.25019],[106.97047,25.234646]]]}},{"type":"Feature","properties":{"kind":"rivers","name":"Hongshui","source":"Natural Earth 1:10m"},"geometry":{"type":"MultiLineString","coordinates":[[[106.97047,25.241482],[106.977306,25.223212],[106.979096,25.200629],[106.977306,25.155829],[106.981944,25.134304],[107.018158,25.069525],[107.027843,25.042507],[107.03183,25.035997],[107.067556,25.018907],[107.085704,24.997341],[107.113048,24.998114],[107.155935,25.008734],[107.168224,24.995144],[107.195079,24.9442],[107.20753,24.932969],[107.21282,24.930732],[107.217459,24.925849],[107.223888,24.920966],[107.246186,24.915351],[107.253673,24.907009],[107.26588,24.885199],[107.310313,24.840155],[107.316824,24.830024],[107.317312,24.82099],[107.313731,24.806708],[107.315115,24.795437],[107.332042,24.759101],[107.334565,24.751085],[107.334076,24.741156],[107.328868,24.732733],[107.31129,24.716335],[107.306895,24.707058],[107.309988,24.695624],[107.334076,24.651801],[107.3449,24.622585],[107.353038,24.611192],[107.367686,24.597764],[107.404714,24.572821],[107.415538,24.562445],[107.456065,24.509101],[107.514171,24.395575],[107.521983,24.362006],[107.519786,24.323513],[107.531505,24.332953],[107.540294,24.341742],[107.549571,24.348253],[107.563243,24.350775],[107.5796,24.345811],[107.592459,24.333604],[107.60198,24.317979],[107.608409,24.303005],[107.610281,24.277452],[107.601329,24.225531],[107.608409,24.21365],[107.589936,24.194159],[107.576101,24.174262],[107.5595,24.163886],[107.532725,24.172634],[107.502208,24.138373],[107.485606,24.114569],[107.488048,24.103787],[107.492931,24.100613],[107.509288,24.086453],[107.515717,24.083279],[107.521088,24.078396],[107.514171,24.067979],[107.503673,24.058417],[107.498546,24.055976],[107.50172,24.043077],[107.520763,24.002509],[107.529063,23.993923],[107.536632,23.990261],[107.556407,23.963446],[107.566905,23.957139],[107.578217,23.955837],[107.589936,23.955837],[107.601573,23.953559],[107.614675,23.946234],[107.621023,23.940294],[107.62794,23.937445],[107.642589,23.939276],[107.653901,23.942979],[107.65919,23.947618],[107.663829,23.954169],[107.673106,23.963446],[107.689057,23.969428],[107.699474,23.959581],[107.717703,23.925605],[107.758556,23.877224],[107.782319,23.861843],[107.793061,23.840888],[107.80714,23.802069],[107.841238,23.739691],[107.864838,23.711249],[107.885265,23.709906],[107.894054,23.722357],[107.899669,23.733018],[107.907481,23.7414],[107.922455,23.746853],[107.956472,23.740912],[107.976003,23.740831],[107.98821,23.754828],[108.005382,23.753119],[108.011974,23.754259],[108.016775,23.76203],[108.018321,23.778591],[108.022472,23.785346],[108.034434,23.797797],[108.042003,23.808295],[108.050792,23.816718],[108.066498,23.823188],[108.098888,23.825466],[108.110362,23.830878],[108.121023,23.863349],[108.134776,23.859198],[108.16269,23.836249],[108.171804,23.846991],[108.190115,23.878445],[108.197276,23.88585],[108.212494,23.894599],[108.221446,23.901719],[108.231293,23.905382],[108.259776,23.910468],[108.265717,23.915635],[108.267345,23.926703],[108.275645,23.956163],[108.28004,23.966579],[108.286225,23.966579],[108.301524,23.958441],[108.310557,23.972235],[108.320404,24.007514],[108.352794,24.004828],[108.402843,24.048163],[108.434093,24.038886],[108.449311,24.028754],[108.474213,24.022284],[108.488292,24.011257],[108.503429,24.005439],[108.567393,24.007514],[108.585053,24.001532],[108.601573,23.993923],[108.605235,23.989569],[108.612071,23.977851],[108.615245,23.973985],[108.650401,23.950629],[108.664154,23.935614],[108.669932,23.915635],[108.700613,23.870958],[108.712576,23.861111],[108.721202,23.856879],[108.728608,23.863227],[108.751882,23.878445],[108.764415,23.851752],[108.796641,23.835761],[108.835704,23.828803],[108.869721,23.829413],[108.859304,23.815131],[108.857026,23.79914],[108.864513,23.784695],[108.882823,23.774766],[108.882823,23.768581],[108.862071,23.760362],[108.853038,23.754706],[108.848643,23.746853],[108.850108,23.734565],[108.857026,23.723822],[108.867279,23.716173],[108.879405,23.713324],[108.891368,23.706488],[108.898367,23.690456],[108.903412,23.672187],[108.910085,23.658718],[108.922455,23.648953],[108.942393,23.638373],[108.963959,23.633653],[108.982432,23.641303],[109.000255,23.657782],[109.0171,23.666856],[109.077159,23.685085],[109.132498,23.709906],[109.151134,23.726671],[109.168549,23.736274],[109.187755,23.737128],[109.211192,23.727607],[109.212576,23.724148],[109.216726,23.710476],[109.218435,23.706488],[109.222667,23.705512],[109.234793,23.707343],[109.239024,23.706488],[109.252208,23.689154],[109.261241,23.681342],[109.269786,23.682644],[109.285818,23.692898],[109.342052,23.706488],[109.398448,23.747667],[109.418956,23.757025],[109.424897,23.763699],[109.428722,23.771593],[109.427419,23.77851],[109.42213,23.790147],[109.42628,23.799343],[109.433686,23.8074],[109.438243,23.815741],[109.437022,23.826483],[109.429779,23.842475],[109.430919,23.850531],[109.437918,23.857856],[109.449474,23.864203],[109.460134,23.864447],[109.464936,23.853583],[109.467296,23.835557],[109.474294,23.817654],[109.487234,23.803087],[109.50644,23.795233],[109.528575,23.796413]]]}},{"type":"Feature","properties":{"kind":"rivers","name":"Quan","source":"Natural Earth 1:10m"},"geometry":{"type":"MultiLineString","coordinates":[[[109.528575,23.796413],[109.543875,23.797065],[109.560964,23.789496],[109.567963,23.764838],[109.561941,23.747178],[109.550222,23.731879],[109.542247,23.718451],[109.547537,23.706488],[109.559255,23.70185],[109.56837,23.705146],[109.577159,23.710801],[109.587901,23.713324],[109.602631,23.711697],[109.606049,23.708564],[109.604015,23.701931],[109.602061,23.68948],[109.612315,23.682563],[109.634369,23.685248],[109.655528,23.682318],[109.663585,23.658718],[109.655854,23.642401],[109.642996,23.62698],[109.635916,23.611151],[109.646251,23.593573],[109.653412,23.59101],[109.670909,23.592353],[109.677257,23.590399],[109.683604,23.582343],[109.691498,23.55504],[109.722667,23.493679],[109.74464,23.465196],[109.76295,23.463202],[109.78712,23.480821],[109.815359,23.485216],[109.838878,23.473456],[109.853282,23.429389],[109.865164,23.426622],[109.896414,23.432156],[109.90976,23.432929],[109.922862,23.431749],[109.936534,23.427354],[109.951589,23.418524],[109.978282,23.45185],[109.998139,23.467312],[110.0171,23.463202],[110.050141,23.423611],[110.068614,23.4088],[110.089366,23.404853]]]}},{"type":"Feature","properties":{"kind":"rivers","name":"Xun","source":"Natural Earth 1:10m"},"geometry":{"type":"MultiLineString","coordinates":[[[110.089285,23.407986],[110.090831,23.406806],[110.104015,23.407416],[110.113699,23.418158],[110.11614,23.432807],[110.116466,23.448432],[110.119884,23.461982],[110.122813,23.466417],[110.126557,23.470486],[110.131114,23.47366],[110.135916,23.475857],[110.142996,23.476589],[110.156749,23.474555],[110.163178,23.475369],[110.163666,23.513454],[110.16505,23.523464],[110.168875,23.529608],[110.175548,23.533067],[110.185557,23.53498],[110.200613,23.57331],[110.208263,23.583075],[110.221283,23.589057],[110.237885,23.590766],[110.254893,23.589545],[110.27589,23.585069],[110.282237,23.58279],[110.287852,23.579372],[110.292247,23.574408],[110.294932,23.567735],[110.297374,23.553168],[110.300548,23.546902],[110.312592,23.540147],[110.329845,23.538357],[110.362315,23.539374],[110.379812,23.537218],[110.39739,23.532416],[110.414154,23.525255],[110.429291,23.516425],[110.462494,23.487372],[110.476492,23.482489],[110.506602,23.480292],[110.521658,23.477362],[110.534597,23.470893],[110.541026,23.459744],[110.545909,23.445136],[110.553152,23.435736],[110.565929,23.440253],[110.571218,23.446357],[110.57545,23.453152],[110.580658,23.459011],[110.587901,23.462429],[110.597179,23.461737],[110.613699,23.452908],[110.622081,23.449571],[110.628917,23.449815],[110.634695,23.452338],[110.640147,23.455512],[110.646576,23.45779],[110.654877,23.457221],[110.677419,23.446885],[110.693451,23.447292],[110.70753,23.454535],[110.720795,23.464179],[110.734874,23.471951],[110.751231,23.47545],[110.769054,23.475409],[110.786388,23.471869],[110.801362,23.465033],[110.828298,23.447862],[110.841319,23.441759],[110.846934,23.43769],[110.851573,23.431993],[110.856293,23.418728],[110.860606,23.38996],[110.868744,23.37877],[110.895112,23.371527],[110.919037,23.383653],[110.941335,23.402615],[110.962901,23.415595],[111.070567,23.452501],[111.086029,23.455919],[111.092703,23.456122],[111.135916,23.449774],[111.18629,23.433132],[111.201671,23.430691],[111.216319,23.430854],[111.230886,23.433173],[111.232026,23.447089],[111.235281,23.460232],[111.241791,23.471055],[111.253835,23.478339],[111.271414,23.481635],[111.301362,23.480658]]]}},{"type":"Feature","properties":{"kind":"rivers","name":"Yuan","source":"Natural Earth 1:10m"},"geometry":{"type":"MultiLineString","coordinates":[[[113.069347,29.387641],[113.085948,29.404486],[113.111095,29.444892],[113.127615,29.462755]],[[112.904796,29.031358],[112.921641,29.038926],[112.935557,29.054633],[112.942963,29.065253],[112.94337,29.074001],[112.940684,29.083319],[112.938975,29.095974],[112.944591,29.114814],[112.958263,29.127753],[112.993582,29.147488]],[[107.504812,26.337592],[107.498057,26.326199],[107.493337,26.305691],[107.493663,26.283067],[107.504975,26.257595],[107.505951,26.245063],[107.504975,26.232611],[107.496349,26.214219],[107.499522,26.205512],[107.506114,26.198676],[107.527354,26.182969],[107.560313,26.165554],[107.577403,26.149522],[107.59547,26.140489],[107.618337,26.142524],[107.640717,26.150702],[107.656261,26.160102],[107.67213,26.175157],[107.707774,26.218085],[107.712576,26.225898],[107.71575,26.236884],[107.719493,26.268622],[107.724132,26.275946],[107.738292,26.290391],[107.785574,26.361925],[107.803722,26.404568],[107.80714,26.44123],[107.797537,26.459499],[107.785085,26.475043],[107.779226,26.491482],[107.789806,26.512315],[107.808604,26.530341],[107.821381,26.5362],[107.861827,26.543647],[107.866466,26.547431],[107.870942,26.559394],[107.875418,26.564154],[107.880056,26.56505],[107.891612,26.563422],[107.896495,26.564154],[107.929861,26.581488],[107.936127,26.581244],[107.941905,26.596788],[107.969005,26.626532],[107.977794,26.639228],[107.986746,26.6706],[107.991466,26.680243],[108.014903,26.703192],[108.018891,26.711534],[108.028331,26.723456],[108.087576,26.755927],[108.115652,26.781195],[108.132498,26.792304],[108.152843,26.796942],[108.159272,26.801622],[108.173757,26.822699],[108.176362,26.827948],[108.180756,26.831122],[108.202566,26.841254],[108.237722,26.853339],[108.276866,26.860378],[108.312429,26.857001],[108.327891,26.834499],[108.335378,26.827175],[108.351736,26.824408],[108.368175,26.826728],[108.37558,26.834499],[108.382742,26.838813],[108.396007,26.832465],[108.404307,26.817694],[108.396088,26.796942],[108.399994,26.783962],[108.399425,26.778876],[108.396088,26.769599],[108.401866,26.772406],[108.416596,26.776435],[108.414561,26.773261],[108.413178,26.772244],[108.412039,26.771593],[108.409923,26.769599],[108.41741,26.764594],[108.425955,26.753363],[108.430268,26.749091],[108.437266,26.745307],[108.442963,26.743598],[108.485444,26.739773],[108.496755,26.732774],[108.505382,26.714952],[108.496104,26.704657],[108.497325,26.696479],[108.506114,26.690741],[108.519054,26.68769],[108.519135,26.67239],[108.538259,26.663031],[108.563487,26.655626],[108.581065,26.646064],[108.581065,26.659735],[108.595876,26.645575],[108.609874,26.60102],[108.625499,26.591417],[108.641124,26.599311],[108.654796,26.617621],[108.663259,26.638373],[108.663097,26.65351],[108.684093,26.664374],[108.69337,26.67121],[108.697195,26.67711],[108.698416,26.69184],[108.702729,26.696479],[108.721283,26.694525],[108.76295,26.694525],[108.7588,26.689643],[108.7553,26.67829],[108.751882,26.656602],[108.758718,26.63349],[108.775971,26.623847],[108.798595,26.619167],[108.8213,26.611355],[108.837169,26.594306],[108.852061,26.572048],[108.868582,26.557563],[108.889659,26.564154],[108.905284,26.555976],[108.917572,26.560411],[108.924571,26.573554],[108.924327,26.591417],[108.939708,26.585883],[108.950206,26.590766],[108.959565,26.60102],[108.971609,26.611355],[108.984955,26.617499],[109.03297,26.633083],[109.039073,26.618232],[109.059988,26.601752],[109.066987,26.591417],[109.08017,26.599718],[109.092052,26.617865],[109.101329,26.625596],[109.106944,26.626492],[109.120942,26.62405],[109.129242,26.625596],[109.133474,26.62877],[109.142345,26.637478],[109.146251,26.639228],[109.150076,26.643256],[109.190522,26.666571],[109.197032,26.677191],[109.206065,26.706],[109.214854,26.718085],[109.247976,26.743272],[109.252615,26.752509],[109.259776,26.759955],[109.307384,26.769599],[109.3178,26.775946],[109.331635,26.786811],[109.343761,26.800116],[109.348888,26.813992],[109.354421,26.81863],[109.38087,26.830146],[109.389903,26.837917],[109.369151,26.851874],[109.381358,26.872748],[109.408946,26.891669],[109.434581,26.899929],[109.453868,26.912136],[109.455333,26.939236],[109.444428,26.981879],[109.445974,26.995632],[109.45574,27.020331],[109.4581,27.033718],[109.450694,27.046169],[109.417898,27.060004],[109.410248,27.067206],[109.414073,27.080512],[109.42392,27.082384],[109.437022,27.079413],[109.459239,27.077948],[109.46339,27.076972],[109.468272,27.07807],[109.478608,27.084296],[109.486095,27.11225],[109.495209,27.104031],[109.509858,27.081366],[109.520112,27.07807],[109.530854,27.08747],[109.531505,27.103461],[109.535737,27.118516],[109.567882,27.127509],[109.583588,27.137274],[109.591319,27.139512],[109.600841,27.138454],[109.616954,27.133816],[109.625662,27.132676],[109.631928,27.14171],[109.638438,27.161933],[109.64796,27.182888],[109.663585,27.194159],[109.663259,27.163357],[109.66684,27.140245],[109.67864,27.126899],[109.7046,27.125271],[109.717459,27.127956],[109.732026,27.132636],[109.744721,27.139024],[109.752371,27.146999],[109.752615,27.158718],[109.749034,27.172675],[109.747,27.187445],[109.752371,27.201606],[109.763113,27.209662],[109.773855,27.208686],[109.800792,27.194159],[109.844249,27.179511],[109.855968,27.173651],[109.867686,27.164333],[109.874441,27.157579],[109.881847,27.152208],[109.896414,27.146999],[109.931895,27.139472],[109.944753,27.132676],[109.951589,27.139512],[109.966319,27.12995],[109.985281,27.124335],[110.00294,27.12641],[110.013682,27.139512],[109.995535,27.145575],[110.010265,27.166205],[110.054617,27.207831],[110.057872,27.214708],[110.060069,27.222357],[110.061453,27.238837],[110.064708,27.247504],[110.079275,27.257636],[110.087494,27.283759],[110.100515,27.293891],[110.117686,27.298163],[110.135916,27.297797],[110.125662,27.328233],[110.124522,27.344672],[110.132823,27.351833],[110.177419,27.365505],[110.19337,27.382188],[110.232839,27.454861],[110.277924,27.520575],[110.287364,27.544216],[110.292247,27.568915],[110.290538,27.579047],[110.283946,27.588568],[110.276134,27.597276],[110.269949,27.608018],[110.267996,27.620185],[110.273041,27.632921],[110.283702,27.627265],[110.293956,27.625841],[110.30421,27.627997],[110.314708,27.632921],[110.329275,27.643337],[110.33017,27.649604],[110.325043,27.656928],[110.321544,27.670518],[110.324636,27.676866],[110.332042,27.68004],[110.352306,27.681423],[110.358328,27.685167],[110.371755,27.70539],[110.37672,27.714911],[110.369721,27.722032],[110.367198,27.728827],[110.365896,27.735622],[110.363048,27.742784],[110.358979,27.748358],[110.34547,27.759874],[110.336843,27.772406],[110.341401,27.778022],[110.350678,27.783149],[110.359874,27.8074],[110.378835,27.836208],[110.382904,27.845893],[110.37851,27.866156],[110.368337,27.867499],[110.355479,27.863105],[110.342052,27.866319],[110.324718,27.911811],[110.321544,27.910427],[110.314057,27.902167],[110.296967,27.901719],[110.244395,27.908311],[110.238455,27.913357],[110.240489,27.922065],[110.250255,27.943468],[110.257904,27.95307],[110.268158,27.958604],[110.280528,27.955146],[110.282237,27.958075],[110.281993,27.959662],[110.282725,27.960517],[110.287364,27.96129],[110.287364,27.968777],[110.261485,27.972113],[110.180431,28.001247],[110.153901,28.013983],[110.146495,28.016547],[110.139171,28.021796],[110.137218,28.033962],[110.137543,28.047797],[110.135916,28.058173],[110.107188,28.085639],[110.102468,28.096015],[110.107432,28.105292],[110.119151,28.102891],[110.132742,28.097846],[110.143321,28.099148],[110.149343,28.11225],[110.143972,28.123603],[110.137218,28.133857],[110.139659,28.143826],[110.150076,28.148627],[110.160655,28.150214],[110.16505,28.154486],[110.156993,28.167344],[110.171153,28.172471],[110.176524,28.177924],[110.179128,28.185085],[110.184255,28.195339],[110.202159,28.219509],[110.204845,28.225775],[110.199474,28.234483],[110.175955,28.239285],[110.170665,28.246527],[110.169932,28.259589],[110.16448,28.29088],[110.199229,28.279893],[110.215017,28.278388],[110.232839,28.284044],[110.245209,28.293647],[110.287364,28.339301],[110.310639,28.383002],[110.321544,28.393337],[110.338471,28.40115],[110.357595,28.407172],[110.375662,28.415147],[110.38974,28.428738],[110.363048,28.437527],[110.371104,28.452012],[110.403412,28.472113],[110.403412,28.513739],[110.408946,28.518378],[110.435802,28.521552],[110.445079,28.523627],[110.454031,28.539822],[110.451915,28.577704],[110.462169,28.585069],[110.480479,28.585639],[110.500011,28.589545],[110.515147,28.600043],[110.520763,28.620469],[110.517345,28.629014],[110.509939,28.638129],[110.50294,28.645087],[110.499604,28.647162],[110.506358,28.659369],[110.517345,28.660468],[110.544444,28.653998],[110.566173,28.656114],[110.607188,28.665554],[110.667247,28.669298],[110.688731,28.676337],[110.698253,28.69184],[110.760265,28.722927],[110.765391,28.72956],[110.768158,28.735785],[110.771902,28.742255],[110.780284,28.749579],[110.791026,28.754584],[110.815847,28.761583],[110.840261,28.774726],[110.938487,28.798041],[110.972179,28.810126],[110.983165,28.811632],[111.003429,28.804389],[111.008311,28.790595],[111.013276,28.78205],[111.034679,28.790595],[111.062022,28.811632],[111.081391,28.82099],[111.086843,28.827745],[111.088634,28.842719],[111.091889,28.848904],[111.100027,28.856716],[111.110281,28.863389],[111.120372,28.866278],[111.12794,28.862616],[111.136729,28.842393],[111.143972,28.832139],[111.163829,28.823513],[111.186453,28.820624],[111.205089,28.813992],[111.212901,28.794257],[111.214773,28.770941],[111.221934,28.758409],[111.23642,28.752631],[111.295665,28.746161],[111.321544,28.746772],[111.339122,28.752997],[111.360037,28.7685],[111.363048,28.77379],[111.368175,28.786566],[111.380382,28.78913],[111.394216,28.788275],[111.404552,28.790595],[111.411143,28.800116],[111.417247,28.821479],[111.425141,28.832139],[111.433442,28.836005],[111.453868,28.838324],[111.462576,28.842719],[111.468028,28.850531],[111.472341,28.86225],[111.473643,28.874335],[111.469493,28.883653],[111.467296,28.893826],[111.475352,28.905097],[111.493337,28.921495],[111.514659,28.996161],[111.531668,29.034125],[111.561615,29.051296],[111.585948,29.046169],[111.593272,29.031033],[111.589692,28.98668],[111.591075,28.977403],[111.595632,28.972195],[111.603038,28.969835],[111.613455,28.969306],[111.626557,28.971137],[111.631358,28.976426],[111.63323,28.985053],[111.652273,29.028388],[111.665294,29.039415],[111.685802,29.037624],[111.696788,29.026679],[111.698985,28.995876],[111.705658,28.982978],[111.718354,28.976833],[111.775076,28.969306],[111.795421,28.970486],[111.811046,28.977566],[111.814952,28.990668],[111.80128,29.00963],[111.811697,29.017117],[111.82252,29.020535],[111.834727,29.020372],[111.84962,29.017117],[111.863455,29.009548],[111.888764,28.987576],[111.90089,28.982978],[111.958425,29.001329],[111.986746,29.003689],[111.992931,28.98489]]]}},{"type":"Feature","properties":{"kind":"rivers","name":"Hong","source":"Natural Earth 1:10m"},"geometry":{"type":"MultiLineString","coordinates":[[[106.500987,20.299506],[106.492442,20.290229],[106.486827,20.286404],[106.480886,20.284125],[106.47462,20.283149],[106.461681,20.283271],[106.455089,20.284491],[106.449799,20.287218],[106.409434,20.31627],[106.394542,20.332953],[106.386241,20.34044],[106.354503,20.355536],[106.349132,20.364529],[106.334239,20.365587],[106.322765,20.360704],[106.302013,20.341417],[106.29127,20.334174],[106.278087,20.329535],[106.267345,20.331488],[106.263927,20.344062],[106.268077,20.356879],[106.274669,20.367458],[106.279796,20.378445],[106.279307,20.392524],[106.271983,20.406073],[106.261322,20.410956],[106.233653,20.409613],[106.21933,20.413601],[106.213878,20.424343],[106.213878,20.438585],[106.217865,20.461249],[106.217459,20.468533],[106.214447,20.47488],[106.208018,20.480089],[106.201671,20.48253],[106.195323,20.484198],[106.189464,20.486436],[106.184093,20.49079],[106.177419,20.50373],[106.171967,20.532579],[106.167572,20.546332],[106.158214,20.557929],[106.136485,20.575222],[106.129975,20.58869],[106.127615,20.616807],[106.125011,20.625067],[106.112071,20.631537],[106.076182,20.615058],[106.059255,20.616563],[106.053396,20.622341],[106.031261,20.653428],[106.026785,20.663194],[106.024913,20.673651],[106.027192,20.684597],[106.030935,20.693956],[106.032725,20.70185],[106.029877,20.708035],[106.02003,20.712348],[105.990489,20.714138],[105.981049,20.717108],[105.968272,20.731716],[105.964366,20.77086],[105.955984,20.786729],[105.947276,20.791124],[105.928233,20.795844],[105.920014,20.801296],[105.914806,20.809597],[105.91212,20.819403],[105.911143,20.829698],[105.911388,20.839626],[105.916515,20.855902],[105.923595,20.872138],[105.924571,20.886664],[105.910248,20.897773],[105.901134,20.901964],[105.896088,20.907172],[105.89503,20.914333],[105.899343,20.933865],[105.895925,20.938585],[105.890147,20.942654],[105.884532,20.949815],[105.885509,20.966742],[105.89503,20.983954],[105.90089,21.000434],[105.890717,21.015408],[105.859467,21.030585],[105.851085,21.039659],[105.846934,21.049872],[105.841075,21.070828],[105.834076,21.079128],[105.82252,21.085639],[105.748953,21.109198],[105.73821,21.113959],[105.708507,21.136786],[105.669932,21.157538],[105.656342,21.160468],[105.514089,21.167426],[105.50351,21.169501],[105.494233,21.173651],[105.477143,21.185858],[105.465343,21.196723],[105.455577,21.208523],[105.439871,21.235907],[105.433849,21.252509],[105.425873,21.29206],[105.41448,21.307156],[105.394949,21.31155],[105.373546,21.308946],[105.353526,21.301337],[105.348399,21.29206],[105.336192,21.265815],[105.329275,21.260362],[105.312022,21.259345],[105.302989,21.260932],[105.291515,21.266628],[105.268077,21.284003],[105.264171,21.290798],[105.266368,21.299831],[105.275645,21.309027],[105.277843,21.318386],[105.274669,21.333604],[105.258311,21.377305],[105.250499,21.390082],[105.224539,21.405056],[105.214854,21.3935],[105.211681,21.373481],[105.20574,21.36282],[105.200694,21.357733],[105.200857,21.347602],[105.199474,21.339911],[105.188487,21.342312],[105.183116,21.34809],[105.175385,21.37641],[105.158783,21.403998],[105.137136,21.43183],[105.086681,21.480089],[105.057384,21.496527],[105.048839,21.503038],[104.962169,21.603135],[104.953298,21.609687],[104.94337,21.614285],[104.93214,21.616034],[104.922781,21.615302],[104.920095,21.615546],[104.92099,21.620307],[104.92213,21.633409],[104.924897,21.640896],[104.930756,21.643907],[104.935557,21.647813],[104.935151,21.657579],[104.93157,21.665107],[104.926524,21.669745],[104.920828,21.673367],[104.914643,21.678087],[104.905854,21.69127],[104.90032,21.696479],[104.890717,21.698554],[104.88795,21.697455],[104.885916,21.695136],[104.883311,21.692816],[104.877452,21.691718],[104.874034,21.693874],[104.874522,21.703233],[104.870616,21.70539],[104.863048,21.707709],[104.856456,21.713162],[104.846446,21.725898],[104.812266,21.75377],[104.803396,21.763129],[104.804128,21.766466],[104.804779,21.777696],[104.803315,21.786689],[104.798839,21.791856],[104.791515,21.794257],[104.781261,21.794786],[104.7671,21.799587],[104.7553,21.810981],[104.736501,21.835761],[104.645518,21.904568],[104.640391,21.925116],[104.627615,21.923407],[104.624929,21.921983],[104.620535,21.91767],[104.59433,21.938096],[104.587413,21.949327],[104.592459,21.959255],[104.493337,22.039089],[104.490245,22.044623],[104.48642,22.044542],[104.471446,22.06448],[104.469656,22.068468],[104.421479,22.098456],[104.407644,22.109483],[104.384044,22.140489],[104.36964,22.152655],[104.364268,22.159695],[104.359793,22.171495],[104.352957,22.171495],[104.341807,22.16474],[104.33253,22.17532],[104.318858,22.205024],[104.308116,22.215277],[104.271007,22.240424],[104.264578,22.247748],[104.255626,22.261786],[104.249929,22.267768],[104.243663,22.271593],[104.230561,22.276964],[104.222667,22.281358],[104.180756,22.316026],[104.137706,22.36164],[104.126964,22.370185],[104.099132,22.383816],[104.051768,22.42414],[103.988048,22.475775],[103.977061,22.487657],[103.96933,22.500515],[103.959239,22.50727],[103.950613,22.516669],[103.940359,22.524848],[103.925141,22.528428],[103.91684,22.533474],[103.902354,22.558783],[103.894216,22.569403],[103.888194,22.571967],[103.872162,22.573798],[103.866303,22.575629],[103.843842,22.599473],[103.835948,22.602891],[103.829519,22.609402],[103.809255,22.638983],[103.804861,22.647569],[103.793956,22.659613],[103.726085,22.716498],[103.658214,22.793484],[103.646576,22.799262],[103.605398,22.837836],[103.592052,22.847724],[103.590343,22.850165],[103.589936,22.853624],[103.588878,22.857489],[103.585867,22.860704],[103.581065,22.861355],[103.568858,22.859646],[103.564708,22.860704],[103.557546,22.868476],[103.5442,22.888699],[103.519542,22.910509],[103.461843,22.943142],[103.417979,22.977566],[103.390147,22.9914],[103.36085,23.014268],[103.328543,23.032538],[103.287852,23.061632],[103.174327,23.108425],[103.132904,23.117865],[103.09547,23.122097],[103.084402,23.12462],[103.076182,23.130642],[103.064464,23.141913],[103.023448,23.156195],[102.975597,23.186347],[102.948416,23.192979],[102.940684,23.199164],[102.933849,23.206],[102.927257,23.210801],[102.918224,23.212958],[102.912039,23.212022],[102.906261,23.210517],[102.899343,23.210801],[102.891205,23.214138],[102.884532,23.218451],[102.875987,23.222235],[102.862722,23.223822],[102.854584,23.228217],[102.848399,23.247423],[102.836681,23.255316],[102.82545,23.279079],[102.81894,23.284451],[102.779226,23.299872],[102.761974,23.303982],[102.725597,23.306423],[102.714366,23.304145],[102.698009,23.294542],[102.687755,23.292751],[102.685069,23.294542],[102.600841,23.327826],[102.591563,23.337429],[102.586843,23.340684],[102.557221,23.347357],[102.54127,23.354193],[102.506765,23.379584],[102.499278,23.382107],[102.476329,23.377061],[102.466075,23.377387],[102.461843,23.385525],[102.450857,23.394639],[102.425873,23.39704],[102.379242,23.39643],[102.342377,23.405219],[102.307628,23.418809],[102.249522,23.450385],[102.208995,23.464057],[102.168386,23.46894],[102.135753,23.480536],[102.119151,23.514106],[102.10434,23.537869],[102.078298,23.552598],[102.02296,23.576768],[101.996674,23.59809],[101.986257,23.612087],[101.977794,23.642768],[101.967296,23.647528],[101.953705,23.648383],[101.94044,23.651923],[101.930919,23.659491],[101.910167,23.682644],[101.901541,23.699286],[101.891043,23.705756],[101.878429,23.710883],[101.868663,23.716742],[101.830577,23.754259],[101.827891,23.755927],[101.819835,23.759223],[101.816905,23.761094],[101.813487,23.76671],[101.812511,23.777615],[101.810639,23.782253],[101.804291,23.787299],[101.797537,23.790798],[101.79241,23.795925],[101.790131,23.805772],[101.786713,23.814968],[101.778575,23.827582],[101.768565,23.838813],[101.759776,23.843695],[101.750662,23.850898],[101.72877,23.898261],[101.717296,23.913764],[101.698009,23.911933],[101.693289,23.915391],[101.687511,23.923692],[101.682872,23.933865],[101.680919,23.942694],[101.674815,23.957709],[101.577403,24.081895],[101.571056,24.117377],[101.562999,24.126532],[101.551768,24.134101],[101.529389,24.144721],[101.529389,24.152167],[101.533621,24.163642],[101.509776,24.186876],[101.502859,24.20307],[101.500255,24.217719],[101.466319,24.319363],[101.450694,24.348212],[101.445811,24.385118],[101.440684,24.398546],[101.435069,24.401964],[101.409272,24.412869],[101.401378,24.417589],[101.397227,24.428656],[101.394054,24.441107],[101.389171,24.450059],[101.377615,24.462226],[101.318858,24.540961],[101.308116,24.545478],[101.303396,24.525824],[101.298839,24.51557],[101.287852,24.509467],[101.274343,24.507148],[101.262625,24.508409],[101.257335,24.512641],[101.247813,24.528144],[101.241466,24.535102],[101.231212,24.537055],[101.2199,24.535102],[101.210948,24.537624],[101.207286,24.552802],[101.203136,24.558417],[101.184825,24.568061],[101.180675,24.572943],[101.178722,24.584662],[101.174083,24.592068],[101.132253,24.624538],[101.12672,24.635321],[101.120209,24.660427],[101.115245,24.669216],[101.08782,24.696845],[101.041921,24.730048],[100.949474,24.835476],[100.914561,24.901394],[100.90919,24.908759],[100.904307,24.911811],[100.898529,24.913764],[100.893972,24.916693],[100.8921,24.922431],[100.894135,24.928168],[100.89796,24.932929],[100.899832,24.93769],[100.895763,24.943549],[100.866466,24.965603],[100.857921,24.973944],[100.85255,24.982123],[100.844493,25.00019],[100.837413,25.008734],[100.818858,25.025458],[100.808035,25.027411],[100.803233,25.011786],[100.799083,25.00849],[100.780284,25.002143],[100.770763,24.994696],[100.758556,24.990424],[100.744721,24.987413],[100.734386,24.987616],[100.729747,24.992011],[100.720632,25.008572],[100.713878,25.014919],[100.695079,25.019843],[100.650808,25.024359],[100.635671,25.032294],[100.616954,25.051622],[100.598237,25.064643],[100.578624,25.072618],[100.556895,25.076972],[100.521088,25.080146],[100.498627,25.087104],[100.488455,25.100531],[100.405935,25.111151],[100.366628,25.122097],[100.350515,25.132514],[100.344005,25.148708],[100.34075,25.174262],[100.33196,25.195502],[100.302989,25.234646],[100.28297,25.266872],[100.234793,25.385443],[100.225352,25.400702],[100.182872,25.443183]]]}},{"type":"Feature","properties":{"kind":"rivers","name":"Wu","source":"Natural Earth 1:10m"},"geometry":{"type":"MultiLineString","coordinates":[[[106.730886,27.317694],[106.815847,27.317694],[106.822032,27.318712],[106.831554,27.32335],[106.836681,27.32449],[106.842459,27.322455],[106.851573,27.313503],[106.857432,27.311469],[106.862804,27.306667],[106.880382,27.284044],[106.88795,27.276679],[106.907237,27.26907],[106.917735,27.274482],[106.962983,27.33747],[106.975352,27.349921],[106.991466,27.358669],[107.018077,27.359483],[107.036632,27.347032],[107.053966,27.331895],[107.076915,27.32449],[107.097748,27.329047],[107.129893,27.350898],[107.149099,27.358669],[107.189952,27.354275],[107.183197,27.325059],[107.135509,27.263007],[107.129649,27.257188],[107.12379,27.253485],[107.121755,27.249335],[107.128022,27.24254],[107.142589,27.235704],[107.151866,27.238878],[107.160574,27.245673],[107.172862,27.249376],[107.238455,27.251573],[107.327403,27.281521],[107.360444,27.300116],[107.388682,27.32449],[107.398204,27.341335],[107.415131,27.386298],[107.425955,27.403347],[107.434581,27.4112],[107.445079,27.418769],[107.456391,27.424628],[107.480398,27.430691],[107.493256,27.448757],[107.504812,27.454861],[107.516775,27.454942],[107.520763,27.449978],[107.521983,27.442328],[107.525401,27.434353],[107.549083,27.405707],[107.553233,27.403347],[107.561697,27.395819],[107.614675,27.37226],[107.641368,27.372626],[107.667003,27.382839],[107.688731,27.399766],[107.704112,27.420722],[107.684093,27.420722],[107.687511,27.426947],[107.711436,27.441189],[107.723725,27.453477],[107.745128,27.489569],[107.752452,27.489569],[107.770112,27.479031],[107.78655,27.494981],[107.803722,27.530585],[107.813894,27.540473],[107.823985,27.547309],[107.83782,27.550401],[107.86142,27.550849],[107.872488,27.553005],[107.882253,27.557888],[107.892996,27.57392],[107.894054,27.594184],[107.888438,27.636746],[107.898041,27.643419],[107.956716,27.6671],[107.999034,27.702745],[108.015391,27.708075],[108.021658,27.711249],[108.040701,27.725409],[108.049815,27.728583],[108.069021,27.730089],[108.079031,27.732449],[108.087576,27.736029],[108.104991,27.749538],[108.138927,27.794379],[108.161794,27.804958],[108.181163,27.799872],[108.197358,27.791287],[108.210541,27.791287],[108.215912,27.801215],[108.23463,27.864773],[108.246511,27.953477],[108.245372,27.968777],[108.237071,27.984646],[108.19752,28.023993],[108.187022,28.052069],[108.190684,28.078966],[108.202891,28.104071],[108.236095,28.1553],[108.243175,28.172187],[108.245372,28.187852],[108.240245,28.204413],[108.231049,28.215196],[108.220225,28.224473],[108.210541,28.236274],[108.229015,28.25906],[108.251475,28.305609],[108.272553,28.325629],[108.285655,28.330593],[108.296641,28.332709],[108.303966,28.338894],[108.306733,28.356065],[108.301768,28.362331],[108.265717,28.380316],[108.272553,28.392686],[108.28183,28.399522],[108.306733,28.407009],[108.314871,28.40766],[108.323334,28.406806],[108.331472,28.40705],[108.338145,28.410712],[108.359874,28.426337],[108.397634,28.447333],[108.403575,28.451687],[108.407237,28.482367],[108.409923,28.489529],[108.4192,28.493964],[108.447765,28.498358],[108.458263,28.503201],[108.466319,28.514187],[108.472667,28.527411],[108.476654,28.541449],[108.478038,28.554714],[108.483165,28.573839],[108.503429,28.612616],[108.505382,28.639716],[108.484955,28.640245],[108.405772,28.658311],[108.36378,28.677598],[108.3449,28.681952],[108.330089,28.689073],[108.322765,28.705756],[108.320567,28.724962],[108.320404,28.739691],[108.329031,28.7567],[108.367117,28.776923],[108.37558,28.794257],[108.371349,28.815863],[108.361095,28.83039],[108.349701,28.843207],[108.341563,28.859442],[108.340261,28.869167],[108.341319,28.912055],[108.340343,28.919542],[108.30128,29.005927],[108.292084,29.044867],[108.300141,29.086005],[108.290538,29.136542],[108.266694,29.162706],[108.233653,29.18126],[108.19752,29.20893],[108.184825,29.224311],[108.173595,29.242255],[108.165701,29.261583],[108.16269,29.281195],[108.158376,29.292833],[108.149018,29.302069],[108.139659,29.309272],[108.135509,29.315009],[108.128673,29.352891],[108.108328,29.386786],[108.07252,29.396796],[107.952078,29.384792],[107.945404,29.374538],[107.943614,29.349473],[107.938406,29.32628],[107.925385,29.309149],[107.896495,29.284613],[107.891205,29.278754],[107.886811,29.272244],[107.8838,29.265082],[107.882253,29.257351],[107.867279,29.264106],[107.849132,29.276557],[107.833507,29.29206],[107.823985,29.315538],[107.816335,29.321397],[107.805105,29.326036],[107.79184,29.329698],[107.745128,29.339219],[107.72877,29.346137],[107.717703,29.352891],[107.688487,29.377061],[107.679861,29.380194],[107.676524,29.382636],[107.645763,29.397284],[107.634858,29.400458],[107.580577,29.400702],[107.562022,29.409491],[107.526296,29.436591],[107.515717,29.442247],[107.470714,29.518012],[107.478608,29.562852],[107.474864,29.583767],[107.453624,29.592475],[107.431163,29.596625],[107.412364,29.607489],[107.398041,29.622911],[107.388682,29.640937],[107.385671,29.655097],[107.385916,29.666938],[107.388682,29.685329],[107.394054,29.694403],[107.404063,29.703192],[107.409923,29.714301],[107.402436,29.730292]],[[106.730886,27.317694],[106.724132,27.317694]],[[104.592459,26.808295],[104.607432,26.800605],[104.646658,26.769151],[104.654552,26.757392],[104.735769,26.708319],[104.757091,26.699042],[104.764659,26.69892],[104.777924,26.704413],[104.78769,26.705878],[104.798595,26.702704],[104.815929,26.688585],[104.82252,26.685411],[104.837169,26.688056],[104.845225,26.6942],[104.851492,26.701036],[104.860037,26.705878],[104.891368,26.699246],[104.931163,26.687323],[104.935151,26.683946],[104.93629,26.661689],[104.942393,26.646064],[104.956716,26.638251],[104.983653,26.639228],[105.000255,26.64643],[105.020518,26.66002],[105.03769,26.674384],[105.051524,26.692165],[105.066335,26.683865],[105.092784,26.659735],[105.109955,26.648749],[105.127533,26.642279],[105.145763,26.643826],[105.164806,26.656602],[105.184662,26.664374],[105.192556,26.644639],[105.195811,26.598253],[105.216319,26.591417],[105.225841,26.562364],[105.226329,26.556098],[105.231049,26.551947],[105.247081,26.550482],[105.255951,26.548204],[105.275971,26.538438],[105.288097,26.5362],[105.294444,26.539618],[105.314708,26.553982],[105.326182,26.556708],[105.339692,26.552924],[105.346934,26.545518],[105.351085,26.536973],[105.353526,26.529364],[105.353526,26.523993],[105.347179,26.514757],[105.346121,26.508897],[105.348888,26.503607],[105.358409,26.498358],[105.360362,26.492133],[105.362234,26.472602],[105.367279,26.450507],[105.375987,26.429633],[105.387706,26.413357],[105.403331,26.403876],[105.421316,26.39643],[105.436046,26.386298],[105.450776,26.349555],[105.471609,26.340522],[105.496593,26.337714],[105.545665,26.337592],[105.563894,26.340115],[105.578868,26.349148],[105.596772,26.368598],[105.610281,26.376329],[105.675141,26.392849],[105.686697,26.392605],[105.706635,26.387397],[105.716726,26.386013],[105.722585,26.388292],[105.733165,26.398301],[105.737071,26.400255],[105.743175,26.397325],[105.747813,26.392524],[105.751231,26.388007],[105.754242,26.386013],[105.78712,26.387722],[105.803803,26.391913],[105.825857,26.400255],[105.882904,26.429877],[105.90504,26.433783],[105.930186,26.435085],[105.950776,26.438992],[106.075694,26.480984],[106.10963,26.49905],[106.134939,26.5362],[106.150401,26.599433],[106.158783,26.615058],[106.162039,26.626003],[106.157644,26.638617],[106.148692,26.649115],[106.138276,26.65351],[106.132335,26.657335],[106.142345,26.665351],[106.156505,26.672553],[106.162364,26.674018],[106.170665,26.690497],[106.17213,26.708197],[106.1692,26.752509],[106.163097,26.777615],[106.149669,26.793809],[106.135509,26.805691],[106.127452,26.81741],[106.130382,26.838406],[106.14503,26.853583],[106.165619,26.862657],[106.186127,26.86579],[106.196381,26.870063],[106.209727,26.888861],[106.220307,26.893134],[106.238455,26.8935],[106.250418,26.886298],[106.259858,26.878119],[106.264415,26.871527],[106.2706,26.86872],[106.285167,26.872016],[106.290294,26.875678],[106.309255,26.896552],[106.31894,26.899359],[106.339936,26.887397],[106.350352,26.889716],[106.357188,26.89822],[106.358653,26.905707],[106.35849,26.914618],[106.360281,26.927273],[106.366791,26.946072],[106.37794,26.966376],[106.393077,26.982611],[106.437022,26.995958],[106.440033,27.011583],[106.431407,27.029731],[106.422374,27.043972],[106.41212,27.064073],[106.405854,27.083686],[106.402761,27.1046],[106.401866,27.128974],[106.40504,27.141425],[106.412852,27.146918],[106.422944,27.150499],[106.432628,27.156928],[106.446707,27.188056],[106.450206,27.194159],[106.458995,27.196112],[106.481293,27.193142],[106.490652,27.194159],[106.520274,27.222602],[106.607921,27.269884],[106.631277,27.29267],[106.642833,27.298529],[106.714773,27.312364],[106.730886,27.317694]]]}},{"type":"Feature","properties":{"kind":"rivers","name":"Xiang","source":"Natural Earth 1:10m"},"geometry":{"type":"MultiLineString","coordinates":[[[110.616954,25.48786],[110.624115,25.492621],[110.641368,25.501247],[110.651134,25.508368],[110.665538,25.526435],[110.674327,25.533474],[110.687999,25.536322],[110.689138,25.540635],[110.698009,25.560899],[110.701671,25.567003],[110.706472,25.57807],[110.700857,25.586697],[110.685313,25.597724],[110.678803,25.627997],[110.691987,25.6588],[110.739268,25.713813],[110.753673,25.726874],[110.770763,25.737982],[110.788259,25.745673],[110.804454,25.748562],[110.826915,25.755072],[110.845307,25.771064],[110.859874,25.791287],[110.881765,25.831163],[110.893321,25.843817],[110.943777,25.87226],[110.949718,25.876736],[110.952159,25.882025],[110.95517,25.886501],[110.962169,25.884792],[110.972585,25.878933],[110.994151,25.889716],[111.001475,25.89643],[111.006847,25.906846],[111.014171,25.899441],[111.023367,25.903144],[111.029063,25.901435],[111.033946,25.898627],[111.040945,25.899441],[111.046479,25.904324],[111.046397,25.909776],[111.045421,25.915351],[111.04835,25.920478],[111.059255,25.927558],[111.088634,25.940375],[111.086518,25.95364],[111.087576,25.966824],[111.091075,25.978868],[111.096121,25.988796],[111.097341,25.988796],[111.109874,26.000556],[111.109874,26.001776],[111.117686,26.0067],[111.122162,26.008857],[111.12558,26.007514],[111.1303,26.001776],[111.141124,26.010077],[111.152192,26.015001],[111.160818,26.021104],[111.166515,26.041205],[111.198009,26.092231],[111.253184,26.235175],[111.256358,26.256171],[111.260671,26.265082],[111.283214,26.273139],[111.285655,26.283311],[111.281261,26.294989],[111.273692,26.303494],[111.318126,26.321723],[111.332042,26.32392],[111.365001,26.317572],[111.380056,26.318874],[111.390391,26.331366],[111.39503,26.326361],[111.401785,26.321723],[111.404552,26.317165],[111.413829,26.322821],[111.422862,26.32331],[111.430919,26.318874],[111.438243,26.309638],[111.450694,26.312852],[111.462413,26.311062],[111.472341,26.312079],[111.479747,26.32392],[111.487234,26.32392],[111.490326,26.311835],[111.495942,26.302924],[111.503917,26.296007],[111.514415,26.290391],[111.513438,26.293728],[111.516775,26.298285],[111.52239,26.302273],[111.527436,26.303494],[111.532725,26.301052],[111.536388,26.293809],[111.567882,26.271999],[111.575857,26.268663],[111.588308,26.268744],[111.59075,26.270575],[111.591807,26.275946],[111.599539,26.286689],[111.607188,26.307725],[111.590261,26.350775],[111.592703,26.368598],[111.604015,26.389431],[111.604096,26.407904],[111.595876,26.423163],[111.582123,26.433783],[111.589936,26.445421],[111.607514,26.457953],[111.616954,26.467963],[111.623057,26.480251],[111.63144,26.505886],[111.637299,26.515733],[111.645925,26.522406],[111.6692,26.536322],[111.678315,26.543647],[111.686941,26.555365],[111.691742,26.564561],[111.698416,26.571885],[111.713145,26.577826],[111.713145,26.584662],[111.705496,26.589952],[111.701671,26.596544],[111.701671,26.603827],[111.705658,26.611355],[111.730398,26.586534],[111.739838,26.571601],[111.740326,26.550482],[111.75172,26.556667],[111.752615,26.564724],[111.750987,26.574164],[111.753998,26.584662],[111.765391,26.595893],[111.775483,26.599636],[111.798106,26.598253],[111.80071,26.596259],[111.802664,26.58572],[111.804861,26.581244],[111.811046,26.577908],[111.815522,26.579535],[111.819835,26.582831],[111.825694,26.584662],[111.846609,26.581326],[111.85434,26.584744],[111.863292,26.598253],[111.867117,26.588406],[111.870128,26.556708],[111.869395,26.547553],[111.864513,26.530788],[111.863292,26.519477],[111.868582,26.506456],[111.879649,26.511339],[111.889415,26.522773],[111.890636,26.529364],[111.900645,26.52558],[111.907156,26.518622],[111.911388,26.511908],[111.914806,26.508897],[111.927745,26.501044],[111.951752,26.465115],[111.966319,26.454901],[111.984874,26.454779],[112.023448,26.465155],[112.048839,26.467963],[112.048839,26.474799],[112.043793,26.476182],[112.04127,26.477851],[112.039073,26.479804],[112.034679,26.482204],[112.048595,26.496934],[112.067882,26.500271],[112.11378,26.495876],[112.133067,26.501085],[112.147472,26.513861],[112.172374,26.543647],[112.189382,26.548692],[112.212983,26.548367],[112.229096,26.541205],[112.223643,26.526313],[112.187266,26.501817],[112.180675,26.488552],[112.199148,26.474799],[112.2199,26.472032],[112.249929,26.473741],[112.276866,26.480333],[112.288503,26.492133],[112.290701,26.497423],[112.295665,26.502143],[112.300385,26.508612],[112.302745,26.519477],[112.30071,26.553656],[112.302745,26.564154],[112.316905,26.57685],[112.333507,26.572781],[112.34905,26.562527],[112.360281,26.556708],[112.375662,26.563747],[112.396902,26.593451],[112.411388,26.598253],[112.417491,26.593817],[112.431895,26.57038],[112.441905,26.563829],[112.448741,26.562323],[112.462901,26.564154],[112.474294,26.567328],[112.479015,26.574408],[112.480886,26.581407],[112.483409,26.584662],[112.494233,26.583116],[112.509288,26.577501],[112.5206,26.577826],[112.537608,26.584784],[112.570893,26.606716],[112.619884,26.614203],[112.627533,26.622992],[112.627452,26.638129],[112.630463,26.659735],[112.634776,26.668728],[112.651541,26.694525],[112.663097,26.723334],[112.6692,26.732042],[112.677257,26.75141],[112.657319,26.757392],[112.610606,26.755927],[112.589936,26.768826],[112.583507,26.789578],[112.591563,26.808905],[112.61435,26.81741],[112.637543,26.819932],[112.648692,26.827663],[112.665701,26.858344],[112.63087,26.873643],[112.616466,26.885077],[112.610606,26.903347],[112.61614,26.922634],[112.642507,26.953681],[112.651541,26.975653],[112.653412,27.016059],[112.660574,27.026679],[112.682384,27.0303],[112.697683,27.021918],[112.705658,27.004584],[112.716563,26.989936],[112.740326,26.989325],[112.757498,27.00198],[112.759858,27.021023],[112.75172,27.04206],[112.737234,27.060655],[112.728282,27.082953],[112.748464,27.091742],[112.77589,27.0928],[112.788829,27.091742],[112.807872,27.101915],[112.807709,27.118028],[112.80421,27.133002],[112.813243,27.139512],[112.840017,27.145453],[112.847585,27.160468],[112.844005,27.201606],[112.861095,27.235175],[112.920909,27.286444],[112.93214,27.32449],[112.927257,27.344672],[112.908946,27.385362],[112.904796,27.410183],[112.913503,27.423367],[112.933523,27.43419],[112.973643,27.448594],[112.986908,27.431993],[112.991954,27.413886],[113.00058,27.399359],[113.024669,27.393378],[113.044526,27.399726],[113.043793,27.415351],[113.036143,27.435411],[113.035167,27.454861],[113.063975,27.479275],[113.107188,27.495551],[113.138194,27.517198],[113.131358,27.557888],[113.111827,27.592149],[113.105724,27.612087],[113.103445,27.636746],[113.106456,27.659369],[113.120535,27.694607],[113.124034,27.714911],[113.122488,27.726426],[113.114024,27.745958],[113.11085,27.756456],[113.110769,27.76614],[113.116222,27.782091],[113.117686,27.794379],[113.120942,27.79739],[113.127615,27.802558],[113.134532,27.810411],[113.137625,27.821357],[113.135834,27.832872],[113.13087,27.841132],[113.122488,27.847235],[113.11085,27.852078],[113.090261,27.856757],[113.083018,27.859565],[113.062918,27.852118],[113.016612,27.851426],[112.997325,27.842149],[112.964692,27.814561],[112.944591,27.802802],[112.925304,27.797431],[112.903819,27.800564],[112.891368,27.811306],[112.885671,27.827948],[112.884288,27.848944],[112.893484,27.862331],[112.953217,27.906684],[112.987722,27.952419],[112.99114,27.958441],[112.987885,27.96544],[112.950043,28.007921],[112.939952,28.022895],[112.93214,28.044501],[112.930431,28.068386],[112.935557,28.087592],[112.942393,28.104844],[112.959483,28.201524],[112.960867,28.244656],[112.954275,28.27912],[112.936941,28.3074],[112.870942,28.356635],[112.844005,28.385688],[112.80128,28.452745],[112.766124,28.507514],[112.761485,28.523627],[112.762706,28.545111],[112.771414,28.553168],[112.785492,28.558539],[112.802419,28.572089],[112.810313,28.588935],[112.810802,28.6081],[112.805186,28.626166],[112.795665,28.639716],[112.776541,28.649929],[112.755789,28.651394],[112.734304,28.646999],[112.713634,28.639716],[112.711192,28.674425],[112.748464,28.696804],[112.793875,28.717312],[112.81601,28.746446],[112.826671,28.766628],[112.873627,28.776882],[112.884288,28.794257],[112.892996,28.857978],[112.891694,28.880561],[112.881765,28.915798],[112.879405,28.935248],[112.884288,28.955675],[112.896495,28.971544],[112.949474,29.006863],[112.982188,29.03502],[113.010916,29.068671],[113.018077,29.08865],[113.013438,29.110541],[112.993582,29.147488]]]}},{"type":"Feature","properties":{"kind":"rivers","name":"You","source":"Natural Earth 1:10m"},"geometry":{"type":"MultiLineString","coordinates":[[[105.257335,24.448065],[105.312429,24.418891],[105.34905,24.409695],[105.387543,24.385362],[105.408214,24.3758],[105.477061,24.372138],[105.493907,24.365587],[105.503429,24.35989],[105.524913,24.352403],[105.535085,24.344794],[105.542491,24.337836],[105.550792,24.332546],[105.560802,24.329047],[105.573253,24.32746],[105.625092,24.329779],[105.631114,24.330268],[105.636648,24.330024],[105.641205,24.328803],[105.644949,24.326606],[105.698416,24.312771],[105.722992,24.298448],[105.737315,24.295478],[105.747488,24.296942],[105.755056,24.300605],[105.780284,24.319688],[105.815359,24.337348],[105.829031,24.351833],[105.836192,24.356798],[105.845144,24.356024],[105.849132,24.352403],[105.862234,24.335232],[105.891368,24.312567],[105.896902,24.296658],[105.886322,24.255561],[105.88795,24.234687],[105.90504,24.217882],[105.958995,24.19241],[105.97047,24.183173],[105.973643,24.170681],[105.980724,24.162462],[105.987804,24.156033],[105.990896,24.148464],[105.993337,24.137478],[105.998953,24.132636],[106.005789,24.129747],[106.011485,24.124823],[106.020925,24.110867],[106.018321,24.096869],[106.014171,24.088813],[106.007904,24.08161],[106.006114,24.072618],[106.014903,24.059353],[106.035818,24.044623],[106.060313,24.031928],[106.082774,24.016913],[106.097179,23.995307],[106.097585,23.985867],[106.089692,23.970649],[106.08839,23.962673],[106.091401,23.956366],[106.096934,23.953192],[106.126475,23.944281],[106.139171,23.941962],[106.152354,23.942572],[106.1692,23.946112],[106.190115,23.945828],[106.199311,23.948065],[106.203217,23.956895],[106.20574,23.960883],[106.219005,23.971218],[106.223725,23.973985],[106.244558,23.975287],[106.262706,23.967312],[106.280365,23.956895],[106.299897,23.951199],[106.322195,23.952094],[106.348399,23.956855],[106.373546,23.965277],[106.392019,23.977118],[106.411632,23.981065],[106.437429,23.971951],[106.456554,23.955919],[106.456554,23.946112]],[[106.456554,23.946112],[106.450206,23.939276],[106.463471,23.933865],[106.504405,23.925605],[106.514089,23.91824],[106.532156,23.899237],[106.545909,23.891466],[106.559662,23.88821],[106.573009,23.888292],[106.613455,23.897528],[106.621023,23.898057],[106.627208,23.896267],[106.632335,23.889919],[106.633556,23.8817],[106.633556,23.872829],[106.634695,23.864122],[106.643972,23.834784],[106.655284,23.810858],[106.673839,23.793077],[106.704112,23.782253],[106.752452,23.775214],[106.777843,23.775173],[106.80071,23.779812],[106.816417,23.779853],[106.831472,23.758653],[106.846772,23.755439],[106.887299,23.761094],[106.90919,23.760565],[106.928152,23.754747],[106.933686,23.746649],[106.930593,23.73668],[106.924734,23.725775],[106.922293,23.714952],[106.92628,23.706081],[106.933686,23.699897],[106.942312,23.694444],[106.949474,23.687527],[106.960948,23.664578],[106.966889,23.657497],[106.989268,23.641547],[107.018647,23.626247],[107.049815,23.614814],[107.141694,23.596625],[107.193126,23.598456],[107.211192,23.596625],[107.244151,23.584337],[107.265717,23.565863],[107.283946,23.545681],[107.306895,23.528388],[107.316498,23.514228],[107.335053,23.495876],[107.357351,23.479926],[107.37794,23.47309],[107.381765,23.470038],[107.409272,23.452663],[107.411388,23.446845],[107.411632,23.432807],[107.415538,23.425971],[107.420421,23.423041],[107.431651,23.42121],[107.437266,23.418524],[107.54005,23.32449],[107.555268,23.314765],[107.561941,23.31269],[107.573009,23.311713],[107.579194,23.310248],[107.581391,23.308417],[107.585541,23.302436],[107.587901,23.300482],[107.591319,23.299994],[107.601329,23.30154],[107.620128,23.297227],[107.6303,23.289089],[107.635265,23.27615],[107.643158,23.229682],[107.64796,23.21955],[107.65919,23.209337],[107.698009,23.182929],[107.704112,23.175157],[107.713308,23.166693],[107.755382,23.153876],[107.768077,23.146552],[107.769054,23.133328],[107.764171,23.120714],[107.763438,23.111274],[107.776866,23.107489],[107.783946,23.108222],[107.790294,23.109687],[107.796397,23.110297],[107.803396,23.108832],[107.810557,23.10456],[107.816742,23.098456],[107.826264,23.08454],[107.827729,23.088568],[107.830333,23.083279],[107.854096,23.065538],[107.85963,23.059109],[107.868663,23.044542],[107.87379,23.038642],[107.880626,23.034491],[107.886322,23.034369],[107.899425,23.04088],[107.940847,23.054389],[107.946869,23.057563],[107.958588,23.065497],[107.964854,23.068305],[107.976166,23.070095],[107.981537,23.066921],[107.981619,23.059678],[107.977306,23.049262],[107.960541,23.020087],[107.956472,23.00434],[107.961436,22.990505],[107.973155,22.98253],[108.026866,22.964179],[108.03419,22.96369],[108.040294,22.961737],[108.045665,22.955105],[108.046804,22.949042],[108.045014,22.935655],[108.045095,22.929307],[108.046397,22.924872],[108.056651,22.904568],[108.058197,22.898546],[108.057058,22.892605],[108.052175,22.884223],[108.049734,22.88227],[108.043549,22.880439],[108.04184,22.878038],[108.042084,22.872178],[108.045095,22.867255],[108.060557,22.854804],[108.0678,22.850898],[108.083263,22.845282],[108.092296,22.844346]],[[106.456554,23.939276],[106.456554,23.946112]]]}},{"type":"Feature","properties":{"kind":"rivers","name":"Yong","source":"Natural Earth 1:10m"},"geometry":{"type":"MultiLineString","coordinates":[[[108.092296,22.844346],[108.110362,22.844916],[108.118582,22.842353],[108.112234,22.821845],[108.110362,22.803168],[108.116954,22.787177],[108.135509,22.774848],[108.162852,22.772895],[108.183035,22.785264],[108.189464,22.804389],[108.176362,22.822618],[108.176362,22.830105],[108.197765,22.836697],[108.216238,22.836982],[108.232432,22.833035],[108.247651,22.826606],[108.272553,22.815782],[108.311046,22.807644],[108.3296,22.799262],[108.327891,22.787909],[108.327891,22.781684],[108.342459,22.786933],[108.35255,22.788642],[108.379324,22.787055],[108.388276,22.783149],[108.396088,22.781684],[108.399669,22.782538],[108.40919,22.786892],[108.427989,22.792304],[108.452403,22.811591],[108.463796,22.815782],[108.475108,22.81037],[108.481863,22.797553],[108.484793,22.781765],[108.484874,22.767401],[108.498139,22.799343],[108.506847,22.810126],[108.512218,22.794704],[108.544444,22.811957],[108.555675,22.823676],[108.560069,22.839708],[108.568126,22.847195],[108.628917,22.843126],[108.779796,22.863593],[108.833018,22.881374],[108.852061,22.884101],[108.873464,22.880927],[108.8838,22.872138],[108.897634,22.843126],[108.920095,22.816596],[108.928233,22.801459],[108.920665,22.794704],[108.908783,22.791612],[108.904307,22.784776],[108.901134,22.77794],[108.893647,22.774848],[108.885916,22.777452],[108.878835,22.781277],[108.873057,22.779975],[108.869721,22.767401],[108.872325,22.754991],[108.880382,22.745795],[108.897634,22.733262]]]}},{"type":"Feature","properties":{"kind":"rivers","name":"Yu","source":"Natural Earth 1:10m"},"geometry":{"type":"MultiLineString","coordinates":[[[108.897634,22.733262],[108.905935,22.723741],[108.909597,22.716376],[108.916921,22.692247],[108.92335,22.680528],[108.929617,22.671983],[108.937429,22.664984],[108.958507,22.653347],[108.965831,22.647284],[108.971609,22.637722],[108.992198,22.65001],[109.010183,22.657782],[109.029307,22.660468],[109.075206,22.652899],[109.095714,22.64704],[109.114024,22.637803],[109.129242,22.623399],[109.135916,22.623399],[109.130463,22.648057],[109.131114,22.659939],[109.139415,22.664984],[109.187511,22.664984],[109.220795,22.652289],[109.232188,22.651313],[109.242605,22.656317],[109.247081,22.663886],[109.252615,22.684841],[109.258881,22.684841],[109.261729,22.679714],[109.265147,22.677029],[109.268972,22.674994],[109.273204,22.67182],[109.277192,22.678168],[109.279552,22.685899],[109.280528,22.695136],[109.28004,22.705919],[109.290131,22.701483],[109.2942,22.698513],[109.302745,22.715644],[109.326182,22.726264],[109.35491,22.731716],[109.389578,22.733344],[109.397553,22.734727],[109.404389,22.738796],[109.410248,22.746894],[109.410167,22.7567],[109.405935,22.789618],[109.410248,22.80211],[109.461518,22.822618],[109.475027,22.824286],[109.50644,22.833848],[109.516531,22.839708],[109.552826,22.872341],[109.561127,22.884101],[109.564464,22.900824],[109.562511,22.916571],[109.562999,22.931464],[109.574229,22.945502],[109.585053,22.935899],[109.600027,22.928168],[109.617605,22.925727],[109.636241,22.931912],[109.636241,22.938747],[109.602061,22.948554],[109.594737,22.952989],[109.589936,22.962226],[109.593191,22.966376],[109.598888,22.969835],[109.602061,22.976874],[109.597748,22.985785],[109.588145,22.986762],[109.578624,22.986111],[109.574229,22.990261],[109.57252,22.996649],[109.561127,23.021267],[109.560802,23.038113],[109.565522,23.055935],[109.573985,23.072781],[109.584727,23.086453],[109.591889,23.092353],[109.598888,23.095526],[109.607432,23.096747],[109.626964,23.097357],[109.721934,23.117499],[109.74114,23.112616],[109.756358,23.090196],[109.773448,23.083319],[109.796397,23.084784],[109.82545,23.100043],[109.845144,23.103827],[109.855398,23.107978],[109.853038,23.117214],[109.848562,23.126288],[109.852306,23.130479],[109.863455,23.128485],[109.87379,23.125108],[109.882742,23.124457],[109.890147,23.130479],[109.891368,23.139919],[109.878022,23.154608],[109.875906,23.165229],[109.882091,23.172878],[109.905528,23.185085],[109.910655,23.188829],[109.920095,23.203152],[109.962413,23.213568],[109.972097,23.230414],[109.973155,23.241238],[109.977061,23.242703],[109.984467,23.243109],[109.996349,23.250922],[110.002208,23.26081],[110.005789,23.271837],[110.010346,23.281846],[110.020518,23.288764],[110.031749,23.287218],[110.059093,23.271552],[110.071707,23.267646],[110.082449,23.271918],[110.085948,23.281928],[110.081554,23.293321],[110.068289,23.301825],[110.057709,23.29324],[110.049408,23.291693],[110.043793,23.296983],[110.040294,23.309272],[110.042735,23.32038],[110.057872,23.336208],[110.064871,23.358751],[110.082042,23.394395],[110.089366,23.404853]]]}},{"type":"Feature","properties":{"kind":"rivers","name":"Da","source":"Natural Earth 1:10m"},"geometry":{"type":"MultiLineString","coordinates":[[[100.612071,24.748643],[100.656505,24.715644],[100.6692,24.70364],[100.677989,24.698106],[100.702159,24.687812],[100.707042,24.682807],[100.720714,24.651801],[100.739268,24.638495],[100.759288,24.629665],[100.775483,24.617499],[100.782237,24.594062],[100.784434,24.589057],[100.789073,24.583848],[100.793712,24.576768],[100.797862,24.551378],[100.802826,24.545193],[100.8095,24.541612],[100.816335,24.535102],[100.824718,24.521186],[100.840831,24.460639],[100.85434,24.454169],[100.8838,24.423367],[100.896495,24.406277],[100.917491,24.349311],[100.923106,24.34394],[100.929128,24.339626],[100.93214,24.329942],[100.934093,24.32038],[100.937022,24.315985],[100.952078,24.310167],[100.95574,24.297065],[100.954112,24.27501],[100.992686,24.239081],[101.009695,24.215928],[101.005626,24.196234],[101.000418,24.186347],[101.002208,24.175157],[101.006847,24.164252],[101.009369,24.1553],[101.014089,24.148546],[101.02532,24.147488],[101.038829,24.147569],[101.050304,24.144721],[101.060802,24.132392],[101.069591,24.113227],[101.07545,24.091905],[101.077647,24.07331],[101.084565,24.055447],[101.11671,24.021064],[101.125987,24.007514],[101.132742,23.966335],[101.137706,23.950263],[101.149913,23.936143],[101.157237,23.919013],[101.15504,23.894721],[101.145925,23.856716],[101.145763,23.788886],[101.149669,23.755194],[101.159597,23.727607],[101.176524,23.696153],[101.186697,23.664822],[101.185069,23.632025],[101.166433,23.596625],[101.181244,23.582628],[101.225352,23.574327],[101.23463,23.565945],[101.237804,23.559434],[101.251964,23.545966],[101.255056,23.538642],[101.25294,23.528754],[101.249929,23.520941],[101.251394,23.514228],[101.262625,23.50788],[101.280203,23.425401],[101.279307,23.411689],[101.282481,23.396064],[101.251231,23.286729],[101.245128,23.274482],[101.244884,23.264838],[101.2588,23.26085],[101.276785,23.259101],[101.290619,23.254421],[101.317149,23.240343],[101.342214,23.232733],[101.34905,23.22602],[101.351329,23.209337],[101.342703,23.16352],[101.337576,23.150987],[101.339692,23.144721],[101.33074,23.124294],[101.367931,23.08808],[101.382091,23.083319],[101.39088,23.08865],[101.427013,23.124294],[101.432628,23.114691],[101.443126,23.109931],[101.467377,23.103827],[101.486908,23.087104],[101.497976,23.075019],[101.51295,23.048367],[101.515717,23.041124],[101.516368,23.036322],[101.515717,23.017849],[101.5088,23.015408],[101.467377,22.986518],[101.477306,22.981024],[101.483653,22.975369],[101.495372,22.959174],[101.506928,22.931179],[101.509044,22.928494],[101.520518,22.905382],[101.522553,22.89407],[101.550548,22.870429],[101.56837,22.860948],[101.586355,22.854438],[101.606049,22.850613],[101.628998,22.849311],[101.645518,22.855292],[101.656993,22.869208],[101.673432,22.897773],[101.700613,22.91588],[101.731619,22.919216],[101.764415,22.908271],[101.796397,22.884101],[101.819591,22.847439],[101.834402,22.830024],[101.854747,22.822618],[101.860444,22.819444],[101.865245,22.812364],[101.871593,22.805284],[101.882335,22.80211],[101.89503,22.803819],[101.904063,22.807725],[101.911794,22.812323],[101.919932,22.815782],[101.927419,22.817694],[101.933604,22.818305],[101.940033,22.817735],[101.947765,22.815782],[101.961436,22.805854],[101.97047,22.801703],[101.974539,22.805243],[101.980398,22.80211],[102.016124,22.767401],[102.036143,22.735622],[102.052257,22.702948],[102.07252,22.673529],[102.104747,22.651313],[102.163992,22.626532],[102.184255,22.623399],[102.226492,22.624132],[102.247081,22.622341],[102.263194,22.616563],[102.276541,22.601426],[102.292979,22.568305],[102.307546,22.561957],[102.379242,22.575629],[102.401785,22.57453],[102.458018,22.561957],[102.508556,22.566759],[102.523204,22.561957],[102.526947,22.557563],[102.537039,22.541693],[102.543793,22.534613],[102.55128,22.531073],[102.560557,22.528388],[102.568289,22.524482],[102.577566,22.50727],[102.644949,22.436225],[102.662852,22.423692],[102.701427,22.414374],[102.737234,22.39289],[102.776785,22.360378],[102.800304,22.330919],[102.817556,22.297065],[102.82545,22.260321],[102.824799,22.252631],[102.823334,22.247911],[102.822846,22.24254],[102.82545,22.232978],[102.828543,22.228339],[102.837332,22.219184],[102.84547,22.20543],[102.860362,22.20539],[102.889659,22.21247],[102.908376,22.202948],[102.916515,22.180732],[102.922374,22.155707],[102.934662,22.137397],[102.951915,22.136176],[103.040294,22.147732],[103.066742,22.140001],[103.095795,22.122178],[103.140147,22.085557],[103.177338,22.087958],[103.264415,22.048041],[103.28419,22.054267],[103.280854,22.057481],[103.273448,22.062771],[103.266124,22.069159],[103.263113,22.075995],[103.266531,22.08157],[103.323985,22.149482],[103.338796,22.157904],[103.360932,22.158067],[103.38323,22.14997],[103.400076,22.136298],[103.406993,22.119981],[103.409679,22.095771],[103.416515,22.081407],[103.441173,22.061632],[103.452159,22.048367],[103.458263,22.031317],[103.460948,22.011583],[103.461681,21.990302],[103.465343,21.985541],[103.473888,21.97956],[103.483979,21.974473],[103.492686,21.972276],[103.497488,21.967841],[103.543956,21.893093],[103.550955,21.876736],[103.555186,21.857733],[103.559662,21.813015],[103.564708,21.794786],[103.58074,21.770046],[103.585867,21.760037],[103.584483,21.759548],[103.585378,21.74376],[103.585867,21.743272],[103.587576,21.739936],[103.596121,21.735378],[103.598888,21.733344],[103.625418,21.689521],[103.642589,21.67239],[103.660818,21.671251],[103.67335,21.665595],[103.67628,21.666815],[103.681407,21.671251],[103.704112,21.661404],[103.749522,21.652208],[103.7671,21.640204],[103.805919,21.58161],[103.811697,21.565131],[103.815115,21.558621],[103.824311,21.553534],[103.853038,21.546983],[103.900401,21.54088],[103.912608,21.533718],[103.921153,21.527045],[103.930593,21.522284],[103.958507,21.517524],[103.967703,21.510321],[103.983653,21.493109],[103.995209,21.498562],[104.003429,21.496772],[104.0171,21.485663],[104.034272,21.463446],[104.03769,21.462104],[104.046479,21.451483],[104.089854,21.438544],[104.105968,21.431667],[104.111501,21.425605],[104.132742,21.397284],[104.150645,21.379828],[104.160085,21.364325],[104.161794,21.33747],[104.167491,21.321845],[104.177989,21.313422],[104.209239,21.295722],[104.223888,21.272325],[104.277354,21.252956],[104.283376,21.246161],[104.290945,21.231228],[104.297781,21.225613],[104.364024,21.213731],[104.381358,21.201361],[104.42864,21.143581],[104.441335,21.133857],[104.459402,21.129991],[104.47226,21.124701],[104.511241,21.089057],[104.515717,21.081407],[104.514415,21.076728],[104.514903,21.073065],[104.524913,21.06863],[104.531749,21.068915],[104.540619,21.071845],[104.54835,21.075629],[104.551524,21.078477],[104.553722,21.083075],[104.558116,21.080675],[104.562592,21.073798],[104.567149,21.053494],[104.57366,21.048204],[104.58253,21.048611],[104.592459,21.054267],[104.618337,21.035712],[104.653901,21.03502],[104.687999,21.047553],[104.709239,21.06863],[104.728038,21.061957],[104.766612,21.053331],[104.781261,21.044053],[104.797537,21.037177],[104.847179,21.036566],[104.866954,21.0338],[104.877615,21.02501],[104.891531,21.008612],[104.903331,20.990302],[104.913259,20.96369],[104.996593,20.877021],[105.003998,20.873074],[105.013438,20.860297],[105.086436,20.813096],[105.09075,20.807318],[105.092784,20.794257],[105.088634,20.792751],[105.081065,20.783026],[105.076752,20.772081],[105.082937,20.766913],[105.093272,20.765733],[105.11671,20.759467],[105.129405,20.761298],[105.136811,20.765448],[105.142019,20.770046],[105.147472,20.773139],[105.178803,20.772732],[105.196544,20.774604],[105.212901,20.784003],[105.228608,20.796698],[105.244233,20.803249],[105.304779,20.810899],[105.324799,20.817572],[105.340017,20.828803],[105.346121,20.845486],[105.343028,20.850653],[105.329275,20.860419],[105.326182,20.865912],[105.332449,20.910264],[105.332612,20.956366],[105.3296,20.981309],[105.322765,20.992255],[105.31544,20.999783],[105.290619,21.038153],[105.284679,21.054267],[105.28655,21.075507],[105.302013,21.104315],[105.305675,21.126573],[105.300548,21.141221],[105.289643,21.154893],[105.28183,21.170681],[105.284679,21.191474],[105.302745,21.209499],[105.326427,21.220974],[105.342784,21.238105],[105.339854,21.273383]]]}},{"type":"Feature","properties":{"kind":"rivers","name":"Zuo","source":"Natural Earth 1:10m"},"geometry":{"type":"MultiLineString","coordinates":[[[105.902192,22.933132],[105.981944,22.79328],[106.013927,22.758816],[106.032156,22.748806],[106.110362,22.726426],[106.139252,22.72252],[106.14796,22.720486],[106.15683,22.716986],[106.166921,22.711697],[106.178396,22.703884],[106.180756,22.699978],[106.182872,22.689154],[106.187104,22.684638],[106.192149,22.684149],[106.197358,22.686957],[106.201752,22.690253],[106.205089,22.691352],[106.22991,22.68122],[106.290619,22.647162],[106.307384,22.635077],[106.331554,22.60696],[106.374766,22.584011],[106.399343,22.557156],[106.409109,22.552273],[106.41627,22.554796],[106.427989,22.569281],[106.438243,22.571641],[106.447765,22.568183],[106.507416,22.531562],[106.5595,22.486274],[106.626231,22.452582],[106.725597,22.380683],[106.938975,22.320502],[106.961843,22.32449],[106.98406,22.341864],[106.997813,22.363064],[107.002859,22.36876],[107.015554,22.377794],[107.018972,22.376329],[107.019135,22.370958],[107.021983,22.368476],[107.03655,22.373358],[107.044526,22.380561],[107.052013,22.38996],[107.064138,22.40119],[107.081065,22.409613],[107.102061,22.414374],[107.122813,22.414171],[107.138194,22.407823],[107.144623,22.399766],[107.146902,22.391913],[107.147553,22.384711],[107.149669,22.378526],[107.155691,22.367377],[107.155854,22.365098],[107.158214,22.365831],[107.170095,22.363878],[107.213145,22.351426],[107.231619,22.349718],[107.246511,22.355333],[107.252452,22.364325],[107.253998,22.373155],[107.258718,22.381537],[107.320811,22.412421],[107.321788,22.413926],[107.337006,22.425564],[107.337901,22.42475],[107.35255,22.44363],[107.356049,22.454901],[107.358897,22.459906],[107.375418,22.466173],[107.3803,22.468858],[107.41741,22.514268],[107.434662,22.527126],[107.446544,22.522569],[107.492686,22.495144],[107.512706,22.487982],[107.513601,22.49905],[107.520925,22.510281],[107.531342,22.520046],[107.556407,22.534939],[107.565359,22.542304],[107.571544,22.551134],[107.577647,22.563992],[107.585867,22.595649],[107.591319,22.609565],[107.602143,22.618679],[107.611501,22.624457],[107.613048,22.630072],[107.612234,22.63581],[107.615245,22.642157],[107.621023,22.647488],[107.639903,22.659613],[107.671967,22.667914],[107.703543,22.662177],[107.734874,22.651882],[107.780772,22.64407],[107.803966,22.63463],[107.820811,22.634385],[107.854015,22.643988],[107.869884,22.646308],[107.883067,22.64114],[107.889415,22.659857],[107.900971,22.673774],[107.932709,22.695746],[107.934581,22.698798],[107.937266,22.709093],[107.939138,22.712999],[107.943858,22.715155],[107.953298,22.710801],[107.95753,22.712673],[107.961681,22.720649],[107.963634,22.728583],[107.964854,22.737657],[107.972585,22.752753],[107.975108,22.7567],[107.983897,22.762152],[108.001475,22.762519],[108.010346,22.767646],[108.020274,22.786689],[108.021007,22.804755],[108.024343,22.821316],[108.042572,22.835761],[108.027192,22.840196],[108.042084,22.855577],[108.05714,22.849962],[108.073741,22.838243],[108.093761,22.835273],[108.092296,22.844346]]]}},{"type":"Feature","properties":{"kind":"rivers","name":"Duliu","source":"Natural Earth 1:10m"},"geometry":{"type":"MultiLineString","coordinates":[[[109.459239,25.650743],[109.439871,25.681342],[109.413666,25.702338],[109.401459,25.706895],[109.33253,25.717393],[109.276296,25.717108],[109.195567,25.705756],[109.163259,25.706488],[109.151866,25.718777],[109.156261,25.746934],[109.149913,25.76378],[109.131928,25.772813],[109.055105,25.78498],[109.034109,25.783271],[109.011974,25.771837],[108.973562,25.731513],[108.952078,25.714667],[108.924897,25.709011],[108.898529,25.721137],[108.887299,25.745876],[108.879649,25.773627],[108.864268,25.794989],[108.851736,25.800238],[108.844819,25.79739],[108.838959,25.790798],[108.8296,25.784776],[108.774994,25.769639],[108.746023,25.749864],[108.735606,25.744737],[108.724701,25.742987],[108.710948,25.744452],[108.69101,25.752265],[108.684825,25.763617],[108.682628,25.778022],[108.675548,25.794989],[108.666921,25.802517],[108.655772,25.806749],[108.632091,25.811225],[108.606944,25.831814],[108.598155,25.837348],[108.561046,25.84748],[108.550141,25.855007],[108.542003,25.866645],[108.527924,25.893826],[108.517507,25.902167],[108.500011,25.902615],[108.482595,25.894314],[108.465912,25.883612],[108.449636,25.876736],[108.441824,25.876654],[108.426524,25.880072],[108.419932,25.880316],[108.413178,25.877712],[108.402273,25.868923],[108.396658,25.866767],[108.383718,25.867947],[108.342865,25.879421],[108.313569,25.87698],[108.233165,25.844346],[108.204845,25.840277],[108.175141,25.840766],[108.117279,25.850857],[108.093272,25.86754],[108.083995,25.895697],[108.075613,25.959418],[108.06837,25.974555],[108.060557,25.977891],[108.049815,25.976345],[108.033295,25.976833],[108.025645,25.979315],[108.005382,25.9914],[108.001231,25.993476],[107.996593,25.995063],[107.991628,25.995958],[107.985932,25.996039],[107.932221,25.983669],[107.913829,25.983344],[107.902843,25.985907],[107.895925,25.988471],[107.88795,25.989325],[107.874115,25.986925],[107.814871,25.965399],[107.784597,25.945176],[107.777761,25.924587],[107.780772,25.899237],[107.779552,25.864936],[107.764578,25.82921],[107.735606,25.789984],[107.699229,25.760199],[107.66212,25.753119],[107.647472,25.761054],[107.60906,25.792914],[107.597992,25.806016]]]}},{"type":"Feature","properties":{"kind":"rivers","name":"Liu","source":"Natural Earth 1:10m"},"geometry":{"type":"MultiLineString","coordinates":[[[109.528575,23.796413],[109.523204,23.824001],[109.521983,23.8487],[109.527273,23.872138],[109.542247,23.89289],[109.560476,23.903103],[109.598888,23.907335],[109.649832,23.928819],[109.663178,23.937364],[109.673595,23.952012],[109.678396,23.972195],[109.67921,23.995307],[109.671479,24.059516],[109.671886,24.072943],[109.67685,24.084784],[109.699718,24.120388],[109.717703,24.182685],[109.728282,24.206366],[109.731863,24.218695],[109.730886,24.231757],[109.720225,24.24787],[109.701427,24.263373],[109.680186,24.275214],[109.661632,24.280463],[109.638927,24.276719],[109.573334,24.244167],[109.548757,24.238105],[109.530772,24.239081],[109.492442,24.254991],[109.478282,24.257432],[109.466319,24.257636],[109.459483,24.263739],[109.459972,24.2838],[109.465343,24.300076],[109.490245,24.346259],[109.501394,24.402859],[109.498464,24.411404],[109.492768,24.419989]]]}},{"type":"Feature","properties":{"kind":"rivers","name":"Rong","source":"Natural Earth 1:10m"},"geometry":{"type":"MultiLineString","coordinates":[[[109.492768,24.419989],[109.484955,24.42239],[109.459239,24.393419],[109.424815,24.379706],[109.413259,24.361274],[109.412608,24.339138],[109.415131,24.318956],[109.41212,24.311062],[109.394135,24.325751],[109.367117,24.359076],[109.351654,24.370469],[109.326264,24.377956],[109.306163,24.388983],[109.306407,24.407782],[109.312022,24.430365],[109.306895,24.452582],[109.284597,24.467556],[109.243256,24.468817],[109.231375,24.489854],[109.232188,24.505398],[109.239757,24.51671],[109.260509,24.537421],[109.269216,24.556993],[109.266124,24.570868],[109.244558,24.600369],[109.239675,24.620063],[109.239757,24.640163],[109.237315,24.658555],[109.22462,24.673651],[109.207042,24.67711],[109.18629,24.675727],[109.167491,24.67768],[109.156179,24.691514],[109.157237,24.703315],[109.171967,24.721462],[109.17571,24.731228],[109.169037,24.748969],[109.139252,24.771837],[109.132253,24.792182],[109.135671,24.801093],[109.142182,24.809109],[109.146902,24.818183],[109.144054,24.830349],[109.131114,24.846747],[109.131602,24.852729],[109.138682,24.86697],[109.151134,24.884589],[109.161713,24.885565],[109.174897,24.879665],[109.195242,24.876492],[109.211925,24.88463],[109.221202,24.902452],[109.229991,24.94241],[109.238048,24.959988],[109.244151,24.969102],[109.243175,24.979315],[109.229503,25.000027],[109.257823,25.019802],[109.26588,25.047309],[109.269949,25.077216],[109.287039,25.104315],[109.305756,25.1164],[109.323253,25.124701],[109.339366,25.134955],[109.354015,25.153022],[109.377615,25.205919],[109.394135,25.262519],[109.403738,25.330349],[109.41212,25.349392],[109.426768,25.371894],[109.432628,25.386827],[109.430593,25.427069],[109.435557,25.466824],[109.466075,25.542751],[109.474539,25.582302],[109.471202,25.615994],[109.459239,25.650743]]]}},{"type":"Feature","properties":{"kind":"rivers","name":"Xi","source":"Natural Earth 1:10m"},"geometry":{"type":"MultiLineString","coordinates":[[[111.301362,23.480658],[111.392833,23.477729],[111.424815,23.471625],[111.455089,23.458035],[111.467052,23.449042],[111.477143,23.438585],[111.485362,23.426622],[111.491628,23.413113],[111.504812,23.369086],[111.511648,23.355414],[111.547537,23.310126],[111.554861,23.293158],[111.553152,23.274359],[111.53476,23.239122],[111.532156,23.219835],[111.538097,23.204413],[111.549246,23.192898],[111.563731,23.18537],[111.596202,23.179633],[111.610932,23.175076],[111.658376,23.151231],[111.668224,23.148139],[111.678233,23.146186],[111.689057,23.145819],[111.710948,23.147569],[111.72169,23.147284],[111.727306,23.145941],[111.743093,23.139024],[111.752533,23.137274],[111.771658,23.137152],[111.800955,23.13227],[111.878429,23.140733],[111.882823,23.139512],[111.885346,23.136786],[111.889659,23.128689],[111.892182,23.125271],[111.898855,23.120673],[111.906342,23.118109],[111.91448,23.117499],[111.934825,23.121365],[111.94044,23.121609],[111.946788,23.120429],[111.952403,23.118109],[111.96282,23.11164],[111.968191,23.109565],[111.974132,23.096951],[111.986095,23.089382],[112.00058,23.085395],[112.052013,23.077704],[112.070404,23.077094],[112.089285,23.081977],[112.100597,23.086534],[112.112315,23.089789],[112.124522,23.09101],[112.137218,23.089708],[112.162039,23.080186],[112.168875,23.078925],[112.174815,23.078721],[112.20517,23.08515],[112.210541,23.087836],[112.225515,23.100206],[112.231456,23.103054],[112.25644,23.126776],[112.284272,23.148017],[112.31544,23.159613],[112.350027,23.154242],[112.374522,23.132392],[112.400645,23.073188],[112.425304,23.052069],[112.444835,23.047309],[112.464854,23.048163],[112.483897,23.053982],[112.501069,23.064073],[112.513682,23.076117],[112.543224,23.11872],[112.5678,23.146308],[112.595795,23.165595],[112.628184,23.175971],[112.664561,23.176866],[112.767996,23.168036],[112.78297,23.163845],[112.795909,23.155788],[112.805919,23.142442],[112.858653,22.972602],[112.927257,22.83572],[112.938975,22.823065],[112.953705,22.813096],[112.970144,22.806586],[113.039968,22.795722],[113.056895,22.790839],[113.0713,22.781806],[113.080984,22.767524],[113.084972,22.750515],[113.086192,22.696357],[113.089122,22.678087],[113.095307,22.660997],[113.106456,22.645819],[113.143647,22.616523],[113.154389,22.604763],[113.161794,22.592108],[113.165538,22.575629]],[[112.804698,23.147895],[112.845144,23.159857],[112.883718,23.148464],[112.917898,23.128241],[112.948334,23.10102],[112.971772,23.072537],[112.97991,23.055365],[112.982026,23.040351]],[[112.97991,23.041124],[112.982026,23.040351]],[[112.982026,23.040351],[112.995942,23.035264],[113.01295,23.034451],[113.029063,23.036892],[113.042003,23.041124],[113.075776,23.056464],[113.089854,23.054307],[113.11085,23.041124],[113.124441,23.059272],[113.137625,23.067328],[113.152843,23.067735],[113.172374,23.062852],[113.208588,23.044501],[113.220144,23.041124],[113.313243,23.055365],[113.323171,23.053168],[113.343354,23.043402],[113.35434,23.041124],[113.391205,23.038275],[113.407481,23.044013],[113.419363,23.062852]],[[112.982026,23.040351],[112.982595,23.036322],[112.982921,22.998481],[112.987315,22.980292],[113.002859,22.952948],[113.024099,22.927029],[113.049327,22.905219],[113.076182,22.890245],[113.096283,22.886176],[113.10906,22.890489],[113.121023,22.898383],[113.137625,22.904568],[113.157807,22.905097],[113.175385,22.902615],[113.192963,22.90294],[113.213308,22.911973]],[[113.082774,22.764268],[113.089773,22.761176],[113.138927,22.745795],[113.151866,22.739447],[113.160655,22.73196],[113.175792,22.709337],[113.186534,22.703803],[113.195242,22.707587],[113.207042,22.720242],[113.232188,22.734483],[113.244233,22.734687],[113.261729,22.726426],[113.303803,22.693223],[113.323171,22.684841],[113.342296,22.680609],[113.361095,22.678656],[113.371349,22.676378],[113.373546,22.670925],[113.373953,22.663926],[113.377859,22.657538],[113.425955,22.624091],[113.439871,22.610378],[113.456716,22.582831],[113.467784,22.573269],[113.487071,22.569403],[113.497081,22.571479],[113.509776,22.580878],[113.518077,22.583075],[113.529796,22.58161],[113.538259,22.57921],[113.546153,22.578803],[113.555919,22.583075]]]}}]}