{"type":"FeatureCollection","features":[{"type":"Feature","properties":{"kind":"rivers","name":"Baram","source":"Natural Earth 1:10m"},"geometry":{"type":"MultiLineString","coordinates":[[[115.468272,3.446316],[115.463634,3.437812],[115.441824,3.414089],[115.434093,3.401923],[115.422537,3.366075],[115.414236,3.347724],[115.405284,3.339871],[115.402354,3.338935],[115.374278,3.333604],[115.36614,3.32685],[115.365164,3.322089],[115.366791,3.317979],[115.367442,3.313178],[115.365733,3.2921],[115.373139,3.281765],[115.385916,3.273261],[115.400645,3.257921],[115.392589,3.247504],[115.385183,3.247667],[115.378429,3.25141],[115.372081,3.251736],[115.367768,3.251044],[115.363292,3.25198],[115.359874,3.251776],[115.358409,3.247992],[115.358979,3.237128],[115.357921,3.232489],[115.354584,3.230577],[115.339854,3.225287],[115.306651,3.20185],[115.293549,3.196479],[115.2588,3.196479],[115.249604,3.193427],[115.243582,3.186591],[115.239268,3.179389],[115.235444,3.17536],[115.214122,3.170681],[115.198741,3.169704],[115.1845,3.166449],[115.118744,3.117296],[115.110362,3.112616],[115.073985,3.080634],[115.067393,3.072943],[115.033132,3.057969],[114.961925,3.002509],[114.933197,3.004706],[114.927013,2.996283],[114.919932,2.990424],[114.910818,2.986396],[114.899018,2.983588],[114.856293,2.981635],[114.844493,2.983588],[114.834727,2.995469],[114.833507,3.010688],[114.837576,3.038153],[114.837169,3.051825],[114.83546,3.057685],[114.813487,3.076361],[114.804698,3.09988],[114.809174,3.131415],[114.823334,3.185899],[114.819428,3.200019],[114.816173,3.208441],[114.808849,3.220567],[114.810639,3.227607],[114.814871,3.234402],[114.817149,3.241156],[114.819347,3.26789],[114.813975,3.272895],[114.796641,3.264716],[114.80128,3.275173],[114.803396,3.278998],[114.785492,3.290147],[114.786388,3.304307],[114.793468,3.31863],[114.792979,3.329901],[114.774099,3.342108],[114.755789,3.345242],[114.737804,3.345038],[114.720876,3.347276],[114.712332,3.353135],[114.695811,3.370632],[114.686697,3.374579],[114.677745,3.37169],[114.665457,3.356879],[114.624522,3.341335],[114.610362,3.342719],[114.60434,3.364081],[114.598399,3.373236],[114.563894,3.408067],[114.561127,3.416531],[114.559093,3.435574],[114.556407,3.442898],[114.55128,3.445624],[114.533621,3.450792],[114.529796,3.453152],[114.525645,3.457221],[114.501557,3.458116],[114.488292,3.463324],[114.476492,3.473904],[114.467052,3.486029],[114.454031,3.511786],[114.451427,3.505805],[114.4463,3.497423],[114.439871,3.490994],[114.433604,3.490668],[114.427419,3.497016],[114.428966,3.500678],[114.432709,3.504665],[114.433604,3.511786],[114.42392,3.584988],[114.419363,3.594835],[114.414643,3.602484],[114.412527,3.610785],[114.413585,3.625352],[114.41684,3.63585],[114.435557,3.675076],[114.438975,3.685329],[114.44044,3.696112],[114.436941,3.708523],[114.430675,3.718126],[114.42864,3.728054],[114.437022,3.741075],[114.437266,3.75019],[114.412364,3.767361],[114.405691,3.77558],[114.411388,3.785834],[114.438487,3.801825],[114.447276,3.813422],[114.447765,3.833116],[114.463634,3.871405],[114.467703,3.891669],[114.464447,3.912909],[114.44044,3.977322],[114.439952,3.988715],[114.441742,3.994818],[114.441173,4.000922],[114.433604,4.01203],[114.422537,4.020616],[114.39796,4.029364],[114.370535,4.050482],[114.323985,4.074978],[114.303233,4.094021],[114.291108,4.112901],[114.282644,4.135688],[114.285167,4.154853],[114.327403,4.168809],[114.325206,4.182685],[114.303233,4.21072],[114.302989,4.216254],[114.309988,4.225165],[114.310069,4.231147],[114.299571,4.240546],[114.282319,4.265082],[114.277761,4.274237],[114.27589,4.289171],[114.279226,4.29503],[114.293224,4.307237],[114.296397,4.31684],[114.289561,4.361518],[114.27589,4.381944],[114.27589,4.409939],[114.268158,4.437934],[114.262299,4.44892],[114.25172,4.460517],[114.248546,4.467068],[114.247569,4.474921],[114.245209,4.481635],[114.238048,4.484402],[114.222667,4.484809],[114.216401,4.48782],[114.208751,4.508328],[114.197032,4.515977],[114.172293,4.525336],[114.139659,4.550808],[114.118663,4.561794],[114.063894,4.570176],[113.99879,4.601101]]]}},{"type":"Feature","properties":{"kind":"rivers","name":"Ba","source":"Natural Earth 1:10m"},"geometry":{"type":"MultiLineString","coordinates":[[[108.386241,14.4831],[108.37558,14.47488],[108.384288,14.456651],[108.409923,14.427802],[108.442149,14.407253],[108.453624,14.392849],[108.460867,14.348578],[108.467459,14.331651],[108.50644,14.276475],[108.515391,14.25963],[108.519054,14.239447],[108.524913,14.224433],[108.567393,14.181423],[108.61142,14.112494],[108.622162,14.106635],[108.633474,14.092882],[108.649425,14.064724],[108.664968,14.018988],[108.665294,13.983588],[108.649099,13.956122],[108.615245,13.934394],[108.581065,13.920722],[108.574799,13.914374],[108.571381,13.907742],[108.565033,13.902411],[108.550141,13.900214],[108.535574,13.900214],[108.517507,13.897813],[108.501231,13.889838],[108.49171,13.872911],[108.493744,13.856065],[108.514089,13.827175],[108.519054,13.807725],[108.521251,13.801947],[108.530935,13.792833],[108.533295,13.786933],[108.532156,13.784003],[108.529714,13.782335],[108.527192,13.779608],[108.52589,13.773627],[108.529063,13.770128],[108.566173,13.717841],[108.571544,13.701931],[108.57366,13.677069],[108.564708,13.670478],[108.512218,13.640204],[108.504324,13.627875],[108.487804,13.589952],[108.481537,13.559678],[108.467052,13.515815],[108.463796,13.496161],[108.462006,13.389472],[108.469656,13.377143],[108.49171,13.372016],[108.490245,13.378852],[108.490733,13.384467],[108.491628,13.389187],[108.49171,13.393134],[108.510916,13.374335],[108.534434,13.356716],[108.559825,13.343614],[108.597585,13.334744],[108.599864,13.324978],[108.59905,13.311713],[108.601573,13.297553],[108.605561,13.295274],[108.61142,13.296169],[108.617442,13.295762],[108.622081,13.290107],[108.62322,13.283026],[108.622081,13.25906],[108.625906,13.248481],[108.634776,13.238634],[108.644949,13.231472],[108.652843,13.228624],[108.661713,13.223497],[108.664236,13.212104],[108.663097,13.194525],[108.665538,13.189968],[108.6692,13.185329],[108.679454,13.175889],[108.695567,13.165717],[108.714122,13.15766],[108.733409,13.153184],[108.751882,13.153591],[108.745046,13.142035],[108.740001,13.137559],[108.731944,13.133083],[108.743175,13.133816],[108.753917,13.132636],[108.763927,13.129828],[108.77296,13.125596],[108.766368,13.11046],[108.772472,13.102322],[108.78655,13.098944],[108.80364,13.098334],[108.811615,13.093085],[108.834972,13.057318],[108.86435,13.027696],[108.872813,13.02322],[108.906342,13.019965],[108.923595,13.024359],[108.931163,13.04031],[108.926199,13.063096],[108.929454,13.06745],[108.944835,13.064154],[108.952403,13.057156],[108.959727,13.045356],[108.968761,13.034288],[108.982432,13.029405],[108.999522,13.031033],[109.020274,13.036933],[109.03297,13.036892],[109.048757,13.034247],[109.060802,13.033555],[109.073009,13.038153],[109.088308,13.051134],[109.096446,13.044623],[109.115733,13.034451],[109.122325,13.029405],[109.127615,13.020453],[109.130463,13.01199],[109.134288,13.00377],[109.142833,12.995917],[109.161794,12.989203],[109.175385,12.994818],[109.188731,13.004462],[109.240001,13.017442],[109.328298,13.084662]]]}}]}