{"type":"FeatureCollection","features":[{"type":"Feature","properties":{"kind":"lakes","name":"太湖","source":"Natural Earth 1:10m"},"geometry":{"type":"Polygon","coordinates":[[[120.562867,31.173275],[120.576996,31.172686],[120.601428,31.086437],[120.589654,31.077018],[120.542556,31.056412],[120.520773,31.039634],[120.389192,30.959861],[120.304121,30.93013],[120.213162,30.920416],[120.128385,30.943082],[120.050968,30.994596],[120.025358,31.022266],[119.96207,31.067598],[119.942642,31.086437],[119.93852,31.098506],[119.936754,31.112636],[119.935871,31.138246],[119.93175,31.15002],[119.912911,31.172097],[119.90879,31.186521],[119.905257,31.211542],[119.89937,31.230381],[119.898193,31.248043],[119.90879,31.271298],[119.917032,31.290726],[119.963836,31.354014],[119.984441,31.396992],[119.998571,31.415831],[120.018587,31.429077],[120.009168,31.447622],[120.014466,31.460869],[120.027713,31.468816],[120.042431,31.471466],[120.071573,31.468228],[120.09159,31.468816],[120.100421,31.474409],[120.105425,31.490599],[120.117494,31.496781],[120.133389,31.499725],[120.148991,31.504729],[120.160471,31.515915],[120.169891,31.52975],[120.182548,31.54123],[120.203448,31.54594],[120.200505,31.538875],[120.196089,31.531516],[120.21169,31.535637],[120.229058,31.538286],[120.240538,31.53446],[120.237594,31.518564],[120.278511,31.518564],[120.278511,31.512382],[120.268503,31.506201],[120.263793,31.496487],[120.26291,31.484712],[120.264382,31.471466],[120.257611,31.471466],[120.251724,31.487361],[120.243776,31.502374],[120.23259,31.51356],[120.216695,31.518564],[120.225231,31.499725],[120.224054,31.485595],[120.219344,31.473232],[120.207864,31.428489],[120.208747,31.412887],[120.224054,31.40229],[120.251135,31.406411],[120.285281,31.42319],[120.317367,31.44409],[120.336795,31.460574],[120.34857,31.461457],[120.36947,31.457336],[120.390075,31.450566],[120.402144,31.443501],[120.404499,31.430843],[120.391547,31.402879],[120.38772,31.384628],[120.380067,31.369027],[120.362405,31.364317],[120.342094,31.364023],[120.326492,31.361374],[120.31619,31.350776],[120.295584,31.315453],[120.292346,31.306327],[120.331497,31.330465],[120.34386,31.333409],[120.357401,31.329582],[120.361227,31.321634],[120.35534,31.314275],[120.340033,31.313098],[120.345037,31.299557],[120.336206,31.29102],[120.32973,31.281601],[120.340033,31.265411],[120.351808,31.259229],[120.364465,31.257463],[120.376829,31.254519],[120.38772,31.244217],[120.353868,31.223611],[120.380361,31.217429],[120.446887,31.223317],[120.470436,31.216841],[120.474558,31.192703],[120.427754,31.143838],[120.425693,31.124705],[120.434818,31.109103],[120.421278,31.107337],[120.403027,31.111458],[120.398612,31.114402],[120.384482,31.109987],[120.370058,31.090853],[120.357695,31.086437],[120.351808,31.081728],[120.330908,31.057884],[120.326492,31.049053],[120.331791,31.038456],[120.344154,31.027565],[120.367409,31.011375],[120.37624,31.016379],[120.385071,31.016084],[120.393607,31.011963],[120.402144,31.004604],[120.414802,31.029625],[120.444238,31.069659],[120.449831,31.097035],[120.462489,31.111458],[120.491336,31.116168],[120.523716,31.113519],[120.546088,31.107043],[120.546971,31.127648],[120.552564,31.153847],[120.562867,31.173275]]]}},{"type":"Feature","properties":{"kind":"lakes","name":"石臼湖","source":"Natural Earth 1:10m"},"geometry":{"type":"Polygon","coordinates":[[[118.82288,31.401996],[118.771661,31.471466],[118.764302,31.484418],[118.791383,31.429077],[118.794916,31.400818],[118.784024,31.389338],[118.773427,31.39287],[118.777843,31.408766],[118.758415,31.423779],[118.751056,31.434376],[118.750467,31.443501],[118.74664,31.456159],[118.738104,31.472938],[118.732216,31.488539],[118.736043,31.497958],[118.736043,31.504729],[118.757237,31.504729],[118.74193,31.517681],[118.724268,31.527689],[118.706018,31.534754],[118.688356,31.538875],[118.722502,31.559481],[118.733688,31.556243],[118.750172,31.542113],[118.785791,31.532693],[118.794621,31.531516],[118.801981,31.532105],[118.806396,31.534165],[118.815816,31.542407],[118.82288,31.54594],[118.829062,31.544174],[118.834361,31.540347],[118.839954,31.538875],[118.903242,31.547706],[118.939154,31.565662],[118.951812,31.552416],[118.963292,31.512382],[118.96653,31.506789],[118.971534,31.501196],[118.975361,31.494132],[118.976538,31.484418],[118.973006,31.473526],[118.965941,31.459691],[118.956522,31.448211],[118.945925,31.443501],[118.912956,31.442912],[118.907952,31.439969],[118.906185,31.436436],[118.894411,31.40229],[118.857615,31.381685],[118.82288,31.401996]]]}},{"type":"Feature","properties":{"kind":"lakes","name":"巢湖","source":"Natural Earth 1:10m"},"geometry":{"type":"Polygon","coordinates":[[[117.936256,31.548295],[117.95274,31.526806],[117.955389,31.497958],[117.932429,31.515032],[117.925659,31.524157],[117.928602,31.531516],[117.928602,31.538875],[117.911529,31.548589],[117.875322,31.563602],[117.84618,31.583324],[117.834994,31.588034],[117.820865,31.588917],[117.798493,31.586856],[117.778476,31.591272],[117.768174,31.591272],[117.749923,31.559481],[117.734322,31.545057],[117.70047,31.522391],[117.685163,31.508556],[117.661025,31.475881],[117.647484,31.46234],[117.625113,31.455276],[117.617459,31.446445],[117.612749,31.443501],[117.606273,31.442324],[117.595971,31.443501],[117.562413,31.443501],[117.557998,31.439969],[117.547989,31.438497],[117.500008,31.452921],[117.471455,31.469994],[117.455559,31.476176],[117.442018,31.484123],[117.43407,31.497958],[117.416409,31.517387],[117.383734,31.542996],[117.376375,31.54594],[117.359596,31.548295],[117.338402,31.554771],[117.317797,31.563602],[117.304256,31.573021],[117.288066,31.611583],[117.288949,31.661036],[117.306316,31.704308],[117.338991,31.72403],[117.360479,31.720498],[117.396097,31.70107],[117.438192,31.690178],[117.439369,31.673988],[117.432304,31.653971],[117.427594,31.635132],[117.434954,31.611583],[117.452027,31.596865],[117.474693,31.588917],[117.545929,31.580086],[117.563296,31.583324],[117.585374,31.600397],[117.622758,31.642786],[117.645424,31.657504],[117.678098,31.663097],[117.706652,31.659859],[117.84618,31.607756],[117.857072,31.598631],[117.880621,31.571844],[117.890335,31.566251],[117.913295,31.561541],[117.936256,31.548295]]]}},{"type":"Feature","properties":{"kind":"lakes","name":null,"source":"Natural Earth 1:10m"},"geometry":{"type":"Polygon","coordinates":[[[118.826118,29.627274],[118.839954,29.630218],[118.834361,29.628452],[118.826118,29.627274]]]}},{"type":"Feature","properties":{"kind":"lakes","name":null,"source":"Natural Earth 1:10m"},"geometry":{"type":"Polygon","coordinates":[[[119.579396,31.662802],[119.600002,31.648967],[119.600885,31.621297],[119.583223,31.603635],[119.562617,31.587151],[119.552315,31.563013],[119.545839,31.559481],[119.532004,31.559186],[119.517874,31.555654],[119.511398,31.542407],[119.510221,31.526806],[119.506394,31.514737],[119.500212,31.512088],[119.491087,31.525334],[119.481373,31.547412],[119.496974,31.631894],[119.511692,31.651911],[119.544367,31.663097],[119.579396,31.662802]]]}},{"type":"Feature","properties":{"kind":"lakes","name":"滆湖","source":"Natural Earth 1:10m"},"geometry":{"type":"Polygon","coordinates":[[[119.858159,31.678404],[119.86022,31.648967],[119.861397,31.617765],[119.85757,31.597748],[119.848445,31.580675],[119.832844,31.559481],[119.84609,31.550944],[119.844913,31.542407],[119.826073,31.525334],[119.819597,31.521213],[119.804585,31.515915],[119.798992,31.512382],[119.796637,31.507672],[119.794282,31.495309],[119.791927,31.491188],[119.780741,31.482652],[119.766612,31.474704],[119.751305,31.469994],[119.736587,31.471466],[119.72599,31.477942],[119.723635,31.486184],[119.730405,31.512382],[119.732171,31.540936],[119.74218,31.563307],[119.770733,31.607756],[119.798697,31.686646],[119.812533,31.704013],[119.839908,31.715199],[119.853155,31.703425],[119.858159,31.678404]]]}},{"type":"Feature","properties":{"kind":"lakes","name":null,"source":"Natural Earth 1:10m"},"geometry":{"type":"Polygon","coordinates":[[[118.987724,31.167682],[119.014806,31.138246],[119.020987,31.120584],[119.011862,31.103805],[118.995672,31.088792],[118.962115,31.065243],[118.944453,31.060828],[118.928557,31.064949],[118.915605,31.079667],[118.889995,31.087909],[118.853494,31.101744],[118.834361,31.119995],[118.853494,31.141778],[118.879693,31.142367],[118.894705,31.144427],[118.901181,31.151786],[118.904419,31.157379],[118.910895,31.153847],[118.91796,31.146782],[118.921787,31.141778],[118.923259,31.134713],[118.921787,31.107043],[118.933856,31.117934],[118.942098,31.154436],[118.955933,31.169742],[118.9733,31.173864],[118.987724,31.167682]]]}},{"type":"Feature","properties":{"kind":"lakes","name":null,"source":"Natural Earth 1:10m"},"geometry":{"type":"Polygon","coordinates":[[[120.848106,31.413182],[120.860763,31.429077],[120.865473,31.40229],[120.862824,31.392282],[120.850755,31.388161],[120.843396,31.387278],[120.826617,31.38139],[120.820141,31.380802],[120.807483,31.381979],[120.757441,31.375797],[120.750965,31.378152],[120.754792,31.389927],[120.764506,31.39552],[120.775986,31.399641],[120.785112,31.408766],[120.764506,31.406117],[120.747727,31.396992],[120.717408,31.375209],[120.680318,31.361962],[120.641462,31.354014],[120.641462,31.361374],[120.650587,31.362257],[120.657063,31.364612],[120.662362,31.367555],[120.682084,31.379035],[120.690326,31.38139],[120.684439,31.392282],[120.685322,31.401701],[120.69121,31.410238],[120.700335,31.419069],[120.706222,31.427605],[120.712109,31.447917],[120.717408,31.457042],[120.737425,31.470877],[120.748905,31.464107],[120.749199,31.445267],[120.737425,31.422307],[120.724178,31.406117],[120.716525,31.394342],[120.719174,31.393165],[120.775692,31.443795],[120.783345,31.463224],[120.765389,31.477353],[120.777458,31.48324],[120.79041,31.48324],[120.813076,31.477353],[120.8066,31.467345],[120.802774,31.457336],[120.802185,31.447328],[120.805423,31.436436],[120.816903,31.459397],[120.823379,31.468522],[120.833387,31.477353],[120.829561,31.459102],[120.836331,31.426722],[120.833387,31.40229],[120.84163,31.407294],[120.848106,31.413182]]]}},{"type":"Feature","properties":{"kind":"lakes","name":"新安江水库","source":"Natural Earth 1:10m"},"geometry":{"type":"Polygon","coordinates":[[[119.188775,29.541026],[119.184065,29.536022],[119.18171,29.528074],[119.183182,29.519832],[119.186714,29.511589],[119.195545,29.49746],[119.169347,29.49952],[119.158455,29.50217],[119.153157,29.498343],[119.147858,29.490101],[119.139911,29.490689],[119.123426,29.496282],[119.11018,29.49746],[119.09399,29.484802],[119.083981,29.482153],[119.079566,29.493927],[119.073384,29.503347],[119.060138,29.504525],[119.046008,29.501287],[119.038355,29.49746],[119.027169,29.507468],[119.022459,29.516888],[119.017455,29.52513],[119.004503,29.531606],[118.989196,29.531312],[118.968296,29.514827],[118.942687,29.508057],[118.935916,29.501875],[118.930029,29.495105],[118.921787,29.490101],[118.912956,29.488335],[118.907069,29.488335],[118.900593,29.489512],[118.837304,29.49275],[118.826118,29.490101],[118.825235,29.476854],[118.830828,29.461547],[118.830828,29.450067],[118.811989,29.449184],[118.808457,29.453894],[118.803158,29.463314],[118.796093,29.472733],[118.788145,29.477149],[118.780492,29.475677],[118.761358,29.468907],[118.757237,29.466257],[118.743402,29.443886],[118.712788,29.417982],[118.682174,29.403558],[118.668045,29.415038],[118.668045,29.408268],[118.661863,29.417687],[118.651855,29.421808],[118.639492,29.422397],[118.626245,29.42122],[118.626245,29.428579],[118.646851,29.4327],[118.684235,29.42122],[118.701897,29.428579],[118.709845,29.446829],[118.699836,29.461547],[118.680408,29.471556],[118.661569,29.477149],[118.661569,29.483919],[118.67511,29.482742],[118.687179,29.480387],[118.698364,29.475971],[118.70955,29.469495],[118.71426,29.472145],[118.729861,29.483919],[118.726329,29.494516],[118.731628,29.500992],[118.757237,29.510706],[118.785202,29.528662],[118.788145,29.531606],[118.814638,29.537788],[118.861736,29.565752],[118.925025,29.582531],[118.927085,29.590773],[118.92738,29.60608],[118.925908,29.622859],[118.921787,29.634045],[118.904419,29.644348],[118.884402,29.644053],[118.840542,29.630218],[118.845252,29.641993],[118.833772,29.656711],[118.813755,29.669663],[118.771661,29.681437],[118.751056,29.697039],[118.716321,29.730302],[118.729273,29.727653],[118.746346,29.717939],[118.757237,29.715878],[118.763713,29.71941],[118.769012,29.725592],[118.77696,29.730891],[118.791383,29.730302],[118.779314,29.710285],[118.806102,29.687913],[118.847901,29.669369],[118.88087,29.661421],[118.891467,29.662304],[118.908835,29.667602],[118.918843,29.66878],[118.929735,29.66407],[118.933561,29.652884],[118.935033,29.640226],[118.93886,29.630807],[118.960643,29.621976],[118.98272,29.631396],[119.018044,29.661421],[119.000088,29.67084],[119.001854,29.680554],[119.011862,29.686736],[119.018044,29.685264],[119.023931,29.679083],[119.037766,29.674373],[119.053662,29.672607],[119.065142,29.674961],[119.05896,29.688502],[119.043653,29.71264],[119.038355,29.723532],[119.06367,29.704987],[119.074856,29.699394],[119.085748,29.702337],[119.093107,29.715878],[119.089574,29.731479],[119.071912,29.764448],[119.078683,29.779461],[119.089574,29.795062],[119.103409,29.807425],[119.11695,29.812135],[119.135789,29.810075],[119.130197,29.803304],[119.113418,29.792707],[119.099288,29.778578],[119.095756,29.746198],[119.123721,29.737367],[119.160222,29.737367],[119.18171,29.730302],[119.16817,29.72677],[119.123426,29.707047],[119.113418,29.698805],[119.065142,29.640815],[119.055428,29.635811],[119.046008,29.634339],[119.039532,29.630807],[119.038355,29.620504],[119.045125,29.609613],[119.067203,29.601959],[119.071912,29.589007],[119.078683,29.580765],[119.115478,29.60137],[119.134023,29.60608],[119.108119,29.556627],[119.108708,29.53926],[119.140794,29.538376],[119.171702,29.554272],[119.188186,29.558688],[119.195545,29.548385],[119.193485,29.544558],[119.188775,29.541026]]]}},{"type":"Feature","properties":{"kind":"rivers","name":"Yangtze","source":"Natural Earth 1:10m"},"geometry":{"type":"MultiLineString","coordinates":[[[119.606375,32.196885],[119.58782,32.19245],[119.572358,32.191759],[119.557384,32.200141],[119.54005,32.222113],[119.530365,32.231716],[119.517345,32.238064],[119.504812,32.239529],[119.452566,32.233466],[119.385753,32.237413],[119.365326,32.234402],[119.346202,32.226752],[119.324474,32.214626],[119.303722,32.206163],[119.278331,32.20128],[119.252208,32.200019],[119.229421,32.202663],[119.129242,32.228542],[119.078705,32.232733],[119.027843,32.2213],[118.96339,32.187771],[118.927745,32.176825],[118.909679,32.173896],[118.883474,32.173204],[118.820404,32.188992],[118.793224,32.192816],[118.78655,32.192694],[118.780284,32.191107],[118.774343,32.187079],[118.769054,32.18122],[118.764659,32.174506],[118.761485,32.168036],[118.759532,32.162909],[118.758474,32.160997],[118.747488,32.147244],[118.73406,32.124864],[118.706391,32.09337],[118.689464,32.062445],[118.668956,32.039496],[118.658376,32.030585],[118.645925,32.016181],[118.614838,31.990017],[118.586355,31.949571],[118.553315,31.916287],[118.540538,31.892442],[118.53476,31.884467],[118.504812,31.859198],[118.498627,31.851264],[118.448009,31.756415],[118.426199,31.724473],[118.41505,31.699774],[118.403819,31.623236],[118.379649,31.556179],[118.347992,31.507595],[118.31601,31.4713],[118.309825,31.460069],[118.305186,31.448798],[118.302175,31.438341],[118.301768,31.427802],[118.304861,31.416449],[118.31544,31.400824],[118.318614,31.394965],[118.322358,31.383165],[118.324474,31.371039],[118.32545,31.356391],[118.324474,31.338324],[118.3213,31.320828],[118.315115,31.308051],[118.306163,31.300401],[118.296641,31.29739],[118.220144,31.291124],[118.210053,31.287787],[118.173839,31.265896],[118.155935,31.259141],[118.112722,31.252509],[118.060557,31.233222],[118.040457,31.233344],[118.027843,31.243679],[118.014171,31.237616],[118.002371,31.223253],[117.995942,31.208604],[117.993582,31.19127],[117.992931,31.138983],[117.988699,31.122829],[117.980398,31.109971],[117.968272,31.100287],[117.952729,31.093573],[117.937266,31.088935],[117.921886,31.086005],[117.907156,31.087673],[117.894542,31.096788],[117.879242,31.12226],[117.870372,31.133328],[117.856863,31.140937],[117.839366,31.143663],[117.822765,31.141181],[117.807546,31.134385],[117.793386,31.124457],[117.781505,31.113959],[117.77239,31.103868],[117.766531,31.092108],[117.763276,31.076483],[117.763682,31.058702],[117.768891,31.023749],[117.768077,31.006659],[117.747162,30.943468],[117.732026,30.874457],[117.697276,30.803738],[117.687429,30.796658],[117.642589,30.789496],[117.608653,30.780137],[117.593354,30.773708],[117.552338,30.747829],[117.53712,30.740831],[117.466075,30.726264],[117.457937,30.722235],[117.436534,30.706366],[117.42921,30.70246],[117.421641,30.700507],[117.345876,30.698757],[117.326671,30.69477],[117.276947,30.673367],[117.260753,30.669623],[117.252371,30.670681],[117.234304,30.674913],[117.226003,30.673367],[117.2199,30.6671],[117.217703,30.658474],[117.217784,30.648953],[117.218842,30.640245],[117.220714,30.634304],[117.225678,30.623074],[117.22755,30.617377],[117.228038,30.611762],[117.224132,30.597235],[117.22405,30.586208],[117.232839,30.555121],[117.231293,30.543484],[117.225678,30.532497],[117.217865,30.522528],[117.209565,30.514024],[117.183116,30.499376],[117.150645,30.494249],[117.033295,30.490587],[117.007498,30.48371],[116.984386,30.471747],[116.94866,30.443427],[116.936127,30.435858],[116.925222,30.432929],[116.913259,30.431952],[116.901866,30.429755],[116.89267,30.423285],[116.888276,30.402615],[116.899099,30.380683],[116.913992,30.358588],[116.921397,30.33747],[116.920014,30.32453],[116.90683,30.270697],[116.896902,30.244208],[116.822276,30.115424],[116.808523,30.102078],[116.790538,30.090888],[116.716075,30.05976],[116.690522,30.0539],[116.662608,30.052761],[116.650076,30.050605],[116.636485,30.043321],[116.605072,30.017686],[116.593761,30.010565],[116.591726,30.005683],[116.587901,30.00198],[116.579112,29.995225],[116.575206,29.99079],[116.567149,29.976752],[116.548839,29.954128],[116.536632,29.923204],[116.526947,29.906684],[116.51295,29.89411],[116.492198,29.88463],[116.466563,29.880316],[116.414236,29.880561],[116.389171,29.876003],[116.356537,29.858262],[116.297537,29.808702],[116.265229,29.788886],[116.235932,29.781277],[116.206554,29.781317],[116.146983,29.788682],[116.110281,29.786444],[116.077647,29.776394],[116.012787,29.748155],[115.99879,29.744005],[115.888682,29.731757],[115.855724,29.738471],[115.743337,29.808783],[115.73642,29.816352],[115.72519,29.842637],[115.718191,29.854071],[115.704845,29.860704],[115.621104,29.862372],[115.534923,29.85456],[115.50644,29.857611],[115.46339,29.871283],[115.450043,29.87755],[115.437511,29.885362],[115.426687,29.895331],[115.417247,29.909369],[115.396088,29.956081],[115.386729,29.969672],[115.375906,29.980496],[115.338471,30.008002],[115.330496,30.018175],[115.301524,30.06741],[115.283376,30.10932],[115.275401,30.120958],[115.189952,30.208767],[115.164561,30.221055],[115.145518,30.222357],[115.106944,30.21955],[115.087983,30.224148],[115.072032,30.236029],[115.063569,30.25198],[115.061453,30.270453],[115.064138,30.289862],[115.072846,30.324246],[115.072765,30.341132],[115.064952,30.357367],[115.052989,30.369005],[114.987397,30.407416],[114.966075,30.41352],[114.94394,30.416042],[114.8803,30.414984],[114.860769,30.418891],[114.842703,30.428046],[114.829275,30.441107],[114.820567,30.457139],[114.810802,30.493191],[114.808035,30.511054],[114.808523,30.526313],[114.814057,30.539903],[114.826589,30.552802],[114.839936,30.563788],[114.851573,30.576931],[114.855398,30.591132],[114.844737,30.605658],[114.826671,30.613796],[114.806082,30.616278],[114.731456,30.609442],[114.714854,30.605414],[114.688487,30.590766],[114.67685,30.58629],[114.613048,30.573594],[114.600841,30.574286],[114.58017,30.581651],[114.56601,30.593329],[114.502371,30.673163],[114.484386,30.684353],[114.45753,30.690741],[114.429128,30.690294],[114.401378,30.683905],[114.375987,30.672675],[114.354015,30.656521],[114.311127,30.609646],[114.296397,30.586859]],[[116.19752,29.75141],[116.20753,29.779486]],[[113.127615,29.462755],[113.145437,29.471991],[113.16212,29.493109],[113.186046,29.531684],[113.415538,29.764472],[113.445974,29.780056],[113.497325,29.819403],[113.519216,29.84162],[113.590017,29.87991],[113.607026,29.890204],[113.629975,29.9088],[113.65032,29.929389],[113.664236,29.954617],[113.675955,29.961127],[113.687755,29.963446],[113.693126,29.959581],[113.703624,29.934149],[113.706716,29.9289],[113.748627,29.919989],[113.79241,29.933417],[113.831065,29.958279],[113.889659,30.013007],[113.92335,30.033555],[114.043956,30.07921],[114.062266,30.088935],[114.069835,30.103339],[114.064382,30.124376],[114.050873,30.136339],[114.015147,30.154853],[113.983409,30.185167],[113.964285,30.197943],[113.940115,30.203233],[113.918061,30.198065],[113.895274,30.188747],[113.874441,30.184841],[113.858165,30.195828],[113.857595,30.231065],[113.885509,30.265204],[113.927175,30.28852],[113.968028,30.291368],[113.983409,30.282579],[113.996755,30.268622],[114.018565,30.240505],[114.039073,30.2296],[114.053966,30.24018],[114.086029,30.31741],[114.106619,30.352322],[114.24171,30.497423],[114.287364,30.575995],[114.303233,30.593044]]]}},{"type":"Feature","properties":{"kind":"rivers","name":"Fuchun","source":"Natural Earth 1:10m"},"geometry":{"type":"MultiLineString","coordinates":[[[119.195567,29.50373],[119.176768,29.511176],[119.152192,29.515692],[119.103526,29.526679],[119.077403,29.538113],[118.97462,29.588568],[118.940033,29.617499],[118.917979,29.643988],[118.897065,29.655585],[118.875662,29.656806],[118.855561,29.660509],[118.831472,29.671942],[118.805919,29.682074],[118.783946,29.693671],[118.759532,29.705186],[118.737315,29.720974],[118.717784,29.726345]]]}},{"type":"Feature","properties":{"kind":"rivers","name":"Fuchun","source":"Natural Earth 1:10m"},"geometry":{"type":"MultiLineString","coordinates":[[[117.785167,29.707302],[117.793956,29.715155],[117.813975,29.743109],[117.831065,29.756659],[117.847667,29.75495],[117.896251,29.718085],[117.976654,29.675482],[117.98642,29.673122],[117.999929,29.67414],[118.007742,29.677314],[118.030203,29.694403],[118.035818,29.697618],[118.04184,29.699408],[118.047944,29.699164],[118.054698,29.696479],[118.065522,29.681993],[118.072765,29.661933],[118.081391,29.645616],[118.095876,29.642198],[118.121349,29.644721],[118.159597,29.633979],[118.183849,29.638983],[118.274832,29.682969],[118.302013,29.700629],[118.350515,29.745185],[118.376964,29.76142],[118.404877,29.763699],[118.425955,29.749945],[118.462169,29.709093],[118.469493,29.704901],[118.498139,29.692939],[118.530284,29.683865],[118.558116,29.68769],[118.615652,29.711697],[118.666026,29.725531],[118.691987,29.728217],[118.717784,29.726345]],[[119.195567,29.50373],[119.238699,29.480007],[119.274018,29.48961],[119.308116,29.509874],[119.346934,29.518012],[119.347585,29.515937],[119.35019,29.511257],[119.354747,29.506374],[119.360606,29.50373],[119.36614,29.504218],[119.416026,29.526557],[119.42213,29.52794],[119.433523,29.532009],[119.504487,29.538438],[119.534923,29.555935],[119.56894,29.584499],[119.599701,29.617214],[119.620616,29.647081],[119.655528,29.770046],[119.675304,29.805365],[119.751069,29.869981],[119.768484,29.872504],[119.786388,29.872911],[119.805675,29.87991],[119.823009,29.895535],[119.86378,29.95246],[119.872081,29.959093],[119.890554,29.967637],[119.898448,29.973253],[119.908132,29.984198],[119.92921,30.017646],[119.945323,30.037543],[119.95989,30.045111],[120.025808,30.046902],[120.045421,30.051866],[120.122813,30.082831],[120.140391,30.093451],[120.158783,30.11046],[120.160167,30.124945],[120.128835,30.153266],[120.121023,30.168524],[120.122976,30.180243],[120.128022,30.189276],[120.136648,30.194688],[120.148936,30.195828]]]}},{"type":"Feature","properties":{"kind":"rivers","name":"Min","source":"Natural Earth 1:10m"},"geometry":{"type":"MultiLineString","coordinates":[[[117.489187,27.866319],[117.455089,27.791287],[117.44752,27.724433],[117.441417,27.708075],[117.430919,27.699246],[117.423839,27.700141],[117.417003,27.703315],[117.407319,27.701239],[117.39796,27.693956],[117.343435,27.618516],[117.338959,27.60224],[117.33546,27.558051],[117.337901,27.538642],[117.349213,27.530585],[117.357921,27.52265],[117.370372,27.504014],[117.381358,27.482286],[117.393647,27.444037],[117.426524,27.412055],[117.434011,27.396796],[117.437266,27.380561],[117.445811,27.361599],[117.458995,27.348944],[117.475597,27.351833],[117.565359,27.2803],[117.578624,27.263007],[117.586192,27.249945],[117.587006,27.243028],[117.578624,27.222113],[117.576671,27.206],[117.576752,27.182888],[117.580333,27.162177],[117.588878,27.153144],[117.61085,27.142646],[117.627533,27.117947],[117.6421,27.089382],[117.657481,27.067206],[117.675548,27.055609],[117.678152,27.049872],[117.671153,27.040554],[117.667735,27.032538],[117.668875,27.022325],[117.672862,27.013536],[117.691742,27.001573],[117.729503,26.947781],[117.720714,26.934638],[117.729096,26.926581],[117.742768,26.919704],[117.750011,26.910224],[117.750011,26.875759],[117.753429,26.867703],[117.768158,26.853095],[117.771576,26.848456],[117.780854,26.815212],[117.804291,26.791042],[117.835134,26.777533],[117.867198,26.776435],[117.884776,26.788031],[117.894216,26.790066],[117.905528,26.78795],[117.923106,26.778591],[117.946788,26.773383],[117.965912,26.765815],[117.982432,26.755927],[117.989513,26.746039],[117.991954,26.729844],[118.00172,26.707628],[118.003184,26.694525],[117.996674,26.675808],[117.971283,26.648708],[117.962169,26.633083],[117.969168,26.629096],[117.988373,26.623114],[117.996349,26.61876],[118.013438,26.595771],[118.013682,26.591417],[118.071544,26.586859],[118.092459,26.591417],[118.108328,26.600124],[118.143484,26.628241],[118.157725,26.642646],[118.16627,26.638007],[118.236501,26.625596],[118.245372,26.619493],[118.257498,26.60456],[118.264415,26.598253],[118.294688,26.585517],[118.310069,26.575954],[118.329112,26.569607],[118.332774,26.565009],[118.336925,26.558417],[118.358328,26.552558],[118.366791,26.547634],[118.370616,26.539862],[118.37672,26.516669],[118.380463,26.50727],[118.398367,26.487657],[118.401134,26.482733],[118.403738,26.479356],[118.408295,26.468858],[118.410248,26.457831],[118.404796,26.452663],[118.399425,26.44892],[118.392507,26.439805],[118.387299,26.428494],[118.387299,26.417914],[118.408783,26.404079],[118.446788,26.402655],[118.65797,26.417914],[118.671804,26.409369],[118.668549,26.371853],[118.678233,26.363308],[118.6928,26.362738],[118.703868,26.360297],[118.714285,26.355007],[118.726166,26.345893],[118.754893,26.317898],[118.770518,26.306464],[118.799734,26.29918],[118.840424,26.283515],[118.853526,26.273871],[118.842052,26.248725],[118.849132,26.23196],[118.866954,26.220771],[118.887706,26.21247],[118.898204,26.219062],[118.912527,26.219672],[118.942312,26.21247],[118.959727,26.200303],[118.966807,26.198188],[118.993744,26.1942],[119.000987,26.195502],[119.015717,26.200629],[119.024832,26.201036],[119.032481,26.19831],[119.044526,26.188829],[119.057384,26.181179],[119.078868,26.154486],[119.093761,26.145819]]]}},{"type":"Feature","properties":{"kind":"rivers","name":null,"source":"Natural Earth 1:10m"},"geometry":{"type":"MultiLineString","coordinates":[[[120.587006,31.128038],[120.594737,31.140815],[120.608653,31.170722],[120.621186,31.183295],[120.635834,31.19005],[120.677419,31.20128],[120.693614,31.203192],[120.725352,31.212022],[120.749115,31.232449],[120.769786,31.255235],[120.792491,31.27143],[120.777924,31.277411],[120.771495,31.278266],[120.782319,31.288926],[120.800792,31.291612],[120.840343,31.292548],[120.869314,31.308946],[120.874522,31.309638],[120.878673,31.31741],[120.88795,31.317694],[120.902354,31.313056],[120.9345,31.326036],[120.948985,31.327704],[121.00587,31.304551],[121.019786,31.305203],[121.038992,31.313056],[121.038829,31.294623],[121.036794,31.286444],[121.032725,31.278266],[121.054861,31.27497],[121.152273,31.278266],[121.164561,31.275458],[121.172293,31.268988],[121.177664,31.262071],[121.182872,31.257839],[121.205089,31.256537],[121.224864,31.261746],[121.243337,31.264187],[121.261729,31.254706],[121.282156,31.24018],[121.302745,31.233832],[121.340587,31.230496],[121.384532,31.218777],[121.406749,31.219062],[121.424571,31.246039],[121.444591,31.247667],[121.492117,31.244167],[121.507823,31.246894],[121.530772,31.25373],[121.551362,31.265163],[121.560313,31.281684],[121.555675,31.308539],[121.544037,31.325385],[121.511811,31.354031],[121.504893,31.362128],[121.500499,31.369818],[121.501882,31.378119],[121.511811,31.388129]]]}},{"type":"Feature","properties":{"kind":"rivers","name":"Ou","source":"Natural Earth 1:10m"},"geometry":{"type":"MultiLineString","coordinates":[[[119.041108,27.788194],[119.000092,27.794298],[118.974539,27.818793],[118.967784,27.853583],[118.983816,27.890489],[119.067475,27.990505],[119.097341,28.047309],[119.112315,28.062201],[119.127371,28.069403],[119.174327,28.079454],[119.190929,28.091091],[119.220225,28.12169],[119.23878,28.130927],[119.277192,28.130072],[119.355235,28.106716],[119.39267,28.107204],[119.402192,28.111192],[119.410655,28.117214],[119.474294,28.182318],[119.501394,28.202704],[119.533783,28.213813],[119.549571,28.213446],[119.591319,28.201443],[119.613048,28.204942],[119.629812,28.217312],[119.658132,28.249823],[119.752452,28.320746],[119.772634,28.34044],[119.832042,28.428534],[119.848725,28.441107],[119.868337,28.44477],[119.891531,28.437201],[119.915294,28.415107],[119.938975,28.361151],[119.958507,28.338446],[119.976085,28.330675],[120.033783,28.32746],[120.065929,28.31977],[120.096121,28.306464],[120.106293,28.297675],[120.123139,28.274441],[120.13323,28.266628],[120.146251,28.262803],[120.15797,28.261339],[120.169688,28.258653],[120.182221,28.251166],[120.192149,28.242051],[120.198822,28.233181],[120.214773,28.202094],[120.22047,28.194648],[120.233653,28.182929],[120.266124,28.156602],[120.276541,28.14997],[120.289561,28.144965],[120.318126,28.140692],[120.333507,28.140937],[120.34669,28.143744],[120.379242,28.160183],[120.391694,28.161811],[120.404389,28.159247],[120.44337,28.1435],[120.460134,28.141059],[120.511648,28.141221],[120.526378,28.138048],[120.569591,28.113389]]]}},{"type":"Feature","properties":{"kind":"rivers","name":null,"source":"Natural Earth 1:10m"},"geometry":{"type":"MultiLineString","coordinates":[[[117.955496,31.497992],[117.981456,31.452908],[118.030935,31.438544],[118.086436,31.432644],[118.147472,31.403998],[118.253184,31.393012],[118.269786,31.400214],[118.298595,31.429145]]]}}]}